FECHA_CSV;SIGNATURA;NOMBRE;DIRECCION;CP;PROV_CODIGO;PROVINCIA;MUNI_CODIGO;MUNICIPIO;COMARCA;EMAIL;TELEFONO;FAX;WEB;ACTIVIDADES;EN_LOCALIDADES
26/01/2025 1:00;CVTA00001 A;VOLTOUR BIKE EXPERIENCE;POLÍGONO INDUSTRIAL COTES BAIXES CALLE B, NAVE 1D;3804;3;ALACANT;9;ALCOI/ALCOY;L'ALCOIA;info@voltour.com;965271791;;http://voltour.com;;Agres (ALACANT), Alcoi/Alcoy (ALACANT), El Castell de Guadalest (ALACANT), L'Orxa/Lorcha (ALACANT), Cabanes (CASTELLÓ), Alboraia/Alboraya (VALÈNCIA)
26/01/2025 1:00;CVTA00002 A;CENTRO DE BUCEO PELICAR;PUERTO DE JAVEA, MUELLE NORTE, S/N;3730;3;ALACANT;82;XÀBIA/JÁVEA;LA MARINA ALTA;pelicarbuceo@gmail.com;96 646 21 83;96 646 21 83;www.buceopelicar.com;;Xàbia/Jávea (ALACANT)
26/01/2025 1:00;CVTA00003 A;CELACANTO;CALLE SARDINAL, EDIFICIO SAN RAFAEL, 2;3590;3;ALACANT;18;ALTEA;LA MARINA BAIXA;curso@buceoaltea.com;607 23 93 78;965845081;https://buceoaltea.com;;Altea (ALACANT), Benidorm (ALACANT)
26/01/2025 1:00;CVTA00004 A;NUEVO ALPINISMO MONTAÑA MEDITERRANEA;CALLE SANTA ANA, 5-2;3204;3;ALACANT;65;ELX/ELCHE;EL BAIX VINALOPO;montana.mediterranea@gmail.com;659269169;966695782;http://montana-mediterranea.com;;Albatera (ALACANT), Alcoi/Alcoy (ALACANT), Callosa de Segura (ALACANT), Calp (ALACANT), Castalla (ALACANT), Crevillent (ALACANT), Orihuela (ALACANT), Petrer (ALACANT), Redován (ALACANT), Villena (ALACANT)
26/01/2025 1:00;CVTA00005 A;CENTRO DE BUCEO LA GALERA;PASEO CLUB NÁUTICO MORAIRA, MUELLE PESQUERO;3724;3;ALACANT;128;TEULADA;LA MARINA ALTA;buceolagalera@gmail.com;646674766;;http://www.buceolagalera.es;;Calp (ALACANT), Poble Nou de Benitatxell, el/ Benitachell (ALACANT), Teulada (ALACANT)
26/01/2025 1:00;CVTA00006 A;15 CUMBRES;CALLE ALEMANIA, 4-ENTLO.;3003;3;ALACANT;14;ALACANT/ALICANTE;L'ALACANTI;info@15cumbres.com;618686111;;http://15cumbres.com;;Busot (ALACANT), Callosa d'en Sarrià (ALACANT), Confrides (ALACANT), La Nucia (ALACANT), Villena (ALACANT)
26/01/2025 1:00;CVTA00010 A;SCUBA MORAIRA;CARRETERA MORAIRA-CALPE, 130;3724;3;ALACANT;128;TEULADA;LA MARINA ALTA;info@scubamoraira.com;638088972;;http://www.scubamoraira.com;;Benissa (ALACANT), Calp (ALACANT), Poble Nou de Benitatxell, el/ Benitachell (ALACANT), Teulada (ALACANT), Xàbia/Jávea (ALACANT)
26/01/2025 1:00;CVTA00011 A;TRAMUNTANA AVENTURA;CALLE SEGURA, 13-BJ-D;3004;3;ALACANT;14;ALACANT/ALICANTE;L'ALACANTI;info@tramuntanaaventura.es;616351506;;http://tramuntanaaventura.es;;Alcoi/Alcoy (ALACANT), Banyeres de Mariola (ALACANT), Confrides (ALACANT), Crevillent (ALACANT), El Castell de Guadalest (ALACANT), La Vall de Laguar (ALACANT), La Vall d'Ebo (ALACANT), Monforte del Cid (ALACANT), Novelda (ALACANT), Tàrbena (ALACANT)
26/01/2025 1:00;CVTA00012 A;CENTRO EXCURSIONISTA PEGO;CALLE LLAVADOR (APTO..17), S/N;3780;3;ALACANT;102;PEGO;LA MARINA ALTA;cexcursionistapego@gmail.com;686 090 511;;https://www.cepego.com;;Alcoi/Alcoy (ALACANT), Cocentaina (ALACANT), La Vall d'Alcalà (ALACANT), La Vall de Laguar (ALACANT), La Vall d'Ebo (ALACANT), L'Atzúbia (ALACANT), Parcent (ALACANT), Pego (ALACANT), Planes (ALACANT), Xàbia/Jávea (ALACANT)
26/01/2025 1:00;CVTA00013 A;ANTHIAS SANTA POLA;CALLE MUELLE DE PONIENTE - CLUB NAUTICO - PANTALAN 6, S/N;3130;3;ALACANT;121;SANTA POLA;EL BAIX VINALOPO;santapola@anthias.es;691696601;;http://www.anthias.es;;Alacant/Alicante (ALACANT), Santa Pola (ALACANT)
26/01/2025 1:00;CVTA00014 A;AKTIVE-LIFE SPORTS & EVENTS;CALLE TRUENO POLÍGONO INDUSTRIAL PLA DE LA VALLONGA, 53;3006;3;ALACANT;14;ALACANT/ALICANTE;EL BAIX VINALOPO;heike@aktive-life.com;669497127;;https://www.aktive-life.com/es/;;Alcoi/Alcoy (ALACANT), Banyeres de Mariola (ALACANT), Beniardá (ALACANT), Benidorm (ALACANT), Benissa (ALACANT), Bolulla (ALACANT), Castalla (ALACANT), Dénia (ALACANT), El Castell de Guadalest (ALACANT), Finestrat (ALACANT)
26/01/2025 1:00;CVTA00015 A;DIVING STONES;PASEO DE COLÓN, 1,CASETA 3;3501;3;ALACANT;31;BENIDORM;LA MARINA BAIXA;reservas@revolutiondive.com;618 406 991;;http://www.divingstones.com;;Benidorm (ALACANT)
26/01/2025 1:00;CVTA00017 A;ALI-SUB BUCEO;AVENIDA DEL PUERTO, S/N. CLUB NÁUTICO;3570;3;ALACANT;139;LA VILA JOIOSA/VILLAJOYOSA;LA MARINA BAIXA;buceo@ali-sub.com;966810107;966810107;https://www.ali-sub.com;;Benidorm (ALACANT), La Vila Joiosa/Villajoyosa (ALACANT)
26/01/2025 1:00;CVTA00018 A;TURURAC EFESENDRA;AVENIDA GANDIA, 2;3700;3;ALACANT;63;DÉNIA;LA MARINA ALTA;tururac@tururac.com;630992488;965782360;http://www.tururac.com;;Beniarbeig (ALACANT), Bolulla (ALACANT), Callosa d'en Sarrià (ALACANT), Castell de Castells (ALACANT), Dénia (ALACANT), La Vall de Laguar (ALACANT), La Vall d'Ebo (ALACANT), Tavernes de la Valldigna (VALÈNCIA), Xàtiva (VALÈNCIA)
26/01/2025 1:00;CVTA00020 A;SILVOTURISMO;CALLE COLON, 53;3610;3;ALACANT;104;PETRER;EL VINALOPO MITJA/EL VINALOPO;correo@silvoturismo.com;965376231;;http://silvoturismo.com;;La Vall de Laguar (ALACANT), Venta del Moro (VALÈNCIA)
26/01/2025 1:00;CVTA00021 A;GRIETA AVENTURA;CALLE CERVANTES, 19;3810;3;ALACANT;35;BENILLOBA;EL COMTAT;info@grieta-aventura.com;659 581 937;;https://www.grieta-aventura.com;;Alcoi/Alcoy (ALACANT), Banyeres de Mariola (ALACANT), Bolulla (ALACANT), Castell de Castells (ALACANT), Confrides (ALACANT), Dénia (ALACANT), El Castell de Guadalest (ALACANT), Penàguila (ALACANT), Petrer (ALACANT), Polop (ALACANT)
26/01/2025 1:00;CVTA00022 A;IBINATURA;CALLE MAYOR, 26;3440;3;ALACANT;79;IBI;L'ALCOIA;info@ibinatura.com;610057522;;;;Ibi (ALACANT)
26/01/2025 1:00;CVTA00023 A;KAYAK JAVEA / KAYAK DENIA;CARRETERA CABO SANT ANTONIO - BUZÓN 1267, 3;3730;3;ALACANT;82;XÀBIA/JÁVEA;LA MARINA ALTA;info@kayakjavea.com;679753761;;https://www.kayakjavea.com;;Dénia (ALACANT), Xàbia/Jávea (ALACANT)
26/01/2025 1:00;CVTA00027 A;ALICANTE AVENTURA;PARTIDA PARAISO, 66;3570;3;ALACANT;139;LA VILA JOIOSA/VILLAJOYOSA;LA MARINA BAIXA;alicanteaventura.experience@gmail.com;622197848;;https://alicanteaventura.com;;Alcoi/Alcoy (ALACANT), Altea (ALACANT), Bolulla (ALACANT), Callosa de Segura (ALACANT), Confrides (ALACANT), Dénia (ALACANT), La Vall de Laguar (ALACANT), La Vila Joiosa/Villajoyosa (ALACANT), Ondara (ALACANT), Orxeta (ALACANT), Petrer (ALACANT), Poble Nou de Benitatxell, el/ Benitachell (ALACANT), Polop (ALACANT), Redován (ALACANT), Relleu (ALACANT), Teulada (ALACANT), Villena (ALACANT), Xàbia/Jávea (ALACANT), Anna (VALÈNCIA), Cortes de Pallás (VALÈNCIA), Enguera (VALÈNCIA), Millares (VALÈNCIA), Quesa (VALÈNCIA), Tavernes de la Valldigna (VALÈNCIA), Tous (VALÈNCIA), València (VALÈNCIA), Vallada (VALÈNCIA)
26/01/2025 1:00;CVTA00028 A;MARCO POLO EXPEDICIONES;AVENIDA DE EUROPA, 11;3503;3;ALACANT;31;BENIDORM;LA MARINA BAIXA;info@marcopoloexp.es;965 863 399;;http://www.marcopoloexp.es/es/;;Altea (ALACANT), Benidorm (ALACANT), Callosa d'en Sarrià (ALACANT), L'Alfàs del Pi (ALACANT)
26/01/2025 1:00;CVTA00029 A;CENTRO DE BUCEO SCUBA ELX;PASAJE GRANADA, 5- LOCAL 3;3130;3;ALACANT;121;SANTA POLA;EL BAIX VINALOPO;info@scubaelx.com;663237389;;http://scubaelx.com;;Santa Pola (ALACANT)
26/01/2025 1:00;CVTA00031 A;ARRELS, GESTIÓ  I PROMOCIÓ DEL MEDI;CALLE PRIMER DE MAIG, 4;3804;3;ALACANT;9;ALCOI/ALCOY;L'ALCOIA;arrelsmediambient@gmail.com;659987014;;http://arrelsmediambient.net;;Alcoi/Alcoy (ALACANT), Alcoleja (ALACANT), Benasau (ALACANT), Beniardá (ALACANT), Benifallim (ALACANT), Benifato (ALACANT), Castalla (ALACANT), Confrides (ALACANT), Penàguila (ALACANT), Torre de les Maçanes, la / Torremanzanas (ALACANT)
26/01/2025 1:00;CVTA00032 A;CENTRO DE BUCEO SCÓRPORA;CALLE PAU CASALS, 6;3581;3;ALACANT;11;L'ALFÀS DEL PI;LA MARINA BAIXA;scorpora.albir@hotmail.com;966867305;;http://centrobuceoscorpora.com;;L'Alfàs del Pi (ALACANT)
26/01/2025 1:00;CVTA00034 A;S.D. CLUB NAUTICO  CAMPELLO;PARTIDA LA ILLETA, S/N;3560;3;ALACANT;50;EL CAMPELLO;L'ALACANTI;info@cncampello.com;965633400;965631964;http://www.cncampello.com;;El Campello (ALACANT)
26/01/2025 1:00;CVTA00035 A;NAUTICA PEREZ;CARRETERA LAS MARINAS, 203;3700;3;ALACANT;63;DÉNIA;LA MARINA ALTA;info@nauticaperez.com;965785976;;http://nauticaperez.com;;Dénia (ALACANT), Xàbia/Jávea (ALACANT)
26/01/2025 1:00;CVTA00038 A;AESTAS ECOTURISMO;CALLE DR. BARRAQUER, 41-2º;3760;3;ALACANT;95;ONDARA;LA MARINA ALTA;info@aestas.es;667523604;;;;Benidorm (ALACANT), Calp (ALACANT), Dénia (ALACANT), Finestrat (ALACANT)
26/01/2025 1:00;CVTA00039 A;BUCEO CABO LA NAO;CALLE CANAL SUR, 2;3730;3;ALACANT;82;XÀBIA/JÁVEA;LA MARINA ALTA;buceo@cabolanao.com;+34 609 672 856;;https://cabolanao.com;;Xàbia/Jávea (ALACANT)
26/01/2025 1:00;CVTA00040 A;POSIDONIA ECOSPORTS;CALLE BARRELA, 4-LOCAL2;3110;3;ALACANT;90;MUTXAMEL;L'ALACANTI;info@posidoniaecosports.com;665 908 763;;https://posidoniaecosports.com;;Alacant/Alicante (ALACANT), Altea (ALACANT), Benidorm (ALACANT), Xàbia/Jávea (ALACANT)
26/01/2025 1:00;CVTA00041 A;MARDAYS;PUERTO MARINA NOU FONTANA, PLAYA DEL ARENAL, FTE. PARADOR, S/N;3730;3;ALACANT;82;XÀBIA/JÁVEA;LA MARINA ALTA;info@mardaysresort.com;665 496 333;;https://www.mardaysresort.com/;;Dénia (ALACANT), Xàbia/Jávea (ALACANT)
26/01/2025 1:00;CVTA00042 A;NAUTIMED;PASEO VISTALEGRE, S/N;3180;3;ALACANT;133;TORREVIEJA;EL BAIX SEGURA/LA VEGA BAJA;info@nautimed.com;609061106;;http://nautimed.com;;Alacant/Alicante (ALACANT), Guardamar del Segura (ALACANT), Orihuela (ALACANT), Torrevieja (ALACANT)
26/01/2025 1:00;CVTA00044 A;YEGUADA SALINAS;PARAJE PARAJE CASA BIAR, 32 A;3638;3;ALACANT;116;SALINAS;L'ALT VINALOPO/ALTO VINALOPO;fjosecarbonell70@gmail.com;609967497;;http://yeguadasalinas.es;;Salinas (ALACANT)
26/01/2025 1:00;CVTA00045 A;FLYING CRUISER;PASEO CONDE DE VALLELLANO, S/N;3001;3;ALACANT;14;ALACANT/ALICANTE;L'ALACANTI;info@flyingcruiser.com;652965646;;http://flyingcruiser.com;;Alacant/Alicante (ALACANT)
26/01/2025 1:00;CVTA00046 A;VOLANTE CHARTERS;CALLE MENORCA, 9;3183;3;ALACANT;133;TORREVIEJA;EL BAIX SEGURA/LA VEGA BAJA;kev2109@hotmail.com;636159885;;http://costa-boat-trips.eu;;Alacant/Alicante (ALACANT), Torrevieja (ALACANT)
26/01/2025 1:00;CVTA00047 A;ESCUELA DE VELA LA ESCANDALOSA;PLAYA ACEQUIÓN-PUERTO DEPORTIVO, S/N;3181;3;ALACANT;133;TORREVIEJA;EL BAIX SEGURA/LA VEGA BAJA;info@laescandalosa.com;608665054;;http://laescandalosa.com;;Torrevieja (ALACANT)
26/01/2025 1:00;CVTA00048 A;CLUB NAUTICO MARINA INTERNACIONAL;PLAYA ACEQUIÓN, S/N;3181;3;ALACANT;133;TORREVIEJA;EL BAIX SEGURA/LA VEGA BAJA;info@cnmi.es;965 713 650;965714266;https://www.puertodeportivomarinainternacional.com;;Alacant/Alicante (ALACANT), Torrevieja (ALACANT)
26/01/2025 1:00;CVTA00050 A;COSTA BLANCA SAILING;AVENIDA NIZA, 37;3540;3;ALACANT;14;ALACANT/ALICANTE;L'ALACANTI;info@costablancasailing.co.uk;661785305;;http://costablancasailing.co.uk;;Alacant/Alicante (ALACANT)
26/01/2025 1:00;CVTA00053 A;PARAPENTE SANTA POLA;PARTIDA SOL DEL CAMP, 172;3698;3;ALACANT;2;AGOST;EL BAIX VINALOPO;info@parapentesantapola.es;689866111;;https://www.parapentesantapola.es/;;Agost (ALACANT), Santa Pola (ALACANT)
26/01/2025 1:00;CVTA00054 A;ACTIVIDADES NAUTICAS TORREVIEJA - Flyboard Torrevieja;PASEO VISTALEGRE, PUERTO DE MARINA SALINAS, S/N;3181;3;ALACANT;133;TORREVIEJA;EL BAIX SEGURA/LA VEGA BAJA;reservas@flyboardtorrevieja.com;655 023 039;;http://flyboardtorrevieja.com;;Torrevieja (ALACANT)
26/01/2025 1:00;CVTA00057 A;EN RUTA MULTIAVENTURA;CALLE FILÀ ASTURIANS, 7C;3801;3;ALACANT;9;ALCOI/ALCOY;L'ALCOIA;info@enrutamultiaventura.com;616 859 543;;https://enrutamultiaventura.com;;Alcoi/Alcoy (ALACANT), Banyeres de Mariola (ALACANT), Dénia (ALACANT), Villena (ALACANT), Anna (VALÈNCIA), Gandia (VALÈNCIA), Requena (VALÈNCIA), Xàtiva (VALÈNCIA)
26/01/2025 1:00;CVTA00059 A;TRONKOS Y BARRANCOS;AVENIDA JUAN XXIII, 11 - B, 11;3400;3;ALACANT;140;VILLENA;L'ALCOIA;info@tronkosybarrancos.com;636933119;;https://tronkosybarrancos.com;;Agost (ALACANT), Alcoi/Alcoy (ALACANT), Banyeres de Mariola (ALACANT), Beneixama (ALACANT), Biar (ALACANT), Callosa de Segura (ALACANT), Callosa d'en Sarrià (ALACANT), Calp (ALACANT), Castalla (ALACANT), Dénia (ALACANT), Elda (ALACANT), La Vall de Laguar (ALACANT), La Vall d'Ebo (ALACANT), La Vila Joiosa/Villajoyosa (ALACANT), Petrer (ALACANT), Polop (ALACANT), Redován (ALACANT), Relleu (ALACANT), Santa Pola (ALACANT), Villena (ALACANT), Enguera (VALÈNCIA), Gandia (VALÈNCIA), Quesa (VALÈNCIA)
26/01/2025 1:00;CVTA00061 A;RANCHO SIERRA HELADA;CAMINO DEL REPETIDOR, 5;69301;3;ALACANT;11;L'ALFÀS DEL PI;LA MARINA BAIXA;aitorgarciabenidorm@gmail.com;693 012 399;;https://hipicasierrahelada.com;;Benidorm (ALACANT)
26/01/2025 1:00;CVTA00064 A;VITAL PARCENTRE;CAMINO DEL POU, 103;3792;3;ALACANT;100;PARCENT;LA MARINA ALTA;info@vitalparcentre.com;625408403;;http://vitalparcentre.com;;Parcent (ALACANT)
26/01/2025 1:00;CVTA00066 A;LAS ANTIPODAS WATERSPORTS;CARRETERA CALPE-MORAIRA , C.N. LES BASETES, KM.2,5;3710;3;ALACANT;47;CALP;LA MARINA ALTA;mail@lasantipodas.com;965838310;;http://lasantipodas.com;;Calp (ALACANT)
26/01/2025 1:00;CVTA00067 A;PAINTBALL DE ELITE;CAMINO DE LA MORERA, 03;3730;3;ALACANT;82;XÀBIA/JÁVEA;LA MARINA ALTA;paintballdeelitejavea@gmail.com;672407046;;http://paintballdeelite.com;;Xàbia/Jávea (ALACANT)
26/01/2025 1:00;CVTA00068 A;CUQUET DE LLUM AVENTURA;CALLE CARRATALÁ, 20 BAJO;3007;3;ALACANT;14;ALACANT/ALICANTE;L'ALACANTI;merinoserg@hotmail.com;966308686;;;;Alacant/Alicante (ALACANT), Alcoi/Alcoy (ALACANT), Biar (ALACANT), Calp (ALACANT), El Campello (ALACANT), Finestrat (ALACANT), La Vall de Laguar (ALACANT), Onil (ALACANT)
26/01/2025 1:00;CVTA00070 A;ITOURS ADVENTURE;AVENIDA DE LA FONTANA, 1;3730;3;ALACANT;82;XÀBIA/JÁVEA;LA MARINA ALTA;itours@itoursadventure.com;634380297;;http://itoursadventure.com;;Dénia (ALACANT)
26/01/2025 1:00;CVTA00071 A;AITANA AVENTURES;AVENIDA CONSTITUCIÓN, 6 5º IZDA.;3002;3;ALACANT;14;ALACANT/ALICANTE;L'ALACANTI;viajes@aitanaaventures.com;966 89 05 32;;http://www.aitanaaventures.com;;Alcoi/Alcoy (ALACANT)
26/01/2025 1:00;CVTA00073 A;MULTIAVENTURA;CALLE GIBRALTAR (LOCAL 10), 4;3710;3;ALACANT;47;CALP;LA MARINA ALTA;calpemultiaventura@gmail.com;695162004;;www.calpemultiaventura.com;;Calp (ALACANT)
26/01/2025 1:00;CVTA00075 A;SIESTA ADVISOR;AVENIDA PARIS, 35 - LOCAL 7, 35;3730;3;ALACANT;82;XÀBIA/JÁVEA;LA MARINA ALTA;info@siestaadvisor.com;639908367;;http://www.siestaadvisor.com;;Xàbia/Jávea (ALACANT)
26/01/2025 1:00;CVTA00076 A;OUTDOOR DEPORTE AVENTURA Y NATURALEZA;POLÍGONO ELS ALGARS C/ BAÑERES DE MARIOLA 18-B NAVE 4, 18-B;3820;3;ALACANT;56;COCENTAINA;EL COMTAT;info@outdooraventura.com;965543394;;http://outdooraventura.com;;Alcoi/Alcoy (ALACANT)
26/01/2025 1:00;CVTA00077 A;OXYTOURS;CALLE HONDÓN DE LAS NIEVES, 2-3º A;3005;3;ALACANT;14;ALACANT/ALICANTE;L'ALACANTI;hola@oxytours.com;693701596;;http://oxytours.com;;Alacant/Alicante (ALACANT), Alcoi/Alcoy (ALACANT), Benidorm (ALACANT), Calp (ALACANT), Finestrat (ALACANT), la Vall de Gallinera (ALACANT)
26/01/2025 1:00;CVTA00078 A;ALBIR MARINA;AVENIDA PUERTO, 22 - BLOQUE 2, 3º P;3590;3;ALACANT;18;ALTEA;LA MARINA BAIXA;albirmarina@albirmarina.com;965 845 175;;https://albirmarina.com;;Altea (ALACANT)
26/01/2025 1:00;CVTA00079 A;CABLE-SKI BENIDORM;CALLE FIORDO, 19;3581;3;ALACANT;11;L'ALFÀS DEL PI;LA MARINA BAIXA;info@cableskibenidorm.com;639612713;;http://cableskibenidorm.com;;Benidorm (ALACANT)
26/01/2025 1:00;CVTA00083 A;NISOS BENIDORM;AVENIDA VILLAJOYOSA-EDIF. COBLANCA, 30-LCL,.4, 18;3502;3;ALACANT;31;BENIDORM;LA MARINA BAIXA;info@nisosbenidorm.com;965104736;;www.nisosbenidorm.com;;Benidorm (ALACANT)
26/01/2025 1:00;CVTA00084 A;YO BUCEO;AVENIDA DESIDERIO RODRIGUEZ, 136;3185;3;ALACANT;133;TORREVIEJA;EL BAIX SEGURA/LA VEGA BAJA;torrevieja@yobuceo.es;678490694;;https://yobuceo.es/centros-de-buceo/torrevieja/;;Torrevieja (ALACANT)
26/01/2025 1:00;CVTA00087 A;ESCUELA DE EQUITACION PELUCA;PARTIDA RAMBLA ALTA-CASETA EL SACRISTA, 24;3801;3;ALACANT;9;ALCOI/ALCOY;L'ALCOIA;http://equitacionpeluca.com;609691670;;;;Alcoi/Alcoy (ALACANT)
26/01/2025 1:00;CVTA00090 A;WINDSURFING DENIA;CALLE MEDITERRANIA, 5;3700;3;ALACANT;63;DÉNIA;LA MARINA ALTA;windsurfingdenia@hotmail.fr;655586750;;windsurfingdenia.blogspot.com;;Dénia (ALACANT)
26/01/2025 1:00;CVTA00091 A;XABIA ACTIVA;CARRETERA DEL CABO DE SAN ANTONIO 20;3730;3;ALACANT;82;XÀBIA/JÁVEA;LA MARINA ALTA;xabiactiva@gmail.com;639262323;;https://www.xabiactiva.com;;Alcalalí (ALACANT), Bolulla (ALACANT), Dénia (ALACANT), El Pinós/Pinoso (ALACANT), La Vall de Laguar (ALACANT), La Vall d'Ebo (ALACANT), Llíber (ALACANT), Pedreguer (ALACANT), Poble Nou de Benitatxell, el/ Benitachell (ALACANT), Xàbia/Jávea (ALACANT)
26/01/2025 1:00;CVTA00092 A;TRAIL NATURA;CALLE TEULAR, 6;3430;3;ALACANT;96;ONIL;L'ALCOIA;info@trailnatura.com;691260714;;http://trailnatura.com;;Alacant/Alicante (ALACANT)
26/01/2025 1:00;CVTA00093 A;AVENTURA PATA NEGRA;URBANIZACIÓN MIGUEL HERNANDEZ, 10-UR. PUERTO ROMANO, 1.2.13;3700;3;ALACANT;63;DÉNIA;LA MARINA ALTA;www.aventurapatanegra.com;679155061;;http://www.aventurapatanegradenia.com;;Dénia (ALACANT), Pego (ALACANT), Teulada (ALACANT), Xàbia/Jávea (ALACANT)
26/01/2025 1:00;CVTA00095 A;AREA NAUTICA;CALLE PUIG MOLINS, 32;3730;3;ALACANT;82;XÀBIA/JÁVEA;LA MARINA ALTA;info@areanautica.com;607380480;;www.areanautica.com;;Calp (ALACANT), Dénia (ALACANT), Teulada (ALACANT), Xàbia/Jávea (ALACANT)
26/01/2025 1:00;CVTA00098 A;CORNELIS JOHANNES KOUWENBERG;CALLE GEMINIS, 28;3189;3;ALACANT;99;ORIHUELA;EL BAIX SEGURA/LA VEGA BAJA;inof@divecostablanca.com;;;;;Orihuela (ALACANT)
26/01/2025 1:00;CVTA00100 A;SURFSKI SCHOOL JAVEA;AVENIDA DE LA LIBERTAD, 36 - 2;3730;3;ALACANT;82;XÀBIA/JÁVEA;LA MARINA ALTA;info@surfskischooljavea.es;649409759;;http://surfskischooljavea.es;;Dénia (ALACANT), La Vila Joiosa/Villajoyosa (ALACANT), Xàbia/Jávea (ALACANT)
26/01/2025 1:00;CVTA00101 A;GETAJET;CALLE DARSENA DE BABOR PANTALAN -MARINA DE DENIA, 6;3700;3;ALACANT;63;DÉNIA;LA MARINA ALTA;info@getajet.es;660026593;;;;Dénia (ALACANT), Xàbia/Jávea (ALACANT)
26/01/2025 1:00;CVTA00102 A;ALINA SAILING;CALLE PLAYA DEL ACEQUIÓN S/N PUERTO DEPORTIVO MARINA INT, S/N;3181;3;ALACANT;133;TORREVIEJA;EL BAIX SEGURA/LA VEGA BAJA;alinasailing@gmail.com;653193070;;http://www.alinasailing.com;;Alacant/Alicante (ALACANT), Calp (ALACANT), Guardamar del Segura (ALACANT), Orihuela (ALACANT), Santa Pola (ALACANT)
26/01/2025 1:00;CVTA00104 A;BUCEO PUERTO JAVEA;AVENIDA ESCOLLERA SUR, S/N;3730;3;ALACANT;82;XÀBIA/JÁVEA;LA MARINA ALTA;info@buceopuertojavea.com;965794100;;www.buceopuertodejavea.net;;Xàbia/Jávea (ALACANT)
26/01/2025 1:00;CVTA00106 A;COSTA BLANCA KITESCHOOL;CALLE MOLL DE LA PANSA,  LOCAL 6B;3700;3;ALACANT;63;DÉNIA;LA MARINA ALTA;info@costablancakiteschool.com;650 328 258;;http://www.costablancakiteschool.com;;Dénia (ALACANT)
26/01/2025 1:00;CVTA00107 A;ESCUELA J CHARTER OCÁNO;CALLE REPUBLICA ARGENTINA, 55 BJ;3007;3;ALACANT;14;ALACANT/ALICANTE;L'ALACANTI;INFO@ACADEMIANAUTICAOCEANO.COM oceanoalicante@ono.com;640348052;;WWW.ACADEMIANAUTICAOCEANO.COM;;Alacant/Alicante (ALACANT)
26/01/2025 1:00;CVTA00109 A;BLUE BIKE;CALLE ARGENSOLA, 8-P1;3002;3;ALACANT;14;ALACANT/ALICANTE;L'ALACANTI;info@bluebike.es;674676362;;;;Alacant/Alicante (ALACANT)
26/01/2025 1:00;CVTA00110 A;PAINTBALL INDOOR ALICANTE;CALLE SAGITARIO, 7;3006;3;ALACANT;14;ALACANT/ALICANTE;L'ALACANTI;lucas.cardes@gmail.com;685310087;;http://www.paintballindooralicante.com/;;Alacant/Alicante (ALACANT)
26/01/2025 1:00;CVTA00111 A;PEDRO TAFALLA MORON;PASEO LA ILLETA - CLUB NAUTICO EL CAMPELLO, S/N;3560;3;ALACANT;50;EL CAMPELLO;L'ALACANTI;info@atlantidabuceo.com;615930121;;http://www.atlantidabuceo.com/;;Benidorm (ALACANT), El Campello (ALACANT)
26/01/2025 1:00;CVTA00113 A;SEGWAY TRIP DENIA;CALLE CALDERÓN, 8;3700;3;ALACANT;63;DÉNIA;LA MARINA ALTA;info@segwaydenia.com;965780825;;http://segwaydenia.com;;Dénia (ALACANT), Xàbia/Jávea (ALACANT)
26/01/2025 1:00;CVTA00114 A;CAMPELLO SURF SHOP, SL;CALLE SAN VICENTE, 98 BJ;3560;3;ALACANT;50;EL CAMPELLO;L'ALACANTI;campellosurfshop@gmail.com;603464456;;;;El Campello (ALACANT)
26/01/2025 1:00;CVTA00115 A;CAMPELLO SURF CLUB;CALLE SAN VICENTE, 98;3560;3;ALACANT;50;EL CAMPELLO;L'ALACANTI;campellosurfclub@hotmail.com;603464456;;www.campellosurfclub.es;;El Campello (ALACANT)
26/01/2025 1:00;CVTA00116 A;AQUAVENTURA;CALLE MADRE ELISEA OLIVER ESQUINA LEGAZPI;3005;3;ALACANT;14;ALACANT/ALICANTE;L'ALACANTI;rosaaquaventura@gmail.com;607 892 410;;https://www.aquaventurabuceo.es;;Xàbia/Jávea (ALACANT)
26/01/2025 1:00;CVTA00117 A;MULTIAVENTURA CHARM ALICANTE;AVENIDA JUAN SEBASTIAN EL CANO, 141;3130;3;ALACANT;121;SANTA POLA;EL BAIX VINALOPO;info@multiaventuracharmalicante.es;644 84 87 88;;https://multiaventuracharmalicante.es;;Alcoi/Alcoy (ALACANT), Altea (ALACANT), Benidorm (ALACANT), Benilloba (ALACANT), Benissa (ALACANT), Callosa de Segura (ALACANT), Callosa d'en Sarrià (ALACANT), Castalla (ALACANT), Castell de Castells (ALACANT), Crevillent (ALACANT), Dénia (ALACANT), El Castell de Guadalest (ALACANT), Elda (ALACANT), Elx/Elche (ALACANT), Ibi (ALACANT), La Nucia (ALACANT), La Vila Joiosa/Villajoyosa (ALACANT), Orihuela (ALACANT), Pego (ALACANT), Petrer (ALACANT), Polop (ALACANT), Santa Pola (ALACANT), Sella (ALACANT), Villena (ALACANT)
26/01/2025 1:00;CVTA00118 A;ALOHA SPORT;CALLE DE ROSES, 3-L-BJ DCH, PLAYA MUCHAVISTA;3560;3;ALACANT;50;EL CAMPELLO;L'ALACANTI;info@alohasport.es;722366064;;http://alohasport.es;;Alacant/Alicante (ALACANT), El Campello (ALACANT)
26/01/2025 1:00;CVTA00119 A;FUN & QUADS ADVENTURE;CALLE MOLL DE LA PANSA-PUERTO DEPORTIVO EL PORTET, LOC-B-01;3700;3;ALACANT;63;DÉNIA;LA MARINA ALTA;reservas@funquads.com;965787228;;funquads.com;;Dénia (ALACANT), Xàbia/Jávea (ALACANT)
26/01/2025 1:00;CVTA00120 A;AQUASPORTS BENIDORM;PASEO COLÓN 1, CASETA Nº3, PUERTO COMERCIAL BENIDORM;3501;3;ALACANT;31;BENIDORM;LA MARINA BAIXA;comercial@benmarineworld.com;692454267;;;;Benidorm (ALACANT)
26/01/2025 1:00;CVTA00122 A;ELCHE PALMERAL AVENTURAS;AVENIDA TRAVALÓN, 31;3295;3;ALACANT;65;ELX/ELCHE;EL BAIX VINALOPO;info@multiaventuraelche.com;965 995 012;;https://multiaventuraelche.com;;Elx/Elche (ALACANT)
26/01/2025 1:00;CVTA00123 A;JET DREAM;PARTIDA EL FABRAQUER, 15;3550;3;ALACANT;119;SANT JOAN D'ALACANT;L'ALACANTI;alain_sunjet@hotmail.com;669852373;;;;Alacant/Alicante (ALACANT), Torrevieja (ALACANT)
26/01/2025 1:00;CVTA00124 A;REAL CLUB NAUTICO TORREVIEJA;PASEO VISTA ALEGRE, S/N;3181;3;ALACANT;133;TORREVIEJA;EL BAIX SEGURA/LA VEGA BAJA;info@rcnt.com;965 71 01 12;;https://www.rcnt.com;;Torrevieja (ALACANT)
26/01/2025 1:00;CVTA00125 A;LECLERCQ SURF, SL;AVENIDA DE LA LLIBERTAT, 36;3730;3;ALACANT;82;XÀBIA/JÁVEA;LA MARINA ALTA;leclercqsur@yahoo.es;966114180;;www.leclercqsurf.com;;Xàbia/Jávea (ALACANT)
26/01/2025 1:00;CVTA00126 A;LA BOCANA WATER SPORTS CENTER;PASEO DE LA LIBERTAD (PUERTO DEPORTIVO MARINA SALINAS);3181;3;ALACANT;133;TORREVIEJA;EL BAIX SEGURA/LA VEGA BAJA;info@labocana.es;+34 656 901 978;;http://www.labocana.es;;Torrevieja (ALACANT)
26/01/2025 1:00;CVTA00128 A;COMFORT SAILING;AVENIDA PINTOR FERNANDO SORIA, 14-ES.2-4B;3540;3;ALACANT;14;ALACANT/ALICANTE;L'ALACANTI;reservas@arquitecturanegra.com;628318644;;;;Alacant/Alicante (ALACANT)
26/01/2025 1:00;CVTA00130 A;NAUTICA CORCHO, SL;PASEO MARINA DE DENIA, EDIFICIO F2, LOCAL 2;3700;3;ALACANT;63;DÉNIA;LA MARINA ALTA;info@nauticacorcho.com;649775327;;www.nauticacorcho.com;;Dénia (ALACANT)
26/01/2025 1:00;CVTA00131 A;PLEAMAR 24 NUDOS, SL;PASEO MARINA DE DENIA-EDIFICIO OD, LOC-2;3700;3;ALACANT;63;DÉNIA;LA MARINA ALTA;pleamar@pleamar.net;966435452;;;;Dénia (ALACANT)
26/01/2025 1:00;CVTA00132 A;MOUNTAINWALKS;CALLE SAN GREGORIO, 4;3811;3;ALACANT;60;QUATRETONDETA;EL COMTAT;info@mountainwalks.com;965511044;;;;Quatretondeta (ALACANT)
26/01/2025 1:00;CVTA00133 A;HAMMERSEA;CARRETERA PORTITXOL, 87;3730;3;ALACANT;82;XÀBIA/JÁVEA;LA MARINA ALTA;info@hammersea.com;966473131;;http://hammersea.com;;Xàbia/Jávea (ALACANT)
26/01/2025 1:00;CVTA00134 A;CHARTER SANTA POLA;AVENIDA ESCANDINAVIA, 72;3130;3;ALACANT;121;SANTA POLA;EL BAIX VINALOPO;chartersantapola@gmail.com;626363210;;http://chartersantapola.com;;Altea (ALACANT), Benidorm (ALACANT), Calp (ALACANT), Santa Pola (ALACANT), Teulada (ALACANT)
26/01/2025 1:00;CVTA00135 A;MAGIC & NATURE;CALLE MARQUÉS DE CAMPO6, 2ª PLANTA, PUERTA 2;3700;3;ALACANT;63;DÉNIA;LA MARINA ALTA;info@magicandnature.com;+34 679 761 970;;https://magicandnature.com;;Dénia (ALACANT), Pego (ALACANT), Xàbia/Jávea (ALACANT), Oliva (VALÈNCIA)
26/01/2025 1:00;CVTA00136 A;ASSUMUT;CALLE RAMBLA CHAPÍ, 106;3698;3;ALACANT;2;AGOST;L'ALACANTI;assumutguias@gmail.com;635498037;;http://assumut.com;;Alcoi/Alcoy (ALACANT), Biar (ALACANT), Callosa de Segura (ALACANT), Calp (ALACANT), Crevillent (ALACANT), La Vall de Laguar (ALACANT), Onil (ALACANT), Villena (ALACANT), Benicàssim/Benicasim (CASTELLÓ), Montesa (VALÈNCIA)
26/01/2025 1:00;CVTA00139 A;RUMBO DE TORREVIEJA;URBANIZACIÓN MAR AZUL-C. JUAN DE AUSTRIA, BLX-2º-P2;3185;3;ALACANT;133;TORREVIEJA;EL BAIX SEGURA/LA VEGA BAJA;josealbertomazon30@gmail.com;600042275;;www.rumbotorrevieja.com;;Alacant/Alicante (ALACANT), Santa Pola (ALACANT), Torrevieja (ALACANT)
26/01/2025 1:00;CVTA00145 A;MUNDO MARINO;CALLE JOAN FUSTER, 2;3700;3;ALACANT;63;DÉNIA;LA MARINA ALTA;info@mundomarino.es;+ 34 642 30 66;;https://www.mundomarino.es;;Altea (ALACANT), Calp (ALACANT), Dénia (ALACANT), Xàbia/Jávea (ALACANT)
26/01/2025 1:00;CVTA00146 A;CAPITAN KAYAK;PASEO COLON (CLUB NAUTICO), 0;3501;3;ALACANT;31;BENIDORM;LA MARINA BAIXA;capitankayak@gmail.com;649475242;;http://www.capitankayak.com;;Benidorm (ALACANT), Xàbia/Jávea (ALACANT)
26/01/2025 1:00;CVTA00147 A;ODISEA DIVING;CALLE HUERTO, 6 BAJO;3181;3;ALACANT;133;TORREVIEJA;EL BAIX SEGURA/LA VEGA BAJA;info@odiseadiving.com;966704901;;http://odiseadiving.com;;Torrevieja (ALACANT)
26/01/2025 1:00;CVTA00148 A;TORREVIEJA CHARTER EXPERIENCE;CALLE MALLORCA, 36;3183;3;ALACANT;133;TORREVIEJA;EL BAIX SEGURA/LA VEGA BAJA;torreviejacharterexperience@gmail.com;625081063;;www.torreviejanauticalexperience.com;;Torrevieja (ALACANT)
26/01/2025 1:00;CVTA00149 A;MARITIMAS TORREVIEJA, S.L.;PUERTO PUERTO DE TORREVIEJA, MUELLE PESQUERO;3181;3;ALACANT;133;TORREVIEJA;EL BAIX SEGURA/LA VEGA BAJA;ajl639@wanadoo.es;669412233;966702122;;;Alacant/Alicante (ALACANT), Torrevieja (ALACANT)
26/01/2025 1:00;CVTA00150 A;MATTHEW SCOTT BOLTON BLAIR;CALLE OSSA MAJOR, 8;3700;3;ALACANT;63;DÉNIA;LA MARINA ALTA;mattblair102@gmail.com;684226871;;http://whitecoastcharters.com;;Dénia (ALACANT)
26/01/2025 1:00;CVTA00151 A;TURISMO ACTIVO MONTGÓ;CALLE TERRA, 91;3700;3;ALACANT;63;DÉNIA;LA MARINA ALTA;turismoactivomontgo@gmail.com;617 06 58 93;;https://www.turismoactivomontgo.com;;Dénia (ALACANT), Xàbia/Jávea (ALACANT)
26/01/2025 1:00;CVTA00152 A;RECREATIVOS ACUATICOS HORADADA;CALLE MAYOR, 95 2ºC;3190;3;ALACANT;902;PILAR DE LA HORADADA;EL BAIX SEGURA/LA VEGA BAJA;info@martime.es;692498877;;www.martime.es;;Orihuela (ALACANT), Pilar de la Horadada (ALACANT), Torrevieja (ALACANT)
26/01/2025 1:00;CVTA00153 A;VUELOS COSTABLANCA;CALLE ESCAYOLISTAS, 28;3190;3;ALACANT;902;PILAR DE LA HORADADA;EL BAIX SEGURA/LA VEGA BAJA;info@baliser.es;619272789;;http://martime.es;;Orihuela (ALACANT), Pilar de la Horadada (ALACANT), Torrevieja (ALACANT)
26/01/2025 1:00;CVTA00156 A;BLUE VALLEY WATERSPORTS;PASEO DE GOMIS (LA CANTERA RCRA-FINAL PLAYA POSTIGUET), S/N;3016;3;ALACANT;14;ALACANT/ALICANTE;L'ALACANTI;info@bluevalleyco.com;635230672;;http://bluevalleywatersports.com;;Alacant/Alicante (ALACANT), Busot (ALACANT), El Campello (ALACANT), La Vila Joiosa/Villajoyosa (ALACANT), Mutxamel (ALACANT)
26/01/2025 1:00;CVTA00158 A;EXCURSIONES MARITIMAS BENIDORM, S.L.;PASEO COLON, CLUB NÁUTICO, LOCAL 1, LC.1;3501;3;ALACANT;31;BENIDORM;LA MARINA BAIXA;info@emb2000.es;965856887;;https://excursionesmaritimasbenidorm.es/;;Alacant/Alicante (ALACANT), Benidorm (ALACANT), Calp (ALACANT)
26/01/2025 1:00;CVTA00159 A;CARLOS WATER SPORTS BENIDORM;PASEO COLÓN, MUELLE INDUSTRIAL, OFICINA 4, 4;3501;3;ALACANT;31;BENIDORM;LA MARINA BAIXA;serranocashman@nestcape.net;687631278;;https://carloswatersportsbenidorm.com;;Benidorm (ALACANT)
26/01/2025 1:00;CVTA00160 A;TAO BIKE;AVENIDA MEDITERRÁNEO, 62;3503;3;ALACANT;31;BENIDORM;LA MARINA BAIXA;hola@taobike.es;966 17 57 39;;https://taobike.es;;Benidorm (ALACANT), Callosa d'en Sarrià (ALACANT), La Nucia (ALACANT), Polop (ALACANT)
26/01/2025 1:00;CVTA00161 A;LAKE BENIARRES LEISURE PARK;CARRETERA JACARILLA-TORREVIEJA, SECTOR URBANO UE 2 - VISTABE, 4;3310;3;ALACANT;80;JACARILLA;EL BAIX SEGURA/LA VEGA BAJA;dtray1@hotmail.com;696739048;;;;Orihuela (ALACANT), Pilar de la Horadada (ALACANT), San Miguel de Salinas (ALACANT)
26/01/2025 1:00;CVTA00164 A;AEROGLOBO;PARTIDA BAYA ALTA, 133 - P2;3292;3;ALACANT;65;ELX/ELCHE;EL BAIX VINALOPO;aeroglobospain@gmail.com;966 637 401;;https://aeroglobo.com;;Catral (ALACANT), Elx/Elche (ALACANT)
26/01/2025 1:00;CVTA00165 A;LA RANA BUCEO;CARRETERA AVIUTARDA, URB. COSTA NOVA, AMBOLO 415, LOCAL 1, 1;3730;3;ALACANT;82;XÀBIA/JÁVEA;LA MARINA ALTA;laranabuceo@gmail.com;639412030;;http://laranabuceo.es;;Poble Nou de Benitatxell, el/ Benitachell (ALACANT), Xàbia/Jávea (ALACANT)
26/01/2025 1:00;CVTA00166 A;FRANCISCO JAVIER FÉREZ FERNÁNDEZ;AVENIDA LOS MONTEROS, 39 BJ;3699;3;ALACANT;14;ALACANT/ALICANTE;L'ALACANTI;francisco.ferez@gmail.com;617734813;;;;Busot (ALACANT), Castalla (ALACANT), Cocentaina (ALACANT), Finestrat (ALACANT), Petrer (ALACANT), Villena (ALACANT), Jérica (CASTELLÓ), La Vall d'Uixó (CASTELLÓ), Tavernes de la Valldigna (VALÈNCIA), Tous (VALÈNCIA)
26/01/2025 1:00;CVTA00167 A;ALICANTE RACING QUADS RENT;CALLE SANTIAGO, 14-2º IZDA;3690;3;ALACANT;122;SANT VICENT DEL RASPEIG/SAN VICENTE DEL RASPEIG;L'ALACANTI;alicanteracingquads@gmail.com;697207904;;;;Alacant/Alicante (ALACANT), El Campello (ALACANT), Santa Pola (ALACANT)
26/01/2025 1:00;CVTA00168 A;CERBUQUES, S.L.;PASEO COLÓN, CLUB NÁUTICO, LOCAL 1, S/N.;3501;3;ALACANT;31;BENIDORM;LA MARINA BAIXA;INFO@EMB2000.ES;965853101;;;;Benidorm (ALACANT)
26/01/2025 1:00;CVTA00169 A;DIVING JAVEA;CARRETERA PORTICHOL - URBANIZACIÓN TOSCAMAR, KM 5;3730;3;ALACANT;82;XÀBIA/JÁVEA;LA MARINA ALTA;info@divingjavea.com;966472727;;http://divingjavea.com;;Xàbia/Jávea (ALACANT)
26/01/2025 1:00;CVTA00170 A;AVANZATOUR;PARTIDA ATZAVARES ALT, 280;3290;3;ALACANT;65;ELX/ELCHE;EL BAIX VINALOPO;info@avanzatour.es;639693828;;https://www.avanzatour.es;;Elx/Elche (ALACANT), Santa Pola (ALACANT)
26/01/2025 1:00;CVTA00172 A;DEPORTES NÁUTICOS ALICANTE;CALLE SECRETARIO JUAN ANTONIO BALDOVÍ, 15;3502;3;ALACANT;31;BENIDORM;LA MARINA BAIXA;actividadesacuaticasalicante@gmail.com;609313580;;http://actividadesacuaticasalicante.com;;Alacant/Alicante (ALACANT)
26/01/2025 1:00;CVTA00173 A;BOLINCHE XIXONA SL;CALLE BARCELONA, 1-3 AT.59Z;3100;3;ALACANT;83;XIXONA/JIJONA;L'ALACANTI;cafsxixona@outlook.es;676952159;;;;Agost (ALACANT), Alacant/Alicante (ALACANT), Castell de Castells (ALACANT), Confrides (ALACANT), Finestrat (ALACANT), Petrer (ALACANT), Relleu (ALACANT), Santa Pola (ALACANT), Villena (ALACANT), Xixona/Jijona (ALACANT)
26/01/2025 1:00;CVTA00174 A;INICIATIVAS FYE;AVENIDA DEL PUERTO - MARINA LAS DUNAS, CENTRO OCIO, S/N;3140;3;ALACANT;76;GUARDAMAR DEL SEGURA;EL BAIX SEGURA/LA VEGA BAJA;info@iniciativasfye.com;683112500;;www.iniciativasfye.com;;Guardamar del Segura (ALACANT)
26/01/2025 1:00;CVTA00176 A;MAREMOTOsports Jávea;CALLE MARINA NOU FONTANA - MUELLE BS0, S/N;3730;3;ALACANT;82;XÀBIA/JÁVEA;LA MARINA ALTA;javea@maremoto.com;609678764;;https://www.maremotosports.com/javea;;Xàbia/Jávea (ALACANT)
26/01/2025 1:00;CVTA00179 A;PALAIGUA;PLAZA PLAÇA GRAN - TABARCA, 03;3138;3;ALACANT;14;ALACANT/ALICANTE;L'ALACANTI;palaiguasurf@gmail.com;675750763;;;;Alacant/Alicante (ALACANT)
26/01/2025 1:00;CVTA00180 A; CLUB DE SURF EL MORENO ALICANTE;CALLE DIOSA TANIT, 9;3016;3;ALACANT;14;ALACANT/ALICANTE;L'ALACANTI;elmorenosurf@gmail.com;649556696;;http://clubsurfelmoreno.com;;Alacant/Alicante (ALACANT), Altea (ALACANT), Benidorm (ALACANT), Calp (ALACANT), Dénia (ALACANT), El Campello (ALACANT), La Vila Joiosa/Villajoyosa (ALACANT), Poble Nou de Benitatxell, el/ Benitachell (ALACANT), Teulada (ALACANT), Xàbia/Jávea (ALACANT)
26/01/2025 1:00;CVTA00181 A;ALICANTE CATAMARAN;CALLE ALEMANIA, 1;3003;3;ALACANT;14;ALACANT/ALICANTE;L'ALACANTI;info@alicantecatamaran.com;694 443 820;;https://www.alicantecatamaran.com;;Alacant/Alicante (ALACANT)
26/01/2025 1:00;CVTA00184 A;CENTRO DE BUCEO DIVE & DIVE;AVENIDA DEL PUERTO, 14;3710;3;ALACANT;47;CALP;LA MARINA ALTA;;965839270;;divedivecompany.com;;Calp (ALACANT)
26/01/2025 1:00;CVTA00185 A;JAVIER LÓPEZ SOLER;PASEO VISTA ALEGRE, REAL CLUB NÁUTICO TORREVIEJA, S/N;3181;3;ALACANT;133;TORREVIEJA;EL BAIX SEGURA/LA VEGA BAJA;alquilerdebarcos@hotmail.com;607917826;;www.alquilerbarcotorrevieja.com;;Torrevieja (ALACANT)
26/01/2025 1:00;CVTA00186 A;FORESTAL PARK LA NUCÍA;CALLE GUADALEST, 10;3530;3;ALACANT;94;LA NUCIA;LA MARINA BAIXA;reservas.benidorm@forestalpark.com;662009481;;http://forestalpark.com/lanucia-benidorm;;La Nucia (ALACANT)
26/01/2025 1:00;CVTA00189 A;DIVE ACADEMY SANTA POLA;PASEO MARINA MIRAMAR, PUERTO DEPORTIVO, LOCAL 3, 2;3130;3;ALACANT;121;SANTA POLA;EL BAIX VINALOPO;info@diveacademy-santapola.com;966699088;;http://diveacademy-santapola.com;;Alacant/Alicante (ALACANT), El Campello (ALACANT), Santa Pola (ALACANT), Teulada (ALACANT)
26/01/2025 1:00;CVTA00190 A;CABO ROIG CHARTER;CALLE PUERTO, PUNTO AMARRE 162, S/N;3189;3;ALACANT;99;ORIHUELA;EL BAIX SEGURA/LA VEGA BAJA;info@caboroigcharter.com;633100270;;http://caboroigcharter.com;;Orihuela (ALACANT)
26/01/2025 1:00;CVTA00192 A;ANTONIUS STEUR;CALLE PUERTO DEPORTIVO EL PORTET - LA OLLA DE ALTEA, S/N;3590;3;ALACANT;18;ALTEA;LA MARINA BAIXA;tonysteur@hotmail.com;642029955;;;;Altea (ALACANT)
26/01/2025 1:00;CVTA00193 A;PETRA J M AELTERMAN;CALLE PABLO PICASSO - URB. EL CHAPARRAL, 25;3186;3;ALACANT;133;TORREVIEJA;EL BAIX SEGURA/LA VEGA BAJA;aelterman123@hotmail.com;618048120;;;;Bigastro (ALACANT), Crevillent (ALACANT), Guardamar del Segura (ALACANT), Orihuela (ALACANT), Pilar de la Horadada (ALACANT), San Miguel de Salinas (ALACANT), Torrevieja (ALACANT)
26/01/2025 1:00;CVTA00195 A;SEGWAY TRIP JAVEA;AVENIDA PARIS, 37-PORTAL8;3730;3;ALACANT;82;XÀBIA/JÁVEA;LA MARINA ALTA;info@segwayjavea.com;966471286;;http://segwayjavea.com;;Dénia (ALACANT), Xàbia/Jávea (ALACANT)
26/01/2025 1:00;CVTA00197 A;SOM MEDI;PLAZA ESPAÑA, 12-3º D;3430;3;ALACANT;96;ONIL;L'ALCOIA;info@sommedi.es;652 414 426;;http://sommedi.es;;Desconocido (ALACANT), Desconocido (CASTELLÓ), Desconocido (VALÈNCIA)
26/01/2025 1:00;CVTA00198 A;FINCA DAROCA;CARRETERA COMARCAL 798 ¿ KM 2,5;3440;3;ALACANT;79;IBI;L'ALCOIA;info@fincadaroca.es;+34 965 641 695;;https://fincadaroca.com;;Ibi (ALACANT)
26/01/2025 1:00;CVTA00199 A;SUMMER PARAGLIDING;AVENIDA MARINA BAIXA, 13;3530;3;ALACANT;94;LA NUCIA;LA MARINA BAIXA;JUANPOCA@GMAIL.COM;616193474;;http://SUMMERPARAGLIDING.COM;;Agost (ALACANT), Benidorm (ALACANT), Santa Pola (ALACANT)
26/01/2025 1:00;CVTA00200 A;STELLA MARIS;PASAJE PUERTO DEPORTIVO CABO ROIG, S/N;3189;3;ALACANT;99;ORIHUELA;EL BAIX SEGURA/LA VEGA BAJA;BEACHCLUBSKI@GMAIL.COM;669719152;;http://.JETSKISPAIN.COM;;Orihuela (ALACANT), Torrevieja (ALACANT)
26/01/2025 1:00;CVTA00201 A;TSUNAMI AVENTURA;CALLE CASTILLO, 28;3724;3;ALACANT;128;TEULADA;LA MARINA ALTA;tperezsegui@hotmail.com;676167362;;;;Teulada (ALACANT)
26/01/2025 1:00;CVTA00202 A;OCIOMAR TORREVIEJA;PASEO VISTALEGRE, S/N;3181;3;ALACANT;133;TORREVIEJA;EL BAIX SEGURA/LA VEGA BAJA;info@ociomar.es;672413370;;http://www.ociomar.es;;Torrevieja (ALACANT)
26/01/2025 1:00;CVTA00203 A;ALIJETSET RENTAL S.L.;CALLE MUELLE DE LEVANTE 8 (MARINA DEPORTIVA PUERTO ALICA, S/N;3001;3;ALACANT;14;ALACANT/ALICANTE;L'ALACANTI;info@alijetset.com;617109482;;http://alijetset.com;;Alacant/Alicante (ALACANT)
26/01/2025 1:00;CVTA00204 A;TODA JET;PLAYA DE FINESTRAT, S/N;3509;3;ALACANT;69;FINESTRAT;LA MARINA BAIXA;cosmin_auto@hotmail.com;642796707;;http://todajet.com;;Benidorm (ALACANT), Finestrat (ALACANT), La Vila Joiosa/Villajoyosa (ALACANT)
26/01/2025 1:00;CVTA00205 A;CODE ZERO CHARTER & YACHTS;CAMINO ENTRADOR DE LLOBELL, BAJO 5, PTA 1, 18;3700;3;ALACANT;63;DÉNIA;LA MARINA ALTA;info@codezero.es;661872273;;http://codezero.es;;Dénia (ALACANT)
26/01/2025 1:00;CVTA00206 A;DESAFIO ALPINO;AVENIDA DE LA LIBERTAD, 86 ESC6 7I;3205;3;ALACANT;65;ELX/ELCHE;EL BAIX VINALOPO;info@desafioalpino.es;680420570;;http://desafioalpino.es;;Callosa d'en Sarrià (ALACANT), Calp (ALACANT), Confrides (ALACANT), Crevillent (ALACANT), Elda (ALACANT), La Nucia (ALACANT), Petrer (ALACANT), Polop (ALACANT), Sella (ALACANT), Villena (ALACANT)
26/01/2025 1:00;CVTA00211 A;KANYAMEL TOURS;CALLE SAN RAFAEL, 40;3780;3;ALACANT;102;PEGO;LA MARINA ALTA;info@kanyameltours.com;685624329;;http://kanyameltours.com;;Benissa (ALACANT), Calp (ALACANT), Castell de Castells (ALACANT), Dénia (ALACANT), la Vall de Gallinera (ALACANT), La Vall d'Ebo (ALACANT), Pego (ALACANT), Teulada (ALACANT)
26/01/2025 1:00;CVTA00212 A;SEA FUN BOARDING;AVENIDA GERMANIES, 23, 1º A;3560;3;ALACANT;50;EL CAMPELLO;L'ALCOIA;abel@cuentasvodafone.com;680534902;;http://seafunboarding.es;;El Campello (ALACANT)
26/01/2025 1:00;CVTA00213 A;NÁUTICA NOGUERA;CALLE CASTELL D' OLIMBROI, 9;3700;3;ALACANT;63;DÉNIA;LA MARINA ALTA;administracion@nauticanoguera.com;965780778;;nauticanoguera.com;;Dénia (ALACANT), Xàbia/Jávea (ALACANT)
26/01/2025 1:00;CVTA00214 A;WATERSPORTS SANTAPOLA;CALLE PUERTO DEPORTIVO MARINA MIRAMAR, S/N;3130;3;ALACANT;121;SANTA POLA;EL BAIX VINALOPO;watersportsantapola@gmail.com;637 280 101;;https://www.watersportsantapola.com;;Santa Pola (ALACANT)
26/01/2025 1:00;CVTA00215 A;MILAGROS DE JUANA MARTIN;CARRETERA CABO LA NAO-PLA, BLQ. A, 2ºE1, 65;3730;3;ALACANT;82;XÀBIA/JÁVEA;LA MARINA ALTA;lasbrisasdejavea@yahoo.co.uk;617913189;;;;Dénia (ALACANT), Xàbia/Jávea (ALACANT)
26/01/2025 1:00;CVTA00216 A;GO-KARTS ORIHUELA COSTA;CARRETERA TORREVIEJA-CARTAGENA, KM 57;3189;3;ALACANT;99;ORIHUELA;EL BAIX SEGURA/LA VEGA BAJA;correo@gokartsorihuelacosta.com;965 32 80 69;;https://gokartsorihuelacosta.com;;Orihuela (ALACANT)
26/01/2025 1:00;CVTA00217 A;SNAKEBITE MTB ADVENTURES;CALLE ALBATERA (MORAIRA), 9;3724;3;ALACANT;128;TEULADA;LA MARINA ALTA;info@snakebite-mtb.com;+34 654 85 22 09;;https://www.snakebite-mtb.com;;Altea (ALACANT), Parcent (ALACANT), Xàbia/Jávea (ALACANT)
26/01/2025 1:00;CVTA00218 A;PALAPESCAKAYAK;CALLE DR. MORATAL, 11-1ºB;3740;3;ALACANT;71;GATA DE GORGOS;LA MARINA ALTA;info@palapescakayak.com;616 688 071;;http://palapescakayak.com;;Xàbia/Jávea (ALACANT)
26/01/2025 1:00;CVTA00219 A;LA BARRACA KAYAKS;CALLE MIRAMAR, 1;3730;3;ALACANT;82;XÀBIA/JÁVEA;LA MARINA ALTA;kayakslabarraca@gmail.com;699898433;;https://labarracakayaksjavea.negocio.site/;;Xàbia/Jávea (ALACANT)
26/01/2025 1:00;CVTA00221 A;LEVANTE BOATS;PUERTO MARINA SALINAS, 149;3181;3;ALACANT;133;TORREVIEJA;EL BAIX SEGURA/LA VEGA BAJA;levanteboats@gmail.com;658492835;;http://www.levanteboats.com;;Torrevieja (ALACANT)
26/01/2025 1:00;CVTA00222 A;MON DIVING RESORT DENIA;CALLE MOLL DE LA PANSA LOCAL 4, S/N;3700;3;ALACANT;63;DÉNIA;LA MARINA ALTA;info@mondiving.com;965030930;;www.mondiving.com;;Dénia (ALACANT), Xàbia/Jávea (ALACANT)
26/01/2025 1:00;CVTA00223 A;BIKES4TOURS;CALLE MAR MEDITERRANI, 53;3530;3;ALACANT;94;LA NUCIA;LA MARINA BAIXA;info@bikes4four.com;699 240 421;;www.bikes4tour.com;;Altea (ALACANT), Benidorm (ALACANT), L'Alfàs del Pi (ALACANT), València (VALÈNCIA)
26/01/2025 1:00;CVTA00225 A;PAINTBALL BENIDORM;CAMINO DE LA PARVA, 4;3503;3;ALACANT;31;BENIDORM;LA MARINA BAIXA;670913622;711755603;;https://paintball-benidorm.com/;;Benidorm (ALACANT)
26/01/2025 1:00;CVTA00226 A;BIKE BREAKS;CALLE APARTADO DE CORREOS, 40;3509;3;ALACANT;69;FINESTRAT;LA MARINA BAIXA;info@thedownhillbikeride.com;678437055;;http://thedownhillbikeride.com;;Alcalalí (ALACANT), Altea (ALACANT), El Castell de Guadalest (ALACANT), Finestrat (ALACANT), La Vall de Laguar (ALACANT), La Vila Joiosa/Villajoyosa (ALACANT), Orxeta (ALACANT), Penàguila (ALACANT), Relleu (ALACANT), Sella (ALACANT)
26/01/2025 1:00;CVTA00227 A;CABALLOS, SENDERISMO MAIGMO;PARTIDA TORROSELLAS, POL. IND. MAIGMÓ,, 65;3109;3;ALACANT;129;TIBI;L'ALCOIA;informacion@hipicamaigmoalicante.com;634 37 00 30;;https://www.hipicamaigmoalicante.com;;Tibi (ALACANT)
26/01/2025 1:00;CVTA00228 A;NAUTICA SCUBA ELX;AVENIDA JESÚS ASTONDOA SANTAMARÍA, 1;3130;3;ALACANT;121;SANTA POLA;EL BAIX VINALOPO;https://nauticascubaelx.com;663237389;;https://nauticascubaelx.com;;Santa Pola (ALACANT)
26/01/2025 1:00;CVTA00229 A;REVOLUTION DIVE;PASEO DE COLON, 2 - PUERTO COMERCIAL, 2;3501;3;ALACANT;31;BENIDORM;LA MARINA BAIXA;jorge@revolutiondive.com;615960947;;http://WWW.revolutiondive.com;;Altea (ALACANT), Benidorm (ALACANT), Xàbia/Jávea (ALACANT)
26/01/2025 1:00;CVTA00230 A;CENTRO BUCEO ALTAIR;CALLE ROSA CHACEL, 20 -LOC. D;3008;3;ALACANT;14;ALACANT/ALICANTE;L'ALACANTI;reservas@alicantebuceo.es;634 95 90 13;;https://alicantebuceo.es;;Alacant/Alicante (ALACANT)
26/01/2025 1:00;CVTA00231 A;TABARCA SNORKEL;PASEO TOMÁS Y VALIENTE-MUELLE DE TRÁFICO INTERIOR, S/N;3002;3;ALACANT;14;ALACANT/ALICANTE;L'ALACANTI;tabarcasnorkel@gmail.com;622208127;;http://www.tabarcasnorkel.com;;Alacant/Alicante (ALACANT)
26/01/2025 1:00;CVTA00232 A;JETSURF DENIA;CALLE MOLL DE LA PANSA (C.COMERCIAL PUERTO DEPORTIVO), LOCAL B040;3700;3;ALACANT;63;DÉNIA;LA MARINA ALTA;jetsurfdenia@gmail.com;615102306;;www.jetsurfdenia.com;;Dénia (ALACANT)
26/01/2025 1:00;CVTA00233 A;COSTA KAYAKS;CALLE TEULADA, 122;3740;3;ALACANT;71;GATA DE GORGOS;LA MARINA ALTA;info@costakayaks.com;680537296;;www.costakayaks.com;;Xàbia/Jávea (ALACANT)
26/01/2025 1:00;CVTA00234 A;BELUGAVELA CRUCEROS;CALLE PUERTO DEPORTIVO MARINA DENIA, S/N;3700;3;ALACANT;63;DÉNIA;LA MARINA ALTA;info@belugavela.com;653806508;;http://belugavela.com;;Dénia (ALACANT)
26/01/2025 1:00;CVTA00235 A;JAIME ARA ARACIL;CALLE ENRIC HERNANDEZ, 10 - 3º;3801;3;ALACANT;9;ALCOI/ALCOY;L'ALCOIA;jau.ara@gmail.com;722793970;;;;Alcoi/Alcoy (ALACANT)
26/01/2025 1:00;CVTA00236 A;MEDITERRANEAN JET NAUTICA;PLAYA PLAYAS LA FOSSA Y ARENAL-BOL (PUESTOS PADDLE SURF), S/N;3710;3;ALACANT;47;CALP;LA MARINA ALTA;laura.alonso@mjnautica.com      info@mjnautica.com;615845797;;;;Calp (ALACANT)
26/01/2025 1:00;CVTA00237 A;SEAWOLF TEAM;CALLE PLAYA DEL PORTET, S/N;3724;3;ALACANT;128;TEULADA;LA MARINA ALTA;laura.alonso@estudiovega.com;915239725;;;;Teulada (ALACANT)
26/01/2025 1:00;CVTA00238 A;AKRABOATS;PLAYA MUELLE LEVANTE, 8-LOCAL 3;3001;3;ALACANT;14;ALACANT/ALICANTE;L'ALACANTI;info@akraboats.com;966306777;;http://akraboats.com;;Alacant/Alicante (ALACANT)
26/01/2025 1:00;CVTA00239 A;KARTING ALACANT;CARRETERA SAN VICENTE DEL RASPEIG - SAN JUAN DE ALICANTE, KM 3,8;3112;3;ALACANT;14;ALACANT/ALICANTE;L'ALACANTI;kartingalacant@gmail.com;669354480;;http://kartingalacant.es;;Alacant/Alicante (ALACANT)
26/01/2025 1:00;CVTA00240 A;COSTA BLANCA NORDIC WALKING;CALLE FOCS, 19;3294;3;ALACANT;65;ELX/ELCHE;EL BAIX VINALOPO;info@nordicwalkingalicante.es;670 819 871;;https://www.nordicwalkingalicante.es;;Alacant/Alicante (ALACANT)
26/01/2025 1:00;CVTA00242 A;ENDEMICA;CALLE L'EMPECINADO, 19;3750;3;ALACANT;101;PEDREGUER;LA MARINA ALTA;info@endemicanatura.com;616043173;;http://endemicanatura.com;;Alcalalí (ALACANT), Benissa (ALACANT), Dénia (ALACANT), La Vall d'Alcalà (ALACANT), la Vall de Gallinera (ALACANT), La Vall de Laguar (ALACANT), Pedreguer (ALACANT), Pego (ALACANT), Xaló (ALACANT)
26/01/2025 1:00;CVTA00243 A;HAMMERSEA;CALLE MARSELLA, S/N;3730;3;ALACANT;82;XÀBIA/JÁVEA;LA MARINA ALTA;info@hammersea.com;617722505;;http://hammersea.com;;Xàbia/Jávea (ALACANT)
26/01/2025 1:00;CVTA00244 A;DIVERMAR PARK;CALLE MIRARROSA, 13 - 4º K;3700;3;ALACANT;63;DÉNIA;LA MARINA ALTA;divermarpark@gmail.com;642449072;;;;Dénia (ALACANT), El Puig de Santa Maria (VALÈNCIA)
26/01/2025 1:00;CVTA00245 A;VIVE VIU VERD;CALLE SALAMANCA, 9;3813;3;ALACANT;130;TOLLOS;EL COMTAT;info@viveviuverd.es;616337800;;http://www.viveviuverd.es;;Tollos (ALACANT)
26/01/2025 1:00;CVTA00246 A;DOMINA EL MAR;PASEO MARINA DE DÉNIA, E,, 76;3700;3;ALACANT;63;DÉNIA;LA MARINA ALTA;israel@dominaelmar.com;680440440;;http://www.dominaelmar.com;;Dénia (ALACANT)
26/01/2025 1:00;CVTA00247 A;EZZ BAILY;CAMINO  ASSAGADOR DE LA MARJAL, 22;3700;3;ALACANT;63;DÉNIA;LA MARINA ALTA;javierdelrealperello@gmail.com;646909131;;http://ezzbaily.es;;Alacant/Alicante (ALACANT)
26/01/2025 1:00;CVTA00248 A;AWAKE SENSES;AVENIDA CONDOMINA, ESC. 2, 7ºE, 58;3540;3;ALACANT;14;ALACANT/ALICANTE;L'ALACANTI;info@awakesenses.com;666 313 166;;https://www.awakesenses.com;;El Campello (ALACANT)
26/01/2025 1:00;CVTA00249 A;MOTOFIESTA;CARRETERA MORAIRA - CALPE, LOCAL 1, 219;3724;3;ALACANT;128;TEULADA;LA MARINA ALTA;info@motofiesta.eu;966146688;;http://motofiesta.eu;;Alacant/Alicante (ALACANT)
26/01/2025 1:00;CVTA00250 A;PETER MURDOCH;AVENIDA PRINCIPE DE ASTURIAS, 9 1;3730;3;ALACANT;82;XÀBIA/JÁVEA;LA MARINA ALTA;juanjo@vivespons.com;966432624;;http://www.blancabikes.es;;Xàbia/Jávea (ALACANT)
26/01/2025 1:00;CVTA00251 A;MIGUEL CATALA PEREZ;CALLE CAPELLETES, 8;3726;3;ALACANT;42;POBLE NOU DE BENITATXELL, EL/ BENITACHELL;LA MARINA ALTA;tperezsegui@hotmail.com;606505750;;;;Teulada (ALACANT), Xàbia/Jávea (ALACANT)
26/01/2025 1:00;CVTA00253 A;CARLOS VIDAL ROMAN;CALLE SANTO TOMÁS, 9 - BAJO DCHA., 9;3002;3;ALACANT;14;ALACANT/ALICANTE;L'ALACANTI;carlosvidal11@gmail.com;636424020;;http://siquepasa.com;;Alacant/Alicante (ALACANT)
26/01/2025 1:00;CVTA00254 A;ALICANTE PARASAILING XPERIENCE;CALLE DE LA ILLETA (C.N. EL CAMPELLO), S/N;3560;3;ALACANT;50;EL CAMPELLO;L'ALACANTI;info@cncampello.com;965633400;;www.parasailingalicante.com;;El Campello (ALACANT)
26/01/2025 1:00;CVTA00255 A;DANIEL POMARES MIRA;CALLE SAN JUAN DE LA CRUZ, 37-2º;3660;3;ALACANT;93;NOVELDA;EL VINALOPO MITJA/EL VINALOPO;biosferadpm@gmail.com;677319042;;;;Castalla (ALACANT), Elda (ALACANT), Petrer (ALACANT), Tibi (ALACANT)
26/01/2025 1:00;CVTA00256 A;SHA WELLNESS CLINIC;CALLE VERDEROL, 5;3581;3;ALACANT;11;L'ALFÀS DEL PI;LA MARINA BAIXA;finances@shawellnessclinic.com;965850812;;;;L'Alfàs del Pi (ALACANT)
26/01/2025 1:00;CVTA00257 A;LA SAL CENTRO DE BUCEO;CALLE NUEVA DARSENA PESQUERA LOCAL Nº 4, S/N;3008;3;ALACANT;14;ALACANT/ALICANTE;L'ALACANTI;aitanamar@@aitanamar.com;664875587;;http://www.lasaldivingcenteralicante.com;;Alacant/Alicante (ALACANT)
26/01/2025 1:00;CVTA00258 A;ADVENTURE BOAT S.L.;PASEO VISTA ALEGRE S/N PUERTO MARINA SALINAS, PANTALÁN H;3182;3;ALACANT;133;TORREVIEJA;EL BAIX SEGURA/LA VEGA BAJA;info@adventureboat.es;655 927 358;;http://www.adventureboat.es;;Torrevieja (ALACANT)
26/01/2025 1:00;CVTA00259 A;SCOOTATRIP;CALLE VICTORIA KENT, 18 1ºESC 2;3206;3;ALACANT;65;ELX/ELCHE;EL BAIX VINALOPO;info@scootatrip.es;(+34) 649 088 076;;https://www.scootatrip.es;;Alacant/Alicante (ALACANT)
26/01/2025 1:00;CVTA00260 A;CLUB NAUTICO DE ALTEA;AVENIDA DEL PUERTO, 50;3590;3;ALACANT;18;ALTEA;LA MARINA BAIXA;cnaltea@cnaltea.com;965 842 185;;http://www.cnalteal.com;;Altea (ALACANT)
26/01/2025 1:00;CVTA00261 A;VERTIGEN AVENTURES;CALLE LUIS VIVES, 116-1ER A;3660;3;ALACANT;93;NOVELDA;EL VINALOPO MITJA/EL VINALOPO;vertigenaventures@gmail.com;+34 632 18 04 53;;https://vertigenaventures.com;;Novelda (ALACANT)
26/01/2025 1:00;CVTA00262 A;HIKINGALICANTE;CALLE MIRAFLOR, 1;3005;3;ALACANT;14;ALACANT/ALICANTE;L'ALACANTI;hikingalicante@gmail.com;660507225;;http://www.hikingalicante.com;;Alacant/Alicante (ALACANT)
26/01/2025 1:00;CVTA00263 A;LA BOCANA SAILING POINT;PUERTO DEPORTIVO CAMPOMANES MARINA GREENWICH, S/N;3590;3;ALACANT;18;ALTEA;LA MARINA BAIXA;info@labocanasailingpoint.com;+34 637 800 791;;https://www.labocanasailingpoint.com;;Altea (ALACANT)
26/01/2025 1:00;CVTA00264 A;QUALITY TOURS MARIOLA;AVENIDA HISPANIDAD, 85;3804;3;ALACANT;9;ALCOI/ALCOY;L'ALCOIA;info@qtmariola.com;965051700;;http://www.qtmariola.com;;Alcoi/Alcoy (ALACANT)
26/01/2025 1:00;CVTA00265 A;AWANA;AVENIDA CONDOMINA, 70 BL5 E15;3540;3;ALACANT;14;ALACANT/ALICANTE;L'ALACANTI;info@awanamountains.com;636852977;;http://www.awanamountains.com;;Agost (ALACANT), Agres (ALACANT), Beniarrés (ALACANT), Busot (ALACANT), Calp (ALACANT), Cocentaina (ALACANT), Xixona/Jijona (ALACANT), Bocairent (VALÈNCIA)
26/01/2025 1:00;CVTA00266 A;MARIA MADALINA CUCULEANU;CALLE CODOLLA, 2, 1ºD;3530;3;ALACANT;94;LA NUCIA;LA MARINA BAIXA;info@mytourscostablanca.com;643872416;;http://www.mytourscostablanca.com;;La Nucia (ALACANT)
26/01/2025 1:00;CVTA00267 A;MULTISERVICIO V MOTORS;PUERTO MUELLE DE LEVANTE, 20A03;3002;3;ALACANT;14;ALACANT/ALICANTE;L'ALACANTI;vmotors.rent@gmail.com;695612134;;;;Alacant/Alicante (ALACANT), El Campello (ALACANT), Santa Pola (ALACANT)
26/01/2025 1:00;CVTA00268 A;MARINA JETS ALICANTE;PUERTO MUELLE DE LEVANTE TINGLADO, 20 A;3002;3;ALACANT;14;ALACANT/ALICANTE;L'ALACANTI;vmotors.rent@gmail.com;695612134;;;;Alacant/Alicante (ALACANT), El Campello (ALACANT), Santa Pola (ALACANT)
26/01/2025 1:00;CVTA00269 A;VADUM MARIS;CALLE HERMANOS NAVARRO CARACENA, 123 BAJO;3206;3;ALACANT;65;ELX/ELCHE;EL BAIX VINALOPO;direccion@vadummaris.com;654540421;;http://www.vadummaris.com;;Altea (ALACANT), Benidorm (ALACANT), Calp (ALACANT), Santa Pola (ALACANT), Xàbia/Jávea (ALACANT)
26/01/2025 1:00;CVTA00270 A;XABIA GO;CAMINO CABANES, 230;3730;3;ALACANT;82;XÀBIA/JÁVEA;LA MARINA ALTA;info@xabiago.com;965795511;;https://xabiago.com/;;Xàbia/Jávea (ALACANT)
26/01/2025 1:00;CVTA00271 A;CENTRO HIPICO LLEDÓ;PARTIDA PINELLA, ASSAGADOR DEL PALMAR, S/N;3709;3;ALACANT;63;DÉNIA;LA MARINA ALTA;info@centrohipicolledo.com;629987404;;http://www.centrohipicolledo.com;;Dénia (ALACANT), Ondara (ALACANT), Pedreguer (ALACANT)
26/01/2025 1:00;CVTA00272 A;COSTA BLANCA CHALLENGE;AVENIDA JUAN GIL ALBERT, 3;3804;3;ALACANT;9;ALCOI/ALCOY;L'ALCOIA;gerente@costablancachallenge.com;678 97 12 09;;https://costablancachallenge.com;;Alcoi/Alcoy (ALACANT)
26/01/2025 1:00;CVTA00273 A;BLUE VALLEY;AVENIDA COSTA BLANCA, 114;3540;3;ALACANT;14;ALACANT/ALICANTE;L'ALACANTI;info@bluevalleyco.com;635230672;;http://bluevalleywatersports.com;;Agost (ALACANT), Alacant/Alicante (ALACANT), Aspe (ALACANT), Benidorm (ALACANT), Busot (ALACANT), El Campello (ALACANT), Elx/Elche (ALACANT), Finestrat (ALACANT), Monforte del Cid (ALACANT), Mutxamel (ALACANT), Novelda (ALACANT), Sant Joan d'Alacant (ALACANT), Sant Vicent del Raspeig/San Vicente del Raspeig (ALACANT), Torrevieja (ALACANT), Xàbia/Jávea (ALACANT), Xixona/Jijona (ALACANT)
26/01/2025 1:00;CVTA00274 A;GET LOST;CARRETERA BENITATXELL CV 740 - KM 0.1, S/N;3730;3;ALACANT;82;XÀBIA/JÁVEA;LA MARINA ALTA;rui.cabaco@marocchallenge.org;652716076;;http://www.get-lost.es;;Xàbia/Jávea (ALACANT)
26/01/2025 1:00;CVTA00275 A;BARBARA BOATS;CALLE DOC CLAVERO, 7;3013;3;ALACANT;14;ALACANT/ALICANTE;L'ALACANTI;info@barbaraboats.com;676980943;;http://barbaraboats.com;;Alacant/Alicante (ALACANT), Benidorm (ALACANT)
26/01/2025 1:00;CVTA00276 A;GUIAS MAS VERTICAL;PARTIDA DEL BELICH RA, 20;3640;3;ALACANT;89;MONÒVER/MONÓVAR;EL VINALOPO MITJA/EL VINALOPO;info@guiasmasvertical.com;665513494;;;;Monòver/Monóvar (ALACANT)
26/01/2025 1:00;CVTA00277 A;DIEGO DE ALZAA;PLAYA MARINETA CASIANA (MARINA DE DÉNIA);3700;3;ALACANT;63;DÉNIA;LA MARINA ALTA;diegodealzaa@gmail.com;670520725;;http://diegodealzaa.com;;Dénia (ALACANT)
26/01/2025 1:00;CVTA00278 A;LUNA 7;AVENIDA ALCOY  EDIFICIO PRINCIPADO B LOCAL 1, 3;3503;3;ALACANT;31;BENIDORM;LA MARINA BAIXA;veleroluna7@gmail.com;629656049;;http://@navegaporBenidorm (facebook);;Altea (ALACANT), Benidorm (ALACANT), Calp (ALACANT), Teulada (ALACANT), Xàbia/Jávea (ALACANT)
26/01/2025 1:00;CVTA00280 A;ATOPEISSION;CALLE CURRICA (PUERTO DPTVO MARINA GREENWICH), 31;3599;3;ALACANT;18;ALTEA;LA MARINA BAIXA;cferrer@marinagreenwich.com;965842200;;http://instagram.com/atopission;;Altea (ALACANT), Calp (ALACANT)
26/01/2025 1:00;CVTA00281 A;AT SEA BOAT RENTAL;PASEO VISTALEGRE (PUERTO DEPORTIVO MARINA SALINAS), S/N;3181;3;ALACANT;133;TORREVIEJA;EL BAIX SEGURA/LA VEGA BAJA;info@atseaboatrental.com;633232270;;http://www.atseaboatrental.com;;Torrevieja (ALACANT)
26/01/2025 1:00;CVTA00282 A;LA TERRETA ESPORTS I AVENTURA;CALLE ALACANT, 50;3726;3;ALACANT;42;POBLE NOU DE BENITATXELL, EL/ BENITACHELL;LA MARINA ALTA;info@laterreta-aventures.es;617249808;;https://www.laterreta-aventures.es/;;Benimantell (ALACANT), Poble Nou de Benitatxell, el/ Benitachell (ALACANT), Xàbia/Jávea (ALACANT)
26/01/2025 1:00;CVTA00283 A;NAVEGARIA;CALLE CORBETA, 21, BJ;3599;3;ALACANT;18;ALTEA;LA MARINA BAIXA;info@navegaria.com;629664902;;;;Altea (ALACANT)
26/01/2025 1:00;CVTA00284 A;BLUE CHARTER;AVENIDA MADRID, 32 19A;3503;3;ALACANT;31;BENIDORM;LA MARINA BAIXA;info@bluecharteraltea.com;639713132;;http://www.bluecharteraltea.com;;Altea (ALACANT)
26/01/2025 1:00;CVTA00285 A;SAILOR'S CHARTER;CALLE MUSICO AGUSTIN BERTOMEU, 4, T2 1ºA;3008;3;ALACANT;14;ALACANT/ALICANTE;L'ALACANTI;sailorscharter@gmail.com;619171695;;http://WWW.SAILORSCHARTER.COM;;Alacant/Alicante (ALACANT)
26/01/2025 1:00;CVTA00286 A;OTEKA AVENTURA;AVENIDA CONSTITUCION, 4 - PB;3720;3;ALACANT;41;BENISSA;LA MARINA ALTA;info@otekaaventura.es;655115963;;www.otekaaventura.es;;Alacant/Alicante (ALACANT), Bolulla (ALACANT), Confrides (ALACANT), La Vila Joiosa/Villajoyosa (ALACANT), Petrer (ALACANT), Polop (ALACANT), Redován (ALACANT), Villena (ALACANT)
26/01/2025 1:00;CVTA00287 A;KANALOA AVENTURAS;AVENIDA PARIS, 1;3730;3;ALACANT;82;XÀBIA/JÁVEA;LA MARINA ALTA;aventurakanaloa@gmail.com;633309151;;;;Xàbia/Jávea (ALACANT)
26/01/2025 1:00;CVTA00288 A;ACRONAUTICA;AVENIDA JUAN FUSTER ZARAGOZA, 3 - 1ºB;3503;3;ALACANT;31;BENIDORM;LA MARINA BAIXA;info@acronautica.com;690737626;;http://www.acronautica.com;;Altea (ALACANT), Benidorm (ALACANT)
26/01/2025 1:00;CVTA00289 A;LA ZONA SURF SCHOOL SL;CALLE ARQUITECTO GUARDIOLA, NUM 24, 2., 24;3007;3;ALACANT;14;ALACANT/ALICANTE;L'ALACANTI;info@euroasesores.es;965131105;;;;Alacant/Alicante (ALACANT), El Campello (ALACANT), Poble Nou de Benitatxell, el/ Benitachell (ALACANT)
26/01/2025 1:00;CVTA00290 A;ALIMED;AVENIDA VILLAJOYOSA, 14 - 8º - 39, 14;3016;3;ALACANT;14;ALACANT/ALICANTE;L'ALACANTI;info@alimedboats.es;608585895;;http://WWW.ALIMEDBOATS.ES;;Alacant/Alicante (ALACANT)
26/01/2025 1:00;CVTA00291 A;NAVEGAMED;CALLE PUERTA DE DAMASCO,Nº 3,PISO 4º,PTA.12, 3;3140;3;ALACANT;76;GUARDAMAR DEL SEGURA;EL BAIX SEGURA/LA VEGA BAJA;nestorparres@hotmail.com;622772280;;http://www.navegamed.com;;Guardamar del Segura (ALACANT)
26/01/2025 1:00;CVTA00292 A;OCTOPUS DIVING S.L.;CAMINO CAMI VELL ALT DENIA A XABIA 52C, 52C;3700;3;ALACANT;63;DÉNIA;LA MARINA ALTA;info@octopus-denia.com;664638176;;http://www.octopus-denia.com;;Dénia (ALACANT), Xàbia/Jávea (ALACANT)
26/01/2025 1:00;CVTA00293 A;AKRAVENTURAS;CALLE TUCUMAN ,16, 6º DCHA, 16;3005;3;ALACANT;14;ALACANT/ALICANTE;L'ALACANTI;info@akraventuras.com;667713103;;http://WWW.AKRAVENTURAS.COM;;Alcoi/Alcoy (ALACANT), Banyeres de Mariola (ALACANT), Beniarbeig (ALACANT), Callosa d'en Sarrià (ALACANT), Confrides (ALACANT), Onil (ALACANT), Petrer (ALACANT), Planes (ALACANT), Relleu (ALACANT), Villena (ALACANT)
26/01/2025 1:00;CVTA00294 A;ALANATURE;CALLE ALFONSO EL SABIO, 66 - BAJO D, 66;3690;3;ALACANT;122;SANT VICENT DEL RASPEIG/SAN VICENTE DEL RASPEIG;L'ALACANTI;info@alanature.es;+34 607 345 712;;https://www.alanature.es;;Agres (ALACANT), Alcoi/Alcoy (ALACANT), Altea (ALACANT), Bolulla (ALACANT), Callosa de Segura (ALACANT), Confrides (ALACANT), Elda (ALACANT), Ibi (ALACANT), La Vall d'Alcalà (ALACANT), La Vila Joiosa/Villajoyosa (ALACANT), L'Alfàs del Pi (ALACANT), Orihuela (ALACANT), Polop (ALACANT), Quatretondeta (ALACANT), Redován (ALACANT), Villena (ALACANT), Xàbia/Jávea (ALACANT)
26/01/2025 1:00;CVTA00295 A;TABARCA ONLINE;PASEO ADOLFO SUAREZ, 2, ESTE, PABELLÓN 9, 2;3130;3;ALACANT;121;SANTA POLA;EL BAIX VINALOPO;info@tabarca.online;644536355;;https://tabarca.online;;Alacant/Alicante (ALACANT), Pilar de la Horadada (ALACANT), Santa Pola (ALACANT)
26/01/2025 1:00;CVTA00296 A;CINT CLIMBING;AVENIDA JAIME I,  29 - B - 8, 29;3005;3;ALACANT;14;ALACANT/ALICANTE;EL COMTAT;cintclimbing@gmail.com;600858220;;http://www.cintclimbing.com;;Alcoi/Alcoy (ALACANT), Callosa de Segura (ALACANT), Confrides (ALACANT), Ibi (ALACANT), L'Alfàs del Pi (ALACANT), Monforte del Cid (ALACANT), Ondara (ALACANT), Polop (ALACANT), Redován (ALACANT), Villena (ALACANT), Anna (VALÈNCIA), Enguera (VALÈNCIA), Tous (VALÈNCIA), Vallada (VALÈNCIA)
26/01/2025 1:00;CVTA00297 A;WATERSPORTS ALICANTE;PUERTO MARINA DEPORTIVA DE ALICANTE (MUELLE DE LEVANTE 8), 8;3001;3;ALACANT;14;ALACANT/ALICANTE;L'ALACANTI;watersportsalicante@gmail.com;603708822;;http://watersportsalicante.com;;Alacant/Alicante (ALACANT), Santa Pola (ALACANT)
26/01/2025 1:00;CVTA00298 A;MAREMOTOsports Denia;PUERTO PUERTO DEPORTIVO MARINA DE DENIA, 1;3700;3;ALACANT;63;DÉNIA;LA MARINA ALTA;denia@maremoto.com;619103484;;https://www.maremotosports.com/denia;;Dénia (ALACANT)
26/01/2025 1:00;CVTA00299 A;ACTIVIDADES BENIDORM;PASEO COLÓN ,MUELLE INDUSTRIAL, OFICINA 4;3501;3;ALACANT;31;BENIDORM;LA MARINA BAIXA;info@actividadesbenidorm.com;655 559 994;;http://www.actividadesbenidorm.com;;Benidorm (ALACANT)
26/01/2025 1:00;CVTA00300 A;NAUTILUS NAUTICAL SPORTS;PUERTO PUERTO DEPORTIVO MARINA DE LAS DUNAS, 1;3140;3;ALACANT;76;GUARDAMAR DEL SEGURA;EL BAIX SEGURA/LA VEGA BAJA;info@nautilusnauticalsports.com;634530534;;http://www.nautilusnauticalsports.com;;Guardamar del Segura (ALACANT)
26/01/2025 1:00;CVTA00301 A;MEDITERRANEAN KAYAKS;PARTIDA MADRIGUERES SUD, 61-A, 61;3700;3;ALACANT;63;DÉNIA;LA MARINA ALTA;ingenieria@pereto.es;691557666;;;;Calp (ALACANT), Dénia (ALACANT), Poble Nou de Benitatxell, el/ Benitachell (ALACANT), Teulada (ALACANT), Xàbia/Jávea (ALACANT)
26/01/2025 1:00;CVTA00302 A;MAREMOTOsports Torrevieja;PUERTO PUERTO DEPORTIVO MARINA SALINAS, 1;3181;3;ALACANT;133;TORREVIEJA;EL BAIX SEGURA/LA VEGA BAJA;torrevieja@maremoto.com;600475000;;https://www.maremotosports.com/torrevieja;;Torrevieja (ALACANT)
26/01/2025 1:00;CVTA00303 A;MAREMOTOsports Altea;PUERTO PUERTO DEPORTIVO MARINA GREENWICH, 1;3590;3;ALACANT;18;ALTEA;LA MARINA BAIXA;altea@maremoto.com;671000600;;https://www.maremotosports.com/altea;;Altea (ALACANT)
26/01/2025 1:00;CVTA00304 A;SERPA CLIMBING;PARTIDA BENIADLA, 10;3700;3;ALACANT;63;DÉNIA;LA MARINA ALTA;serpa@climbingismotion.com;646 952 033;;https://climbingismotion.com;;Agost (ALACANT), Alcalalí (ALACANT), Alcoi/Alcoy (ALACANT), Altea (ALACANT), Bolulla (ALACANT), Busot (ALACANT), Callosa de Segura (ALACANT), Calp (ALACANT), Castell de Castells (ALACANT), Cocentaina (ALACANT), Crevillent (ALACANT), Dénia (ALACANT), El Castell de Guadalest (ALACANT), El Pinós/Pinoso (ALACANT), Finestrat (ALACANT), la Vall de Gallinera (ALACANT), Llíber (ALACANT), L'Orxa/Lorcha (ALACANT), Millena (ALACANT), Murla (ALACANT), Orihuela (ALACANT), Parcent (ALACANT), Pedreguer (ALACANT), Petrer (ALACANT), Poble Nou de Benitatxell, el/ Benitachell (ALACANT), Polop (ALACANT), Redován (ALACANT), Sella (ALACANT), Tàrbena (ALACANT), Tibi (ALACANT), Tormos (ALACANT), Xàbia/Jávea (ALACANT), Xaló (ALACANT), Gandia (VALÈNCIA)
26/01/2025 1:00;CVTA00305 A;CLUB DEPORTIVO PARRES SANTA POLA;AVENIDA BLASCO IBAÑEZ, S/N (PLAYA DEL TAMARIT), 1;3130;3;ALACANT;121;SANTA POLA;EL BAIX VINALOPO;info@parreswatersports.com;663457320;;http://www.parreswatersports.com;;Alacant/Alicante (ALACANT), Santa Pola (ALACANT)
26/01/2025 1:00;CVTA00306 A;CLUB DEPORTIVO PARRES ELCHE;AVENIDA SAN BARTOLOME DE TIRAJANA, 22-LOCAL 8-ARENALES SOL, 22;3195;3;ALACANT;65;ELX/ELCHE;EL BAIX VINALOPO;info@parreswatersports.com;663457320;;http://www.parreswatersports.com;;Alacant/Alicante (ALACANT), Elx/Elche (ALACANT)
26/01/2025 1:00;CVTA00307 A;SEATRAVEL;PUERTO PUERTO DEPORTIVO MARINA MIRAMAR, LOCAL 2B, 2;3130;3;ALACANT;121;SANTA POLA;EL BAIX VINALOPO;admin@musivum.es;601014580;;http://www.seatravel.es;;Alacant/Alicante (ALACANT), Altea (ALACANT), Santa Pola (ALACANT), Torrevieja (ALACANT)
26/01/2025 1:00;CVTA00308 A;CENTRO DE FORMACION MARITIMO DENIA;AVENIDA JOAN FUSTER, 11 - B, 11;3700;3;ALACANT;63;DÉNIA;LA MARINA ALTA;info@centrodeformacionmaritimodenia.com;660715489;;http://www.centrodeformacionmaritimodenia.com;;Dénia (ALACANT), Xàbia/Jávea (ALACANT)
26/01/2025 1:00;CVTA00309 A;KAYAKS EL CALO XABIA;CAMINO CAMI VELL DEL MORRO CASTELL, 1;3730;3;ALACANT;82;XÀBIA/JÁVEA;LA MARINA ALTA;info@kayaks-el-calo.com;626404689;;https://www.kayaks-el-calo.com/;;Xàbia/Jávea (ALACANT)
26/01/2025 1:00;CVTA00310 A;MOUNTAIN FITNESS;PARTIDA CANAL, 10;3440;3;ALACANT;79;IBI;L'ALCOIA;formacion@mountainfitness.es;676 281 888;;https://mountainfitness.es;;Cañada (ALACANT), La Vila Joiosa/Villajoyosa (ALACANT)
26/01/2025 1:00;CVTA00312 A;EMOTIONAL BOATING;CALLE MOLL DE LA PANSA, S/N MARINA EL PORTET;3700;3;ALACANT;63;DÉNIA;LA MARINA ALTA;emotionalboating@gmail.com;+34 633 653 111;;http://www.emotionalboating.com;;Dénia (ALACANT), Teulada (ALACANT), Xàbia/Jávea (ALACANT)
26/01/2025 1:00;CVTA00313 A;MAKANA SUP;CALLE VELERO, Nº 5, JUNTO AL HOTEL CALAS DE ALICANTE, 5;3540;3;ALACANT;14;ALACANT/ALICANTE;L'ALACANTI;info@makanasup.com;+34 623 362 532;;https://makanasup.com;;Alacant/Alicante (ALACANT)
26/01/2025 1:00;CVTA00314 A;JET BOAT CAMPELLO;CALLE LA ILLETA, LOCALES 1, 9 Y 10-C.N.CAMPELLO, 1;3560;3;ALACANT;50;EL CAMPELLO;L'ALACANTI;hola@jetboatcampello.com;615930121;;http://www.jetboatcampello.com;;El Campello (ALACANT)
26/01/2025 1:00;CVTA00315 A;VERTICE RUTAS;CALLE DE LA IGLESIA, 23A - PTA. 2, 23;3727;3;ALACANT;81;XALÓ;LA MARINA ALTA;verticerutas@gmail.com;629589833;;https://www.facebook.com/senderismontanaventura/;;Altea (ALACANT), Dénia (ALACANT), Xàbia/Jávea (ALACANT)
26/01/2025 1:00;CVTA00316 A;YOURBESTSAIL;CALLE MÉDICO PEDRO ORTS, 2 - ESC. 2, 8-A, 2;3005;3;ALACANT;14;ALACANT/ALICANTE;L'ALACANTI;yourbestsail@icloud.com;654855218;;http://www.yourbestsail.com;;Alacant/Alicante (ALACANT), Torrevieja (ALACANT)
26/01/2025 1:00;CVTA00317 A;DONUT BOAT;PUERTO MARINA SALINAS - PASEO VISTALEGRE, S/N, 1;3181;3;ALACANT;133;TORREVIEJA;EL BAIX SEGURA/LA VEGA BAJA;info@donut-boat.com;+34 665 418 484;;https://www.donut-boat.com;;Torrevieja (ALACANT)
26/01/2025 1:00;CVTA00318 A;WATER SPORTS TORREVIEJA;PASEO VISTALEGRE S/N, DIQUE DE LEVANTE, LOCAL 11, 0;3181;3;ALACANT;133;TORREVIEJA;EL BAIX SEGURA/LA VEGA BAJA;watersportstorrevieja@gmail.com;692457936;;https://watersportstorrevieja.com;;Torrevieja (ALACANT)
26/01/2025 1:00;CVTA00319 A;DREAMSEA MEDITERRANEAN;URBANIZACIÓN PP CDS MAR II - OLIVOS, Nº 97, 97;3726;3;ALACANT;42;POBLE NOU DE BENITATXELL, EL/ BENITACHELL;LA MARINA ALTA;angeldreamsea@gmail.com;647720623;;http://www.dreamseasurfcamp.com;;Poble Nou de Benitatxell, el/ Benitachell (ALACANT), Teulada (ALACANT)
26/01/2025 1:00;CVTA00320 A;KOKOKAYAK, S.L.;CALLE ORQUIDEA, 20;3730;3;ALACANT;82;XÀBIA/JÁVEA;LA MARINA ALTA;info@kokokayakjavea.com;+34 674 882 499;;https://kokokayakjavea.com;;Xàbia/Jávea (ALACANT)
26/01/2025 1:00;CVTA00321 A;ADVENTURE OFF ROAD;PARTIDA LA MARSETA, 14;3110;3;ALACANT;90;MUTXAMEL;L'ALACANTI;info@adventureoffroad.es;622 105 242;;https://www.adventureoffroad.es;;Mutxamel (ALACANT)
26/01/2025 1:00;CVTA00322 A;OLIVER JAMES BITTNER DE JUANA;AVENIDA CABO DE LA NAO PLA, 65 -BQ A -2º- E1, 65;3730;3;ALACANT;82;XÀBIA/JÁVEA;LA MARINA ALTA;lasbrisasdejavea@yahoo.co.uk;617913189;;;;Xàbia/Jávea (ALACANT)
26/01/2025 1:00;CVTA00323 A;SEA SCHOOL COSTA BLANCA;AVENIDA DEL PUERTO, 50 (CLUB NAUTICO), 50;3590;3;ALACANT;18;ALTEA;LA MARINA BAIXA;info@seaschoolcostablanca.com;622052938;;http://www.seaschoolcostablanca.com;;Altea (ALACANT)
26/01/2025 1:00;CVTA00324 A;DELOCOS WATERSPORTS;AVENIDA CERVANTES, 23;3140;3;ALACANT;76;GUARDAMAR DEL SEGURA;EL BAIX SEGURA/LA VEGA BAJA;hola@delocossurfshop.com;626219982;;www.delocossurfshop.com;;Guardamar del Segura (ALACANT)
26/01/2025 1:00;CVTA00325 A;BOATS & SUN MEDITERRANEO, SL;CALLE RADIOFONISTA RAUL ALVAREZ ANTON, 2-ESC.4-2º I, 2;3005;3;ALACANT;14;ALACANT/ALICANTE;L'ALACANTI;boatsunmediterranneo@gmail.com;616971382;;;;Alacant/Alicante (ALACANT)
26/01/2025 1:00;CVTA00326 A;JETSKIRUN;PASEO DEL MAR, S/N - CLUB NAUTICO TORRE DE LA HORADADA, 0;3191;3;ALACANT;902;PILAR DE LA HORADADA;EL BAIX SEGURA/LA VEGA BAJA;israel.albelda@jetskirun.com;621202060;;http://www.jetskirun.com;;Pilar de la Horadada (ALACANT)
26/01/2025 1:00;CVTA00327 A;OLÉ SURF HOUSE;CAMINO MUCHAVISTA, 24 - ESC. 2 - 3º E, 24;3540;3;ALACANT;14;ALACANT/ALICANTE;L'ALACANTI;olesurfhouse@gmail.com;656235965;;;;Alacant/Alicante (ALACANT)
26/01/2025 1:00;CVTA00328 A;CHARTER MORAIRA;CALLE PINTOR DAVID, 2;3724;3;ALACANT;128;TEULADA;LA MARINA ALTA;info@chartermoraira.com;609002479;;http://chartermoraira.com;;Teulada (ALACANT)
26/01/2025 1:00;CVTA00329 A;FUN & QUADS ADVENTURE;PUERTO PUERTO DEPORTIVO PORTOSENSO, 0;3590;3;ALACANT;18;ALTEA;LA MARINA BAIXA;administracion@funquads.com;669859600;;https://www.funquads.com/;;Altea (ALACANT), L'Alfàs del Pi (ALACANT)
26/01/2025 1:00;CVTA00330 A;ALOHERS;CALLE SICILIA, S/N - PUERTA 4A, 0;3540;3;ALACANT;14;ALACANT/ALICANTE;L'ALACANTI;aloherscoffeesurf@gmail.com;965043648;;;;Alacant/Alicante (ALACANT), El Campello (ALACANT)
26/01/2025 1:00;CVTA00331 A;AVENTURA-T;CAMINO CAMI BARRANQUERES, 12;3730;3;ALACANT;82;XÀBIA/JÁVEA;LA MARINA ALTA;adrit100@gmail.com;689201542;;http://WWW.AVENTURA-T.COM;;Xàbia/Jávea (ALACANT)
26/01/2025 1:00;CVTA00332 A;FUN & QUADS ADVENTURE;AVENIDA DOCTOR SEVERO OCHOA, 28;3503;3;ALACANT;31;BENIDORM;LA MARINA BAIXA;administracion@funquads.com;656520997;;http://www.funquads.com;;Benidorm (ALACANT), Callosa d'en Sarrià (ALACANT), Finestrat (ALACANT)
26/01/2025 1:00;CVTA00335 A;SEA WIND JAVEA, S.L.;PUERTO PUERTO DE JÁVEA, 0;3730;3;ALACANT;82;XÀBIA/JÁVEA;LA MARINA ALTA;javeaseawind@gmail.com;645851031;;https://seawindjavea.com/;;Xàbia/Jávea (ALACANT)
26/01/2025 1:00;CVTA00336 A;TORREVELA;PUERTO PUERTO MARINA SALINAS, LOCAL V4, 0;3181;3;ALACANT;133;TORREVIEJA;EL BAIX SEGURA/LA VEGA BAJA;info@torrevela.com;651012600;;http://www.torrevela.com;;Torrevieja (ALACANT)
26/01/2025 1:00;CVTA00337 A;DAVID RAYMOND FRANCO AUDIA;CALLE ISLA DE TABARCA, 10;3189;3;ALACANT;133;TORREVIEJA;EL BAIX SEGURA/LA VEGA BAJA;factura@motor-rent.es;646203235;;;;Orihuela (ALACANT), Torrevieja (ALACANT)
26/01/2025 1:00;CVTA00339 A;EASY SAILING;CALLE LA ILLETA,  S/N, 0;3560;3;ALACANT;50;EL CAMPELLO;L'ALACANTI;esailing@hotmail.com;624158428;;https://easysailing.es/;;El Campello (ALACANT), La Vila Joiosa/Villajoyosa (ALACANT)
26/01/2025 1:00;CVTA00340 A;PARASAILING UTE LEY 18/1982;CARRETERA NACIONAL 332 KM 142, 142;3570;3;ALACANT;139;LA VILA JOIOSA/VILLAJOYOSA;LA MARINA BAIXA;utebenidorm@gmail.com;649963241;;;;Benidorm (ALACANT)
26/01/2025 1:00;CVTA00341 A;BUENAPROA;PASAJE GRANADA, 4 - BAJO, 4;3130;3;ALACANT;121;SANTA POLA;EL BAIX VINALOPO;buenaproa23@gmail.com;633925600;;http://WWW.BUENAPROA.ES;;Santa Pola (ALACANT)
26/01/2025 1:00;CVTA00342 A;SUMINISTROS NAUTICOS ADELMAR;PASEO VISTALEGRE, 7;3181;3;ALACANT;133;TORREVIEJA;EL BAIX SEGURA/LA VEGA BAJA;info@adelmarnautica.com;;;;;Torrevieja (ALACANT)
26/01/2025 1:00;CVTA00343 A;AGRES NATURA;CALLE JAUME MIQUEL CALATAYUD, 16 - BAJO, 16;3837;3;ALACANT;3;AGRES;EL COMTAT;gloriad.gloria@gmail.com;635042364;;http://www.agresnatura.com;;Agres (ALACANT), Alfafara (ALACANT), Gaianes (ALACANT)
26/01/2025 1:00;CVTA00344 A;TORREVIEJA SURF SURFINN;AVENIDA ALFREDO NOBEL, 125;3183;3;ALACANT;133;TORREVIEJA;EL BAIX SEGURA/LA VEGA BAJA;torreviejasurf@gmail.com;648885071;;http://torreviejasurf.com;;Torrevieja (ALACANT)
26/01/2025 1:00;CVTA00345 A;CLUB BE WATER;CALLE DEL MAR, 4, BAJO, GARAJE CENTRAL, 4;3130;3;ALACANT;121;SANTA POLA;EL BAIX VINALOPO;isaac@bewatersports.es;655489681;;;;Santa Pola (ALACANT)
26/01/2025 1:00;CVTA00346 A;EXPERIENCIAS NAUTICAS ALICANTE;CALLE MAESTRO FRANCISCO VALLEJOS, 7 - 3º, 7;3181;3;ALACANT;133;TORREVIEJA;EL BAIX SEGURA/LA VEGA BAJA;isidororebollo@yahoo.es;655952167;;http://www.alicantenauticalxperience.com;;Torrevieja (ALACANT)
26/01/2025 1:00;CVTA00347 A;JET SKI COSTA BLANCA;CALLE SANT PERE, 37;3590;3;ALACANT;18;ALTEA;LA MARINA BAIXA;info@jetskicostablanca.com;677629984;;http://www.jetskicostablanca.com;;Altea (ALACANT), Benidorm (ALACANT), Calp (ALACANT), L'Alfàs del Pi (ALACANT), Teulada (ALACANT)
26/01/2025 1:00;CVTA00348 A;SUNSET BOAT TORREVIEJA;PUERTO VARADERO SALINAS TORREVIEJA,DIQUE LEVANTE S/N TA02, 0;3181;3;ALACANT;133;TORREVIEJA;EL BAIX SEGURA/LA VEGA BAJA;info@ribeiroymontesinos.com;608464745;;;;Orihuela (ALACANT), Torrevieja (ALACANT)
26/01/2025 1:00;CVTA00350 A;ALL RIDE SCHOOL DENIA;PARTIDA PLATJA ALMADRAVA 66, CARRER 1-D, 66;3779;3;ALACANT;63;DÉNIA;LA MARINA ALTA;hello@allrideschool.com;634127290;;http://www.allrideschool.com;;Dénia (ALACANT)
26/01/2025 1:00;CVTA00352 A;AGUSTIN VAGO;PARTIDA CAP NEGRET,18 - 2º C, 18;3590;3;ALACANT;18;ALTEA;LA MARINA BAIXA;gravity.mountains@gmail.com;680914040;;;;Bolulla (ALACANT), Callosa de Segura (ALACANT), Calp (ALACANT), Confrides (ALACANT), El Castell de Guadalest (ALACANT), L'Alfàs del Pi (ALACANT), Ondara (ALACANT), Pego (ALACANT), Polop (ALACANT), Redován (ALACANT), Relleu (ALACANT), Villena (ALACANT), Enguera (VALÈNCIA), Tavernes de la Valldigna (VALÈNCIA), Tous (VALÈNCIA)
26/01/2025 1:00;CVTA00353 A;ANDRES COSTA MARINO;CALLE OBISPO ROCAMORA, 35 - 1º E, 35;3300;3;ALACANT;99;ORIHUELA;EL BAIX SEGURA/LA VEGA BAJA;andrescostamarino@hotmail.com;646596892;;;;Orihuela (ALACANT)
26/01/2025 1:00;CVTA00354 A;IFACH AVENTURA;AVENIDA DEL PUERTO, 11;3710;3;ALACANT;47;CALP;LA MARINA ALTA;info@ifachaventura.com;644319008;;http://www.ifachaventura.com;;Calp (ALACANT)
26/01/2025 1:00;CVTA00355 A;SAN JUAN BEACH SURF CLUB;CAMINO MUCHAVISTA, 24 -ESC 2- 3º E, 24;3540;3;ALACANT;14;ALACANT/ALICANTE;L'ALACANTI;merchealicante@gmail.com;656235965;;;;Alacant/Alicante (ALACANT)
26/01/2025 1:00;CVTA00356 A;BUGGYS RELLEU;CALLE MORERES, 21;3578;3;ALACANT;112;RELLEU;LA MARINA BAIXA;buggysrelleu@gmail.com;698973238;;http://www.buggysrelleu.com;;Relleu (ALACANT)
26/01/2025 1:00;CVTA00357 A;OMAR SAMPER GUIA DE MONTAÑA;CALLE PRACTICANTE BELLOD CORTES, 5 - 1º IZ, 5;3460;3;ALACANT;23;BENEIXAMA;L'ALT VINALOPO/ALTO VINALOPO;omarsamper.guia@gmail.com;625754570;;https://omarsamper.com/;;Callosa de Segura (ALACANT), Calp (ALACANT), Villena (ALACANT)
26/01/2025 1:00;CVTA00358 A;PANGEA EXPERIENCES;PARTIDA TOSSALET CALVARI, 49;3740;3;ALACANT;71;GATA DE GORGOS;LA MARINA ALTA;info@pangeaexperiences.com   arnaucr1995@gmail.com;634022365;;www.pangeaexperiences.com;;Gata de Gorgos (ALACANT)
26/01/2025 1:00;CVTA00359 A;COSTER D'EN SALA;CALLE MAR ARABIGO, 3;3739;3;ALACANT;82;XÀBIA/JÁVEA;LA MARINA ALTA;curro@costerdensala.com;655856378;;http://www.costerdensala.com;;Xàbia/Jávea (ALACANT)
26/01/2025 1:00;CVTA00360 A;MIEL MONTGO;CARRETERA GATA, 64;3730;3;ALACANT;82;XÀBIA/JÁVEA;LA MARINA ALTA;proyectos@jardinsostenible.eu;627425272;;http://www.MIELMONTGO.COM;;Xàbia/Jávea (ALACANT)
26/01/2025 1:00;CVTA00361 A;MARINE BREEZE;CARRETERA DE MOLINS, 10;3300;3;ALACANT;99;ORIHUELA;EL BAIX SEGURA/LA VEGA BAJA;felix.cerdan.martinez@gmail.com;639639330;;http://WWW.MARINEBREEZE.ES;;Orihuela (ALACANT)
26/01/2025 1:00;CVTA00362 A;WEWHALE;PUERTO MARINA EL PORTET DENIA, 0;3700;3;ALACANT;63;DÉNIA;LA MARINA ALTA;janek@wewhale.co;674030974;;http://www.wewhale.co;;Dénia (ALACANT)
26/01/2025 1:00;CVTA00363 A;EFOIL MORAIRA;CAMINO DE LA SABATERA, 86;3724;3;ALACANT;128;TEULADA;LA MARINA ALTA;eric@efoil-moraira.com;675344535;;https://www.efoil-moraira.com/es;;Teulada (ALACANT)
26/01/2025 1:00;CVTA00364 A;DIVERTY SEA;PASEO VISTALEGRE, S/N-P.D. MARINA SALINAS, PANTALAN H-1, S/N;3181;3;ALACANT;133;TORREVIEJA;EL BAIX SEGURA/LA VEGA BAJA;divertysea@gmail.com;623003813;;http://divertysea.com;;Torrevieja (ALACANT)
26/01/2025 1:00;CVTA00365 A;DANIEL TERCERO GIMENEZ;CALLE ORTEGA Y GASSET, 12;3610;3;ALACANT;104;PETRER;EL VINALOPO MITJA/EL VINALOPO;daniterceroguia@gmail.com;687922786;;;;Petrer (ALACANT), Anna (VALÈNCIA)
26/01/2025 1:00;CVTA00366 A;PAELLA TRAVEL;CALLE CANARIAS, 6-1, POR 26, BUNGALOW 337, 6-1;3130;3;ALACANT;121;SANTA POLA;EL BAIX VINALOPO;info@paellatravel.com;645255227;;http://paellatravel.com;;Santa Pola (ALACANT)
26/01/2025 1:00;CVTA00367 A;NAUTICA DIAMOND BOAT;CALLE CLUB NAUTICO DENIA, PANTALAN 7, AMARRES 777 Y 779, 7;3700;3;ALACANT;63;DÉNIA;LA MARINA ALTA;nauticadiamondboat@gmail.com;650925851;;http://nauticadiamondboat.com/index.html;;Dénia (ALACANT), Xàbia/Jávea (ALACANT)
26/01/2025 1:00;CVTA00368 A;JARDIN DE L'ALBARDA;CALLE BAIX VINALOPO, 8 (URB. LA SELLA), 8;3750;3;ALACANT;101;PEDREGUER;LA MARINA ALTA;fundem@fundem.org;696975290;;http://www.jardinalbarda.com;;Pedreguer (ALACANT)
26/01/2025 1:00;CVTA00003CS;SARGANTANA AVENTURA;CALLE BALMES, 2, 3º;12200;12;CASTELLÓ;84;ONDA;LA PLANA BAIXA;info@sargantanaaventura.com;622724343;;http://sargantanaaventura.com;;Alcudia de Veo (CASTELLÓ), Algimia de Almonacid (CASTELLÓ), Ayódar (CASTELLÓ), Cirat (CASTELLÓ), La Vall d'Uixó (CASTELLÓ), LLucena/Lucena del Cid (CASTELLÓ), Montán (CASTELLÓ), Onda (CASTELLÓ)
26/01/2025 1:00;CVTA00004CS;NOMADA AVENTURA;AVENIDA ANTONIO FORNAS, S/N;12447;12;CASTELLÓ;78;MONTÁN;EL ALTO MIJARES;info@nomadaaventura.com;675 442 074;;http://nomadaaventura.com;;Montanejos (CASTELLÓ)
26/01/2025 1:00;CVTA00006CS;C.A.S. BARRACUDA;URBANIZACIÓN LAS FUENTES - PUERTO DEPORTIVO LAS FUENTES LOCALES, 5 Y 6;12579;12;CASTELLÓ;4;ALCALÀ DE XIVERT / ALCOSSEBRE;EL BAIX MAESTRAT;buceo@barracudabuceo.com;964 41 26 23;;https://www.barracudabuceo.com;;Alcalà de Xivert / Alcossebre (CASTELLÓ)
26/01/2025 1:00;CVTA00008CS;DXT NAUTICO;AVENIDA FERRANDIS SALVADOR (ESC. 2), 56;12100;12;CASTELLÓ;40;CASTELLÓ DE LA PLANA/CASTELLÓN DE LA PLANA;LA PLANA ALTA;jorge@dxtnautico.es;638 104 775;;https://www.dxtnautico.es;;Castelló de la Plana/Castellón de la Plana (CASTELLÓ)
26/01/2025 1:00;CVTA00014CS;PAINTBALL CASTELLON;CALLE VILLANUEVA DE AVIGNON, 63;12598;12;CASTELLÓ;89;PEÑÍSCOLA/PENÍSCOLA;EL BAIX MAESTRAT;info@ocagrup.com;964482273;;http://www.paintballcastellon.com;;Castelló de la Plana/Castellón de la Plana (CASTELLÓ), Peñíscola/Peníscola (CASTELLÓ)
26/01/2025 1:00;CVTA00015CS;HARDACHO ACTIVIDADES EN LA NATURALEZA;CALLE ARENACHOS, 12;12450;12;CASTELLÓ;71;JÉRICA;EL ALTO PALANCIA;info@hardacho.com;+34 606 089 696;;http://www.hardacho.com;;Barracas (CASTELLÓ), Bejís (CASTELLÓ), Caudiel (CASTELLÓ), El Toro (CASTELLÓ), Jérica (CASTELLÓ), Moncofa (CASTELLÓ), Navajas (CASTELLÓ), Segorbe (CASTELLÓ), València (VALÈNCIA)
26/01/2025 1:00;CVTA00017CS;CIRCUITO DE AVENTURA SALTAPINS;CARRETERA CV-14 MORELLA-SORITA KM 3, COMPLEJO FÁBRICA GINER;12300;12;CASTELLÓ;80;MORELLA;ELS PORTS;reservas@saltapins.com;636277457;964173272;http://saltapins.com;;Morella (CASTELLÓ)
26/01/2025 1:00;CVTA00020CS;BASE NAUTICA BENICASSIM;AVENIDA FERRANDIS SALVADOR, S/N CON C/ SIGALERO, S/N;12560;12;CASTELLÓ;28;BENICÀSSIM/BENICASIM;LA PLANA ALTA;duradops@hotmail.com;667736909;;;;Benicàssim/Benicasim (CASTELLÓ)
26/01/2025 1:00;CVTA00022CS;OROVENTUR;PLAYA PLAYA DE MORRO DE GOS, S/N;12594;12;CASTELLÓ;85;ORPESA/OROPESA DEL MAR;LA PLANA ALTA;oroventur@hotmail.com;651323971;;https://es-es.facebook.com/oroventur;;Benicàssim/Benicasim (CASTELLÓ), Orpesa/Oropesa del Mar (CASTELLÓ), Torreblanca (CASTELLÓ)
26/01/2025 1:00;CVTA00023CS;SERVEIS VERTICALS I MEDIAMBIENTALS (ESPORTVERD);CALLE SANT JULIÀ, 52;12300;12;CASTELLÓ;80;MORELLA;ELS PORTS;esportverd@esportverd.com; +34 964 37 14 40;;http://www.esportverd.com;;Castellfort (CASTELLÓ), Cinctorres (CASTELLÓ), Forcall (CASTELLÓ), La Pobla de Benifassà (CASTELLÓ), Morella (CASTELLÓ), Portell de Morella (CASTELLÓ), Vallibona (CASTELLÓ)
26/01/2025 1:00;CVTA00026CS;CHARTERS CASAMAR;CALLE RCNC, AMARRE A-5, ESCOLLERA DE PONIENTE S/N. GRAO, 221;12100;12;CASTELLÓ;40;CASTELLÓ DE LA PLANA/CASTELLÓN DE LA PLANA;LA PLANA ALTA;info@charterscasamar.com;696 454 984;607 697 514;https://www.charterscasamar.com;;Castelló de la Plana/Castellón de la Plana (CASTELLÓ), Peñíscola/Peníscola (CASTELLÓ), València (VALÈNCIA)
26/01/2025 1:00;CVTA00028CS;ITINERANTUR;CALLE ESTATUT, 45;12560;12;CASTELLÓ;28;BENICÀSSIM/BENICASIM;LA PLANA ALTA;info@itinerantur.com;677571515;;https://itinerantur.com;;Aín (CASTELLÓ), Jérica (CASTELLÓ), La Pobla de Benifassà (CASTELLÓ), Segorbe (CASTELLÓ)
26/01/2025 1:00;CVTA00031CS;7POBLES.COM;CALLE MAJOR (EL BOIXAR), 28;12599;12;CASTELLÓ;93;LA POBLA DE BENIFASSÀ;EL BAIX MAESTRAT;info@7pobles.com;615 306 447;;http://www.7pobles.com;;Castell de Cabres (CASTELLÓ), Herbés (CASTELLÓ), La Pobla de Benifassà (CASTELLÓ), Vallibona (CASTELLÓ)
26/01/2025 1:00;CVTA00037CS;GOLONDRINAS CLAVEL;PUERTO AZAHAR, S/N;12100;12;CASTELLÓ;40;CASTELLÓ DE LA PLANA/CASTELLÓN DE LA PLANA;LA PLANA ALTA;golondrinasclavel@hotmail.com;639 69 39 38;;;;Castelló de la Plana/Castellón de la Plana (CASTELLÓ), Orpesa/Oropesa del Mar (CASTELLÓ)
26/01/2025 1:00;CVTA00039CS;CENTRO DE PARACAIDISMO SKYTIME;CAMINO DE LA PLANA, AERÓDROMO EL PINAR, S/N;12100;12;CASTELLÓ;40;CASTELLÓ DE LA PLANA/CASTELLÓN DE LA PLANA;LA PLANA ALTA;info@skytime.es;+34 964 288 595;;https://www.skytime.es;;Castelló de la Plana/Castellón de la Plana (CASTELLÓ)
26/01/2025 1:00;CVTA00041CS;QUAD UNIVERSE;AVENIDA DE MADRID, 25 - LOCAL 5, 5;12594;12;CASTELLÓ;85;ORPESA/OROPESA DEL MAR;LA PLANA ALTA;quadoropesa@gmail.com;625 264 407;;https://quaduniverse.com;;Benicàssim/Benicasim (CASTELLÓ), Cabanes (CASTELLÓ), Castelló de la Plana/Castellón de la Plana (CASTELLÓ), Orpesa/Oropesa del Mar (CASTELLÓ)
26/01/2025 1:00;CVTA00044CS;LOWCARBONECONOMY FOUNDATION;POLÍGONO 5, PARCELA 69 - COMPLEJO MAR DE FULLES, S/N;12609;12;CASTELLÓ;7;ALFONDEGUILLA;LA PLANA BAIXA;info@lowcarboneconomy.org;964652880;;;;Alfondeguilla (CASTELLÓ), Azuébar (CASTELLÓ), Chóvar (CASTELLÓ), Eslida (CASTELLÓ), La Vall d'Uixó (CASTELLÓ)
26/01/2025 1:00;CVTA00048CS;SEBASTIA MASIA TOMAS;CALLE CAPÇER (TRIADOR), 1 - 4ª;12500;12;CASTELLÓ;138;VINARÒS;EL BAIX MAESTRAT;masiaclimb@gmail.com;665970100;;;;Cervera del Maestre (CASTELLÓ), Jérica (CASTELLÓ), Les Coves de Vinromà (CASTELLÓ), Montanejos (CASTELLÓ), Vinaròs (CASTELLÓ), Xert (CASTELLÓ)
26/01/2025 1:00;CVTA00049CS;ESPADAN AVENTURAS;AVENIDA AUTOVÍA A-23 SAGUNTO - TERUEL, SALIDA 33;12415;12;CASTELLÓ;65;GAIBIEL;EL ALTO PALANCIA;info@espadanaventuras.com;679 597 091;;http://www.espadanaventuras.com;;Alcudia de Veo (CASTELLÓ), Altura (CASTELLÓ), Cirat (CASTELLÓ), Eslida (CASTELLÓ), Gaibiel (CASTELLÓ), Jérica (CASTELLÓ), Ludiente (CASTELLÓ), Montán (CASTELLÓ), Montanejos (CASTELLÓ), Pina de Montalgrao (CASTELLÓ), Soneja (CASTELLÓ), Tales (CASTELLÓ), Villahermosa del Río (CASTELLÓ), Zucaina (CASTELLÓ)
26/01/2025 1:00;CVTA00052CS;ANAVEGAR;CALLE COMPANYIA DEL PORT, 14, 5-1;12580;12;CASTELLÓ;27;BENICARLÓ;EL BAIX MAESTRAT;alicia_moya@hotmail.es;635 815 611;;https://anavegar.es;;Benicarló (CASTELLÓ), Peñíscola/Peníscola (CASTELLÓ), Vinaròs (CASTELLÓ)
26/01/2025 1:00;CVTA00053CS;EXTREME WATER SPORT;CALLE PUERTO DEPORTIVO LAS FUENTES, 7;12579;12;CASTELLÓ;4;ALCALÀ DE XIVERT / ALCOSSEBRE;EL BAIX MAESTRAT;info@buggymonstre.com;627204217;;http://www.buggymonstre.com;;Alcalà de Xivert / Alcossebre (CASTELLÓ), Orpesa/Oropesa del Mar (CASTELLÓ), Torreblanca (CASTELLÓ), Vinaròs (CASTELLÓ)
26/01/2025 1:00;CVTA00055CS;SURFERS CASTELLON;CALLE ASTRÓNOMO FRANCES ARAGÓ, PLAYA DEL PINAR GRAO;12100;12;CASTELLÓ;40;CASTELLÓ DE LA PLANA/CASTELLÓN DE LA PLANA;LA PLANA ALTA;info@surferscastellon.com;+ 34 627 03 70 62;;https://www.surferscastellon.com;;Benicàssim/Benicasim (CASTELLÓ), Castelló de la Plana/Castellón de la Plana (CASTELLÓ), Orpesa/Oropesa del Mar (CASTELLÓ)
26/01/2025 1:00;CVTA00058CS;LA PARRETA;CARRETERA VILAFRANCA - IGLESUELA, KM.3;12150;12;CASTELLÓ;129;VILLAFRANCA DEL CID/VILAFRANCA;L'ALT MAESTRAT;info@laparreta.com;654908395;;http://www.laparreta.com;;Villafranca del Cid/Vilafranca (CASTELLÓ)
26/01/2025 1:00;CVTA00059CS;ISMAJET;PLAYA NORTE (FRENTE POLICIA LOCAL), S/N;12598;12;CASTELLÓ;89;PEÑÍSCOLA/PENÍSCOLA;EL BAIX MAESTRAT;ismajet@hotmail.com;607 322 465;;https://ismajet.es;;Peñíscola/Peníscola (CASTELLÓ)
26/01/2025 1:00;CVTA00060CS;APIVILLORES;PLAZA DE LA VILA, 1;12311;12;CASTELLÓ;137;VILLORES;ELS PORTS;viuelsports@gmail.com;633 820 736;;http://www.viuelsports.com;;Villores (CASTELLÓ)
26/01/2025 1:00;CVTA00062CS;BARRACUDA OROPESA;PUERTO PUERTO DE OROPESA DEL MAR, S/N;12594;12;CASTELLÓ;85;ORPESA/OROPESA DEL MAR;LA PLANA ALTA;buceo@barracudaoropesa.es;964 766 895;;https://barracudaoropesa.es;;Orpesa/Oropesa del Mar (CASTELLÓ)
26/01/2025 1:00;CVTA00063CS;DIVERNAUTICA;CALLE PUERTO NAUTICO DE OROPESA, S/N;12594;12;CASTELLÓ;85;ORPESA/OROPESA DEL MAR;LA PLANA ALTA;info@divernautica.com;655802870;;http://www.divernautica.com;;Orpesa/Oropesa del Mar (CASTELLÓ)
26/01/2025 1:00;CVTA00064CS;MARALBA CIRCUIT EXPERIENCE;CARRETERA CV-170, KM. 4,5 (COVA PANCHA) POL. 1, PARCELA 178, S/N;12118;12;CASTELLÓ;122;LES USERES/USERAS;L'ALCALATEN;mcasado@maralbacircuit.com;609765546;;http://www.maralbacircuit.com;;Les Useres/Useras (CASTELLÓ)
26/01/2025 1:00;CVTA00065CS;COSTA AZAHAR WATERSPORTS;PASEO MARÍTIMO DE LA CONCHA (BAJO), 48;12594;12;CASTELLÓ;85;ORPESA/OROPESA DEL MAR;LA PLANA ALTA;info@costaazaharwatersports.com;620854450;;http://costaazaharwatersports.com;;Orpesa/Oropesa del Mar (CASTELLÓ)
26/01/2025 1:00;CVTA00067CS;ASOCIACION DE VECINOS LES SUTARRANYES - AEROCLUB MAESTRAT;POLÍGONO 5, PARCELA 38, S/N;12500;12;CASTELLÓ;138;VINARÒS;EL BAIX MAESTRAT;info@aeroclubmaestrat.com;964402233;964459323;http://www.aeroclubmaestrat.com;;Vinaròs (CASTELLÓ)
26/01/2025 1:00;CVTA00068CS;CLUB HIPICO MEDITERRANEO;PARTIDA PEDREGAR, 40 (ULL DE LES FORQUES);12530;12;CASTELLÓ;32;BORRIANA/BURRIANA;LA PLANA BAIXA;juliansabater@yahoo.es;637 506 990;;http://www.clubhipicomediterraneo.com;;Borriana/Burriana (CASTELLÓ)
26/01/2025 1:00;CVTA00071CS;REAL CLUB NAUTICO CASTELLON;CALLE ESCOLLERA DE PONIENTE (GRAO DE CASTELLÓ), S/N;12100;12;CASTELLÓ;40;CASTELLÓ DE LA PLANA/CASTELLÓN DE LA PLANA;LA PLANA ALTA;secciones@rcncastellon.es;964282520;;http://www.Rcncastellon.es;;Castelló de la Plana/Castellón de la Plana (CASTELLÓ)
26/01/2025 1:00;CVTA00072CS;ROCA MAR TRAVEL;CALLE PADRE BOVER, 7 BIS, 1;12500;12;CASTELLÓ;138;VINARÒS;EL BAIX MAESTRAT;viprocamar@gmail.com;653726157;;http://rocamartravel.com;;Catí (CASTELLÓ), Forcall (CASTELLÓ), La Jana (CASTELLÓ), La Pobla de Benifassà (CASTELLÓ), Morella (CASTELLÓ), Sant Mateu (CASTELLÓ), Tírig (CASTELLÓ), Traiguera (CASTELLÓ), Vilafamés (CASTELLÓ), Vinaròs (CASTELLÓ), Xert (CASTELLÓ)
26/01/2025 1:00;CVTA00074CS;CENTRE HIPIC MOLI HOSPITAL;PARTIDA MOLI HOSPITAL, 2;12511;12;CASTELLÓ;96;ROSSELL;EL BAIX MAESTRAT;molihospital@gmail.com;637700776;;;;Rossell (CASTELLÓ)
26/01/2025 1:00;CVTA00075CS;CLUB NAUTICO OROPESA DEL MAR;CALLE PUERTO DEPORTIVO OROPESA DEL MAR, S/N;12594;12;CASTELLÓ;85;ORPESA/OROPESA DEL MAR;LA PLANA ALTA;info@cnoropesa.com;964 313 055;964310000;https://www.cnoropesa.com;;Orpesa/Oropesa del Mar (CASTELLÓ)
26/01/2025 1:00;CVTA00076CS;RUMBODIRECTO.COM;CALLE ESCOLLERA DE PONIENTE, AMARRE A-26 (CLUB NAUTICO), S/N;12100;12;CASTELLÓ;40;CASTELLÓ DE LA PLANA/CASTELLÓN DE LA PLANA;LA PLANA ALTA;info@rumbodirecto.com;611379337;;http://rumbodirecto.com;;Benicàssim/Benicasim (CASTELLÓ), Castelló de la Plana/Castellón de la Plana (CASTELLÓ), Orpesa/Oropesa del Mar (CASTELLÓ), Peñíscola/Peníscola (CASTELLÓ)
26/01/2025 1:00;CVTA00077CS;LA SURERA;CALLE CARBONERAS, 4;12413;12;CASTELLÓ;10;ALMEDÍJAR;EL ALTO PALANCIA;proyecto@lasurera.org;646205241;;http://www.canopiacoop.org;;Almedíjar (CASTELLÓ)
26/01/2025 1:00;CVTA00078CS;DISTRAU-TE;CALLE SOL, 27;12300;12;CASTELLÓ;80;MORELLA;ELS PORTS;javimorella@gmail.com;677448250;;www.distraute.com;;Morella (CASTELLÓ)
26/01/2025 1:00;CVTA00080CS;MAS DE BORRAS;PARTIDA MAS DE BORRÀS;12124;12;CASTELLÓ;130;VILLAHERMOSA DEL RÍO;EL ALTO MIJARES;info@elmasdeborras.com;964 255 675;;http://www.elmasdeborras.com;;LLucena/Lucena del Cid (CASTELLÓ), Villahermosa del Río (CASTELLÓ), Vistabella del Maestrat (CASTELLÓ), Xodos/Chodos (CASTELLÓ)
26/01/2025 1:00;CVTA00081CS;VIUNATURA;CALLE CAMINO PARIDERA, 21;12122;12;CASTELLÓ;60;FIGUEROLES;L'ALCALATEN;info@viunatura.com;618 13 17 18;;https://viunatura.com;;Castillo de Villamalefa (CASTELLÓ), Figueroles (CASTELLÓ), La Vall d'Uixó (CASTELLÓ), La Vilavella (CASTELLÓ), L'Alcora (CASTELLÓ), LLucena/Lucena del Cid (CASTELLÓ), Ribesalbes (CASTELLÓ), Sierra Engarcerán (CASTELLÓ), Villahermosa del Río (CASTELLÓ), Zucaina (CASTELLÓ)
26/01/2025 1:00;CVTA00082CS;MILA PEREZ GARCIA;CALLE ILUSTRACION, 10;12560;12;CASTELLÓ;28;BENICÀSSIM/BENICASIM;LA PLANA ALTA;milaperezgarcia5@gmail.com;619708085;;;;Benicàssim/Benicasim (CASTELLÓ)
26/01/2025 1:00;CVTA00084CS;EXPLORA MAESTRAT;AVENIDA PAPA LUNA, 36 N10;12580;12;CASTELLÓ;27;BENICARLÓ;EL BAIX MAESTRAT;info@exploramaestrat.com;+34 630 196 296;;https://exploramaestrat.com;;Alcalà de Xivert / Alcossebre (CASTELLÓ), Benicarló (CASTELLÓ), Càlig (CASTELLÓ), Canet lo Roig (CASTELLÓ), Cervera del Maestre (CASTELLÓ), La Jana (CASTELLÓ), La Salzadella (CASTELLÓ), Les Coves de Vinromà (CASTELLÓ), Peñíscola/Peníscola (CASTELLÓ), Vinaròs (CASTELLÓ)
26/01/2025 1:00;CVTA00085CS;MAESTRAT EXPERIENCE;CALLE D`AVALL, 58-C;12183;12;CASTELLÓ;132;VILANOVA D'ALCOLEA;LA PLANA ALTA;pau@maestratexperience.com;676 817 898;;https://www.maestratexperience.com;;Albocàsser (CASTELLÓ), Ares del Maestrat (CASTELLÓ), Benassal (CASTELLÓ), Catí (CASTELLÓ), Culla (CASTELLÓ), La Salzadella (CASTELLÓ), La Serratella (CASTELLÓ), Tírig (CASTELLÓ), Vilanova d'Alcolea (CASTELLÓ), Vistabella del Maestrat (CASTELLÓ)
26/01/2025 1:00;CVTA00086CS;MONTEMAR JETS;POLÍGONO INDUSTRIAL SUR CALLE FRANCIA NAVE, 13 E;12006;12;CASTELLÓ;40;CASTELLÓ DE LA PLANA/CASTELLÓN DE LA PLANA;LA PLANA ALTA;info@montemarmotor.es;964371103;;http://www.montemarmotor.es;;Benicàssim/Benicasim (CASTELLÓ), Borriol (CASTELLÓ), Cabanes (CASTELLÓ), Castelló de la Plana/Castellón de la Plana (CASTELLÓ), La Pobla Tornesa (CASTELLÓ), Orpesa/Oropesa del Mar (CASTELLÓ)
26/01/2025 1:00;CVTA00087CS;RESPIRA NATURA;CALLE SAN CRISTOBAL, 60;12318;12;CASTELLÓ;45;CINCTORRES;ELS PORTS;adriandeusdad@gmail.com;690630651;;;;Castellfort (CASTELLÓ), Cinctorres (CASTELLÓ), Forcall (CASTELLÓ)
26/01/2025 1:00;CVTA00088CS;LA LLOSA AERODROMO;CALLE ALMENARA, KM 3;12591;12;CASTELLÓ;74;LA LLOSA;LA PLANA BAIXA;info@lallosaaerodromo.com;636969386;;http://www.lallosaaerodromo.com;;La Llosa (CASTELLÓ)
26/01/2025 1:00;CVTA00089CS;CENTRO ECUESTRE Y CLUB HIPIC D'ONDA JESUS VERDIA;PARTIDA SONELLA POLIGONO, 27;12200;12;CASTELLÓ;84;ONDA;LA PLANA BAIXA;jesusverdia@hotmail.com;625320183;;;;Onda (CASTELLÓ)
26/01/2025 1:00;CVTA00090CS;MAESPORTS;CALLE DELS BOTERS;12580;12;CASTELLÓ;27;BENICARLÓ;EL BAIX MAESTRAT;info@maesports.es;630246916;;WWW.MAESPORTS.ES;;Benicarló (CASTELLÓ), Cervera del Maestre (CASTELLÓ), La Pobla de Benifassà (CASTELLÓ), Peñíscola/Peníscola (CASTELLÓ), Sant Mateu (CASTELLÓ)
26/01/2025 1:00;CVTA00091CS;MAXIMA AVENTURA;CALLE CARRETERA DE VALENCIA, 14;12448;12;CASTELLÓ;79;MONTANEJOS;EL ALTO MIJARES;hola@maximaaventura.es;636 388 105;;https://www.maximaaventura.es;;Cirat (CASTELLÓ), La Vilavella (CASTELLÓ), Montán (CASTELLÓ), Montanejos (CASTELLÓ), Puebla de Arenoso (CASTELLÓ), Villahermosa del Río (CASTELLÓ), Zucaina (CASTELLÓ)
26/01/2025 1:00;CVTA00092CS;NUCS;CALLE ERA BLANCA, 1;12200;12;CASTELLÓ;84;ONDA;LA PLANA BAIXA;info@nucs.pro;604080090;;http://www.nucs.pro;;Aín (CASTELLÓ), Alcudia de Veo (CASTELLÓ), Algimia de Almonacid (CASTELLÓ), Argelita (CASTELLÓ), Ayódar (CASTELLÓ), Castillo de Villamalefa (CASTELLÓ), Espadilla (CASTELLÓ), Fanzara (CASTELLÓ), Fuentes de Ayódar (CASTELLÓ), LLucena/Lucena del Cid (CASTELLÓ), Ludiente (CASTELLÓ), Onda (CASTELLÓ), Suera/Sueras (CASTELLÓ), Tales (CASTELLÓ), Toga (CASTELLÓ), Vallat (CASTELLÓ)
26/01/2025 1:00;CVTA00093CS;ARQUEOCAS;CALLE JOANOT MARTORELL, 18;12540;12;CASTELLÓ;135;VILA-REAL;LA PLANA BAIXA;info@arqueocas.es;644823706;;http://www.arqueocas.es;;Artana (CASTELLÓ), Benicàssim/Benicasim (CASTELLÓ), Castelló de la Plana/Castellón de la Plana (CASTELLÓ), El Toro (CASTELLÓ), La Vall d'Uixó (CASTELLÓ), La Vilavella (CASTELLÓ), Moncofa (CASTELLÓ), Nules (CASTELLÓ), Teresa (CASTELLÓ), Vilafamés (CASTELLÓ), Vila-real (CASTELLÓ)
26/01/2025 1:00;CVTA00094CS;VIU EXPERIENCIES TURISME I VIVENCIES;CALLE SAN JUAN, 134;12596;12;CASTELLÓ;117;TORREBLANCA;LA PLANA ALTA;contacto@viuexperiencies.com;616 690 147;;http://www.viuexperiencies.com;;Torreblanca (CASTELLÓ), Vilanova d'Alcolea (CASTELLÓ)
26/01/2025 1:00;CVTA00095CS;CENTRO HIPICO BENICARLO;PARTIDA SURRACH, 92;12580;12;CASTELLÓ;27;BENICARLÓ;EL BAIX MAESTRAT;hipicabenicarlo@hotmail.com;669352472;;;;Benicarló (CASTELLÓ)
26/01/2025 1:00;CVTA00096CS;DINAMIC ADVENTURE;PARTIDA ELVIRA PEIRÓ, 35;12448;12;CASTELLÓ;79;MONTANEJOS;EL ALTO MIJARES;dinamicsoffice@gmail.com;666762719;;http://www.dinamicadventure.com;;Cirat (CASTELLÓ), Montán (CASTELLÓ), Montanejos (CASTELLÓ), Puebla de Arenoso (CASTELLÓ), Zucaina (CASTELLÓ)
26/01/2025 1:00;CVTA00097CS;ALQUILER BARCO CASTELLON;AVENIDA PUERTO, 15;12100;12;CASTELLÓ;40;CASTELLÓ DE LA PLANA/CASTELLÓN DE LA PLANA;LA PLANA ALTA;construccionesrovirafortanet@gmail.com;696499610;;http://www.alquilerbarcocastellon.com;;Castelló de la Plana/Castellón de la Plana (CASTELLÓ)
26/01/2025 1:00;CVTA00098CS;PAPA LUNA BAY;PUERTO DE PEÑISCOLA, S/N;12598;12;CASTELLÓ;89;PEÑÍSCOLA/PENÍSCOLA;EL BAIX MAESTRAT;papalunabay@gmail.com;635401281;;;;Alcalà de Xivert / Alcossebre (CASTELLÓ), Benicarló (CASTELLÓ), Peñíscola/Peníscola (CASTELLÓ), Vinaròs (CASTELLÓ)
26/01/2025 1:00;CVTA00099CS;JALOQUE SEARIDERS;AVENIDA MEDITERRANEO (PLAYA MORRO DE GOS), 46;12594;12;CASTELLÓ;85;ORPESA/OROPESA DEL MAR;LA PLANA ALTA;hola@jaloqueseariders.com;625 540 505;;https://jaloqueseariders.com;;Benicàssim/Benicasim (CASTELLÓ), Cabanes (CASTELLÓ), Orpesa/Oropesa del Mar (CASTELLÓ)
26/01/2025 1:00;CVTA00101CS;DARKNESS SAILING;AVENIDA LAS PALMAS, 43;12560;12;CASTELLÓ;28;BENICÀSSIM/BENICASIM;LA PLANA ALTA;info@amphibia.es;661708400;;http://www.darkness-sailing.com;;Castelló de la Plana/Castellón de la Plana (CASTELLÓ)
26/01/2025 1:00;CVTA00104CS;MAUI SUP&SURF;AVENIDA FERRANDIS SALVADOR, 308;12560;12;CASTELLÓ;28;BENICÀSSIM/BENICASIM;LA PLANA ALTA;info@mauisupandsurf.com;611 037 653;;https://www.mauisupandsurf.com;;Benicàssim/Benicasim (CASTELLÓ)
26/01/2025 1:00;CVTA00105CS;ACTIVE SIGHTSEEING TOURS;CALLE RUIZ ZORRILLA, 2;12001;12;CASTELLÓ;40;CASTELLÓ DE LA PLANA/CASTELLÓN DE LA PLANA;LA PLANA ALTA;info@activetours.es;+34 644 114 239;;https://www.activesightseeing.es;;Benicàssim/Benicasim (CASTELLÓ), Castelló de la Plana/Castellón de la Plana (CASTELLÓ), Orpesa/Oropesa del Mar (CASTELLÓ)
26/01/2025 1:00;CVTA00107CS;CASTELLON TOURS;PLAZA CONSTITUCION, 3;12005;12;CASTELLÓ;40;CASTELLÓ DE LA PLANA/CASTELLÓN DE LA PLANA;LA PLANA ALTA;contacto@castellontours.es;618 469 972;;http://www.castellontours.es;;Alcalà de Xivert / Alcossebre (CASTELLÓ), Cabanes (CASTELLÓ), Orpesa/Oropesa del Mar (CASTELLÓ)
26/01/2025 1:00;CVTA00108CS;DXT COLUMBRETES;AVENIDA TREBALLADORS DE LA MAR, 18;12100;12;CASTELLÓ;40;CASTELLÓ DE LA PLANA/CASTELLÓN DE LA PLANA;LA PLANA ALTA;DCARRIL4@GMAIL.COM;618838317;;https://dxtcolumbretes.com;;Castelló de la Plana/Castellón de la Plana (CASTELLÓ)
26/01/2025 1:00;CVTA00109CS;3VENTUR;CALLE HILARIO CLARAMUNT, 23;12500;12;CASTELLÓ;138;VINARÒS;EL BAIX MAESTRAT;3ventur@gmail.com;633970236;;https://3ventur.com/;;La Pobla de Benifassà (CASTELLÓ)
26/01/2025 1:00;CVTA00110CS;SURKA;PLAZA SAN VALENTE, 12;12500;12;CASTELLÓ;138;VINARÒS;EL BAIX MAESTRAT;surkaunmar@gmail.com;601 059 551;;http://surka.es;;Cirat (CASTELLÓ), Montanejos (CASTELLÓ), Vinaròs (CASTELLÓ), Zucaina (CASTELLÓ)
26/01/2025 1:00;CVTA00111CS;AUNAR;PLAYA NORTE, S/N;12598;12;CASTELLÓ;89;PEÑÍSCOLA/PENÍSCOLA;EL BAIX MAESTRAT;servicios01@aunar.com;;;;;Peñíscola/Peníscola (CASTELLÓ)
26/01/2025 1:00;CVTA00112CS;ALESSMAR;PUERTO DEPORTIVO LAS FUENTES, LOCAL, 10;12579;12;CASTELLÓ;4;ALCALÀ DE XIVERT / ALCOSSEBRE;EL BAIX MAESTRAT;alessmar@telefonica.net;655963784;;;;Orpesa/Oropesa del Mar (CASTELLÓ), Peñíscola/Peníscola (CASTELLÓ)
26/01/2025 1:00;CVTA00114CS;MONTANEJOS ADVENTURE;PLAZA DE LA IGLESIA, 12;12448;12;CASTELLÓ;79;MONTANEJOS;EL ALTO MIJARES;montanejosadventure@gmail.com;638954260;;http://montaneosadventure.com;;Montán (CASTELLÓ), Montanejos (CASTELLÓ)
26/01/2025 1:00;CVTA00115CS;VICENT GUIA;CALLE SENIA SEVILLA, 6;12560;12;CASTELLÓ;28;BENICÀSSIM/BENICASIM;LA PLANA ALTA;vicentguia@gmail.com;610337024;;;;Benicàssim/Benicasim (CASTELLÓ), Cabanes (CASTELLÓ), Castelló de la Plana/Castellón de la Plana (CASTELLÓ), Orpesa/Oropesa del Mar (CASTELLÓ)
26/01/2025 1:00;CVTA00116CS;CULMEN NATURA;CALLE PONTIFICES, 21;12400;12;CASTELLÓ;104;SEGORBE;EL ALTO PALANCIA;culmennatura@gmail.com;660924909;;http://www.culmennatura.com;;Aín (CASTELLÓ), Algimia de Almonacid (CASTELLÓ), Almedíjar (CASTELLÓ), Altura (CASTELLÓ), Chóvar (CASTELLÓ), Eslida (CASTELLÓ), Jérica (CASTELLÓ), La Vall d'Uixó (CASTELLÓ), Montanejos (CASTELLÓ), Segorbe (CASTELLÓ), Vall de Almonacid (CASTELLÓ), Villahermosa del Río (CASTELLÓ), Vistabella del Maestrat (CASTELLÓ), Andilla (VALÈNCIA)
26/01/2025 1:00;CVTA00117CS;ETHERIA TOURS;CALLE PINTOR RIBERA, S/N;12004;12;CASTELLÓ;40;CASTELLÓ DE LA PLANA/CASTELLÓN DE LA PLANA;LA PLANA ALTA;administracion@etheriatours.es;;;http://www.etheriatours.es;;Castelló de la Plana/Castellón de la Plana (CASTELLÓ)
26/01/2025 1:00;CVTA00118CS;40000 AVENTURES;CALLE TOSSALET, 5;12360;12;CASTELLÓ;52;XERT;EL BAIX MAESTRAT;40000aventures@gmail.com;658010512;;;;Cinctorres (CASTELLÓ), Herbés (CASTELLÓ), Morella (CASTELLÓ), Sierra Engarcerán (CASTELLÓ), Vallibona (CASTELLÓ), Xert (CASTELLÓ)
26/01/2025 1:00;CVTA00119CS;AMZ GUIA MONTAÑA;CALLE COMPLEJO CAPICORP - APTA. 44, S/N;12579;12;CASTELLÓ;4;ALCALÀ DE XIVERT / ALCOSSEBRE;EL BAIX MAESTRAT;amzguia@gmail.com;669188501;;http://www.amzguiamontana.com;;Cirat (CASTELLÓ), La Vilavella (CASTELLÓ), L'Alcora (CASTELLÓ), LLucena/Lucena del Cid (CASTELLÓ), Sierra Engarcerán (CASTELLÓ), Villahermosa del Río (CASTELLÓ), Vistabella del Maestrat (CASTELLÓ), Zucaina (CASTELLÓ), Buñol (VALÈNCIA)
26/01/2025 1:00;CVTA00120CS;VELERO GOLDEN SEA;CAMINO L'ATALL (AIRMAR), 14;12579;12;CASTELLÓ;4;ALCALÀ DE XIVERT / ALCOSSEBRE;EL BAIX MAESTRAT;velerogoldensea@gmail.com;606997008;;http://www.velerogoldensea.com;;Alcalà de Xivert / Alcossebre (CASTELLÓ), Castelló de la Plana/Castellón de la Plana (CASTELLÓ), Orpesa/Oropesa del Mar (CASTELLÓ), Peñíscola/Peníscola (CASTELLÓ)
26/01/2025 1:00;CVTA00001 V;BARCOS & CASA;CAMINO CANAL 91 MUELLE ESTE PAÑOL VALENCIA MAR (AMP RCNV), 5;46024;46;VALÈNCIA;250;VALÈNCIA;LA RIBERA BAIXA;team@aquarellesailing.com;629622296;961701310;http://aquarellesailing.com;;Sueca (VALÈNCIA)
26/01/2025 1:00;CVTA00002 V;COFRENTES TURISMO ACTIVO;CALLE FUENTECILLAS, 1;46625;46;VALÈNCIA;97;COFRENTES;EL VALLE DE COFRENTES-AYORA;info@cofrentesturismoactivo.com;619 354 781;;http://www.cofrentesturismoactivo.com;;Cofrentes (VALÈNCIA), Requena (VALÈNCIA)
26/01/2025 1:00;CVTA00003 V;RUTING.ES;CALLE SAN JUAN, 17;46310;46;VALÈNCIA;254;VENTA DEL MORO;LA PLANA DE UTIEL-REQUENA;info@ruting.es;620264263;962185000;http://www.ruting.es;;Venta del Moro (VALÈNCIA)
26/01/2025 1:00;CVTA00004 V;TOTGLOBO;CALLE ELS CLOTS, S/N;46880;46;VALÈNCIA;72;BOCAIRENT;LA VALL D'ALBAIDA;totglobo@totglobo.com;+34 629 611 889;;https://totglobo.com/es;;Bocairent (VALÈNCIA)
26/01/2025 1:00;CVTA00005 V;EL MAS DE XETA;CAMINO XETA, S/N;46838;46;VALÈNCIA;150;LLUTXENT;LA VALL D'ALBAIDA;info@elmasdexeta.com;962131282;962954293;http://www.elmasdexeta.com;;Llutxent (VALÈNCIA)
26/01/2025 1:00;CVTA00008 V;AVENSPORT;CALLE SAN JUAN, 13;46310;46;VALÈNCIA;254;VENTA DEL MORO;L'HORTA SUD;avensport@avensport.com;961235076;;https://www.avensport.com;;Camporrobles (VALÈNCIA), Venta del Moro (VALÈNCIA), Villargordo del Cabriel (VALÈNCIA)
26/01/2025 1:00;CVTA00010 V;VALENCIA BIRDING;PLAZA SANT PERE, 12;46800;46;VALÈNCIA;145;XÀTIVA;LA SAFOR;valenciabirding@gmail.com;633117310;;https://valenciabirding.com;;Desconocido (ALACANT), Desconocido (CASTELLÓ), Desconocido (VALÈNCIA)
26/01/2025 1:00;CVTA00011 V;CABRIELROC;PLAZA ESPAÑA, 46;46625;46;VALÈNCIA;97;COFRENTES;EL VALLE DE COFRENTES-AYORA;;655760502;;http://www.cabrielroc.com;;Desconocido (VALÈNCIA)
26/01/2025 1:00;CVTA00012 V;CENTRO BUCEO DELFINCULLERA;CALLE GUARDIA CIVIL, 11 B;46400;46;VALÈNCIA;105;CULLERA;LA RIBERA BAIXA;buceo@delfincullera.com;961721634;961721634;http://www.delfincullera.com;;Cullera (VALÈNCIA)
26/01/2025 1:00;CVTA00015 V;KALAHARI;CALLE PASO DEL REY, S/N.;46310;46;VALÈNCIA;254;VENTA DEL MORO;VALENCIA;kalahari@kalahariaventuras.com;606 414 985;963774444;https://kalahariaventuras.com;;Desconocido (VALÈNCIA)
26/01/2025 1:00;CVTA00016 V;SUAVENTURA.COM;CARRETERA BALNEARIO, 1 - 1;46625;46;VALÈNCIA;97;COFRENTES;EL VALLE DE COFRENTES-AYORA;reservas@suaventura.com;961894727;;http://www.suaventura.com;;Desconocido (VALÈNCIA)
26/01/2025 1:00;CVTA00017 V;AIGUAROCA DEPORTES DE AVENTURA;CALLE MADRID, S/N;46317;46;VALÈNCIA;259;VILLARGORDO DEL CABRIEL;LA PLANA DE UTIEL-REQUENA;info@aiguaroca.com;649 047 282;;https://www.aiguaroca.com;;Requena (VALÈNCIA), Venta del Moro (VALÈNCIA), Villargordo del Cabriel (VALÈNCIA)
26/01/2025 1:00;CVTA00018 V;VALENCIA ADVENTURE;CALLE CISTERNA 1-B, POL. 33- POU DE BAIX, S/N;46190;46;VALÈNCIA;214;RIBA-ROJA DE TÚRIA;L'HORTA OEST;reservas@valenciadventure.com;674248620;;https://valenciadventure.com;;Desconocido (ALACANT), Desconocido (CASTELLÓ), Desconocido (VALÈNCIA)
26/01/2025 1:00;CVTA00020 V;KIKO PARK RURAL;CARRETERA EMBALSE DE CONTRERAS, KM, 3;46317;46;VALÈNCIA;259;VILLARGORDO DEL CABRIEL;LA PLANA DE UTIEL-REQUENA;rural@kikopark.com;962 139 082;;https://kikoparkrural.com;;Venta del Moro (VALÈNCIA), Villargordo del Cabriel (VALÈNCIA)
26/01/2025 1:00;CVTA00021 V;GEONATUR RURAL;PARTIDA DEL CERRAO, S/N;46168;46;VALÈNCIA;234;SOT DE CHERA;LOS SERRANOS;cesar@geonatur.es;663848212;962348201;http://www.geonatur.es;;Sot de Chera (VALÈNCIA)
26/01/2025 1:00;CVTA00024 V;OBJETIVO VALENCIA;AVENIDA BLASCO IBAÑEZ, 27-5;46920;46;VALÈNCIA;169;MISLATA;L'HORTA OEST;info@objetivovalencia.es;690985199;;http://www.objetivovalencia.es;;Desconocido (ALACANT), Desconocido (CASTELLÓ), Desconocido (VALÈNCIA)
26/01/2025 1:00;CVTA00025 V;ACTIO ACTIVITATS EDUCATIVES;CALLE MARIOLA, 15 BAJOS;46006;46;VALÈNCIA;250;VALÈNCIA;VALENCIA;info@actiobirding.com;963 741 156;963 743 119;https://www.actiobirding.com;;Alborache (VALÈNCIA), Buñol (VALÈNCIA), Macastre (VALÈNCIA), Yátova (VALÈNCIA)
26/01/2025 1:00;CVTA00027 V;HOCESVENTURA;CALLE ALICANTE, 8 3 10;46300;46;VALÈNCIA;249;UTIEL;LA PLANA DE UTIEL-REQUENA;info@hocesventura.com;651 919 168;;https://hocesventura.com;;Ayora (VALÈNCIA), Utiel (VALÈNCIA), Venta del Moro (VALÈNCIA)
26/01/2025 1:00;CVTA00028 V;VISIT ALBUFERA;AVENIDA ELS PINARS (EL SALER), 6;46012;46;VALÈNCIA;250;VALÈNCIA;VALENCIA;info@visitalbufera.com;+34 665 860 874;;https://visitalbufera.com;;València (VALÈNCIA)
26/01/2025 1:00;CVTA00030 V;NAVAESPORT;AVENIDA PINTOR TARRASO, 64 2 12;46823;46;VALÈNCIA;179;NAVARRÉS;LA CANAL DE NAVARRÉS;navaesport@gmail.com;616753516;;http://navaesport.com;;Anna (VALÈNCIA), Antella (VALÈNCIA), Bicorp (VALÈNCIA), Millares (VALÈNCIA), Navarrés (VALÈNCIA), Quesa (VALÈNCIA), Tous (VALÈNCIA)
26/01/2025 1:00;CVTA00031 V;AVENTURIA;CALLE EMBALSE DE BENAGEBER, S/N;46173;46;VALÈNCIA;50;BENAGÉBER;LOS SERRANOS;jose@aventuria.es;608067710;;http://www.aventuria.es;;Desconocido (VALÈNCIA)
26/01/2025 1:00;CVTA00032 V;KITE45;PLAZA ALQUERIA NOVA, 2 68;46950;46;VALÈNCIA;110;XIRIVELLA;L'HORTA OEST;info@kite45.com;666344314;;;;Dénia (ALACANT)
26/01/2025 1:00;CVTA00034 V;GAMUSINOS;CALLE LIBERTAD, 14;46191;46;VALÈNCIA;256;VILAMARXANT;EL CAMP DE TURIA;info@actividadesgamusinos.com;962712521;;http://www.facebook.com/ludotecagamusinos;;Navajas (CASTELLÓ), València (VALÈNCIA), Vilamarxant (VALÈNCIA)
26/01/2025 1:00;CVTA00035 V;NATURA Y CULTURA;CALLE FONT DE SAN LLUIS- VEDAT ZONA 1, Nº 15;46901;46;VALÈNCIA;244;TORRENT;L'HORTA OEST;info@naturaycultura.com;(+34) 96 125 51 52;;https://naturaycultura.com;;Montanejos (CASTELLÓ), Alzira (VALÈNCIA), Bolbaite (VALÈNCIA), Buñol (VALÈNCIA), Chulilla (VALÈNCIA), Montesa (VALÈNCIA), Quesa (VALÈNCIA), Torrent (VALÈNCIA)
26/01/2025 1:00;CVTA00036 V;OCEAN REPUBLIK;PASEO MARINA REAL JUAN CARLOS I MODULOS, 6-7;46024;46;VALÈNCIA;250;VALÈNCIA;VALENCIA;info@oceanrepublik.com;601 205 327;;http://www.oceanrepublik.com;;València (VALÈNCIA)
26/01/2025 1:00;CVTA00037 V;ALICIA PUIG SILVESTRE;CALLE MUSIC BLAI COLOMER, 19;46880;46;VALÈNCIA;72;BOCAIRENT;LA VALL D'ALBAIDA;aliciapuigsilvestre@gmail.com;629984471;;;;Desconocido (ALACANT), Desconocido (CASTELLÓ), Desconocido (VALÈNCIA)
26/01/2025 1:00;CVTA00042 V;CALDERONA VIVA;CALLE VIRGEN DE LA CABEZA, 63-5ª;46014;46;VALÈNCIA;250;VALÈNCIA;VALENCIA;info@calderonaviva.com;626679579;;http://www.calderonaviva.com;;Gátova (VALÈNCIA), Náquera (VALÈNCIA), Olocau (VALÈNCIA), Segart (VALÈNCIA), Serra (VALÈNCIA)
26/01/2025 1:00;CVTA00045 V;ALBUDIL SERVICIOS DEPORTIVOS EN LA NATURALEZA;CALLE CREU DE FUSTA, 434;46117;46;VALÈNCIA;70;BÉTERA;EL CAMP DE TURIA;;670282679;;http://www.albudil.com;;Cortes de Arenoso (CASTELLÓ), Montanejos (CASTELLÓ), Andilla (VALÈNCIA), Serra (VALÈNCIA), Tous (VALÈNCIA), Tuéjar (VALÈNCIA)
26/01/2025 1:00;CVTA00047 V;RIBERA ACTIU;CALLE ESCULTOR TORAN, 24;46410;46;VALÈNCIA;235;SUECA;LA RIBERA BAIXA;info@grupopequenin.com;961 710 030;961700112;http://pequenin.vewtech.net;;Alzira (VALÈNCIA), Sueca (VALÈNCIA), València (VALÈNCIA)
26/01/2025 1:00;CVTA00048 V;EXTREM TRACKS;CALLE FRANCISCO BRINES, 11B;46780;46;VALÈNCIA;181;OLIVA;LA SAFOR;info@tracksandpedals.es;+34 646 067 264;;https://www.tracksandpedals.es;;Desconocido (VALÈNCIA), Oliva (VALÈNCIA)
26/01/2025 1:00;CVTA00049 V;AVENTURA VALENCIA PAINTBALL VALENCIA;CAMINO DEL PLA, S/N;46019;46;VALÈNCIA;120;ESTIVELLA;EL CAMP DE MORVEDRE;info@aventuravalencia.es;686 740 982;;http://aventuravalencia.es;;Estivella (VALÈNCIA)
26/01/2025 1:00;CVTA00051 V;FIELD& HORSE;URBANIZACIÓN CAÑADA CONFITES L835, 34;46160;46;VALÈNCIA;147;LLÍRIA;LA RIBERA ALTA;fieldandhorse@gmail.com;610226555;;http://fieldandhorse.es;;Benissanó (VALÈNCIA), Enguera (VALÈNCIA), Fontanars dels Alforins (VALÈNCIA), La Font de la Figuera (VALÈNCIA), Riba-roja de Túria (VALÈNCIA), València (VALÈNCIA)
26/01/2025 1:00;CVTA00052 V;VALENCIA TIERRA DE AVENTURA;CARRETERA LLOMBAI, S/N;46194;46;VALÈNCIA;212;REAL;LA RIBERA ALTA;info@valenciatierradeaventura.com;+34 647 26 09 37;;https://valenciatierradeaventura.com;;Desconocido (ALACANT), Desconocido (CASTELLÓ), Desconocido (VALÈNCIA)
26/01/2025 1:00;CVTA00055 V;EL CISNE NEGRO;CALLE CINGLE, 48;46400;46;VALÈNCIA;105;CULLERA;LA RIBERA BAIXA;elcisnenegro1@gmail.com;638671247;;;;Cullera (VALÈNCIA)
26/01/2025 1:00;CVTA00056 V;OK AVENTURAS;CALLE 31  (POL IND EL BONY), 537B;46470;46;VALÈNCIA;94;CATARROJA;L'HORTA SUD;ok@okaventuras.com;961112112;;http://www.okaventuras.com;;Dénia (ALACANT), Desconocido (ALACANT), Xàbia/Jávea (ALACANT), Desconocido (CASTELLÓ), Desconocido (VALÈNCIA)
26/01/2025 1:00;CVTA00057 V;OLA MOTOS ACUATICAS;AVENIDA DEL PUERTO    (CLUB NAUTICO), 2;46400;46;VALÈNCIA;105;CULLERA;LA RIBERA BAIXA;olamotosacuaticas@gmail.com;644243665;;;;Cullera (VALÈNCIA)
26/01/2025 1:00;CVTA00059 V;PASEOS EL TORRENTI;PLAZA LIBERTAD, 6-5ª;46900;46;VALÈNCIA;244;TORRENT;L'HORTA OEST;paseoseltorrenti@gmail.com;637001652;;http://www.turismealbufera.com;;Catarroja (VALÈNCIA), Sueca (VALÈNCIA), València (VALÈNCIA)
26/01/2025 1:00;CVTA00060 V;SENDEANDO;CALLE MAESTRO JOSE SERRANO, 6-3;46005;46;VALÈNCIA;250;VALÈNCIA;VALENCIA;acsendeando@gmail.com;692528655;;;;Desconocido (ALACANT), Desconocido (CASTELLÓ), Desconocido (VALÈNCIA)
26/01/2025 1:00;CVTA00062 V;ATREVETEAVENTURAS;CALLE CARNICERIAS, 14;46177;46;VALÈNCIA;247;TUÉJAR;LOS SERRANOS;info@atreveteaventuras.com;656 549 625;;https://atreveteaventuras.com;;Alpuente (VALÈNCIA), Calles (VALÈNCIA), Chulilla (VALÈNCIA), Desconocido (VALÈNCIA), Tuéjar (VALÈNCIA)
26/01/2025 1:00;CVTA00063 V;SERRANIA AVENTURA;CALLE FERNANDO EL CATÓLICO, 4-5ª;46167;46;VALÈNCIA;112;CHULILLA;LOS SERRANOS;contacto@serraniaaventura.com;+(34) 647 664 292;;https://serraniaaventura.com;;Andilla (VALÈNCIA), Bugarra (VALÈNCIA), Chera (VALÈNCIA), Chulilla (VALÈNCIA), Dos Aguas (VALÈNCIA), Gestalgar (VALÈNCIA), Millares (VALÈNCIA), Pedralba (VALÈNCIA), Tuéjar (VALÈNCIA)
26/01/2025 1:00;CVTA00064 V;VENTS MUNTANYA I NATURA;CALLE ACTOR MORA, 23;46009;46;VALÈNCIA;250;VALÈNCIA;VALENCIA;vents@ventsdemuntanya.com;963389688;963389688;http://ventsdemuntanya.com/blog/actividades;;Desconocido (ALACANT), Poble Nou de Benitatxell, el/ Benitachell (ALACANT), Desconocido (CASTELLÓ), Montanejos (CASTELLÓ), Cheste (VALÈNCIA), Chulilla (VALÈNCIA), Desconocido (VALÈNCIA), Montesa (VALÈNCIA), València (VALÈNCIA), Vilamarxant (VALÈNCIA), Xàtiva (VALÈNCIA)
26/01/2025 1:00;CVTA00065 V;URBAN PAINTBALL;PARTIDA LA CONARDA PARCELA 516 POLIGONO 4 CAMINO BROCHEROS, S/N;46184;46;VALÈNCIA;903;SAN ANTONIO DE BENAGÉBER;EL CAMP DE TURIA;reservas@urbanpaintball.es;633300344;;http://www.urbanpaintball.es;;San Antonio de Benagéber (VALÈNCIA)
26/01/2025 1:00;CVTA00066 V;COSTA PALANCIA;AVENIDA 9 DE OCTUBRE, S/N;46529;46;VALÈNCIA;82;CANET D'EN BERENGUER;EL CAMP DE MORVEDRE;;630226987;;http://www.costapalancia.es;;Canet d'En Berenguer (VALÈNCIA), Sagunt/Sagunto (VALÈNCIA)
26/01/2025 1:00;CVTA00068 V;BIGTIME AVENTURA;CALLE MAESTRO SERRANO, 9-B-1;46560;46;VALÈNCIA;163;MASSALFASSAR;L'HORTA NORD;bigtimeaventura@gmail.com;+34 644 228 970;;https://bigtimeaventura.com;;Calp (ALACANT), Poble Nou de Benitatxell, el/ Benitachell (ALACANT), Villena (ALACANT)
26/01/2025 1:00;CVTA00069 V;RAFAEL LOPEZ BENAVENT;CALLE SILLA, 32-10ª;46035;46;VALÈNCIA;250;VALÈNCIA;VALENCIA;rgyver@gmail.com;648097019;;;;Desconocido (ALACANT), Desconocido (CASTELLÓ), Desconocido (VALÈNCIA)
26/01/2025 1:00;CVTA00070 V;CRUCEROS JUCAR;CALLE VALENCIA, 12;46623;46;VALÈNCIA;97;COFRENTES;EL VALLE DE COFRENTES-AYORA;miguel@suaventura.com;639644633;;;;Desconocido (VALÈNCIA)
26/01/2025 1:00;CVTA00071 V;OLIVA SURF;PASEO FRANCISCO BRINES, 92;46780;46;VALÈNCIA;181;OLIVA;LA SAFOR;tapia@hotelplayaoliva.com;609225418;;http://www.olivasurf.com;;Oliva (VALÈNCIA)
26/01/2025 1:00;CVTA00072 V;SOMOS AVENTURA;CALLE SAGUNTO, 74;46138;46;VALÈNCIA;207;RAFELBUNYOL;L'HORTA NORD;info@somosaventura.com;+34 601 407 921;;https://somosaventura.com;;Desconocido (ALACANT), Desconocido (CASTELLÓ), Desconocido (VALÈNCIA)
26/01/2025 1:00;CVTA00073 V;GEOSENDA;CALLE GENERAL SANMARTÍN, 9-9ª;46004;46;VALÈNCIA;250;VALÈNCIA;VALENCIA;info@geosenda.com;639140539;;http://www.geosenda.com;;Desconocido (ALACANT), Desconocido (CASTELLÓ), Desconocido (VALÈNCIA)
26/01/2025 1:00;CVTA00074 V;BUCEO POLITSUB;CALLE PEPE ALBA, 3;46022;46;VALÈNCIA;250;VALÈNCIA;VALENCIA;joanpolit@politsub.org;609605315;;;;Desconocido (ALACANT), Desconocido (CASTELLÓ), Desconocido (VALÈNCIA)
26/01/2025 1:00;CVTA00075 V;GANDIA SURF;CALLE RIBERA BAIXA (PLAYA DE GANDÍA);46730;46;VALÈNCIA;131;GANDIA;LA SAFOR;gandiasurf@gandiasurf.com;+34 637 809 309;;https://www.gandiasurf.com;;Desconocido (VALÈNCIA)
26/01/2025 1:00;CVTA00076 V;QUICKSAIL EVENTS & YACHT SERVICES;CALLE MARINA REAL JUAN CARLOS I, MARINA NORTE, LOCAL 8;46024;46;VALÈNCIA;250;VALÈNCIA;VALENCIA;info@quicksail.es;615 229 700;;https://www.barcoscharter.es;;Desconocido (VALÈNCIA)
26/01/2025 1:00;CVTA00077 V;ESPORT ACTIU;CALLE PONIENTE (POL IND LOS VIENTOS), 9;46136;46;VALÈNCIA;178;NÁQUERA;L'HORTA NORD;info@esportactiu.com;670204687;;http://www.esportactiu.com;;Desconocido (ALACANT), Desconocido (CASTELLÓ), Desconocido (VALÈNCIA)
26/01/2025 1:00;CVTA00078 V;JAVIER HERRERO MATEOS;AVENIDA PROFESOR LOPEZ PIÑERO, 7;46013;46;VALÈNCIA;250;VALÈNCIA;VALENCIA;;646300619;;;;València (VALÈNCIA)
26/01/2025 1:00;CVTA00082 V;KITE PARADISE;CALLE ARGELERS, 19 B;46780;46;VALÈNCIA;181;OLIVA;LA SAFOR;javiertejerorubio@gmail.com;680732667;;http://paradisekite.com;;Oliva (VALÈNCIA)
26/01/2025 1:00;CVTA00083 V;FLYBOARD WATER SPORTS;CALLE CLUB NÁUTICO DE OLIVA, S/N;46780;46;VALÈNCIA;181;OLIVA;LA SAFOR;wakejavea@gmail.com;655 917 502;;https://www.flyboardwatersports.com;;Oliva (VALÈNCIA)
26/01/2025 1:00;CVTA00084 V;ANYWHERE WATERSPORTS;AVENIDA MARINA REAL JUAN CARLOS I, S/N;46024;46;VALÈNCIA;250;VALÈNCIA;VALENCIA;info@anywherewatersports.com;+34 693 731 830;;https://anywherewatersports.com;;Dénia (ALACANT), Xàbia/Jávea (ALACANT), Benicàssim/Benicasim (CASTELLÓ), Cullera (VALÈNCIA), El Puig de Santa Maria (VALÈNCIA), Miramar (VALÈNCIA)
26/01/2025 1:00;CVTA00085 V;BORAMAR CATAMARANES;CARRETERA DÁRSENA INTERIOR PUERTO DE VALENCIA, TINGLADO Nº 2;46024;46;VALÈNCIA;250;VALÈNCIA;VALENCIA;info@boramar.net;963449455;;http://www.boramar.net;;València (VALÈNCIA)
26/01/2025 1:00;CVTA00087 V;ADVENTURE HOLIDAY;CALLE CANYAES, 61;46780;46;VALÈNCIA;181;OLIVA;LA SAFOR;adventure-holidays.ch@bluewin.ch;620166122;;;;Desconocido (ALACANT), Desconocido (VALÈNCIA)
26/01/2025 1:00;CVTA00090 V;UN TORRENTE DE AVENTURAS;CALLE GERMANIAS, 88-2ª;46900;46;VALÈNCIA;244;TORRENT;L'HORTA OEST;untorrentedeaventuras@hotmail.com;657272170;;http://www.untorrentedeaventuras.es;;Torrent (VALÈNCIA)
26/01/2025 1:00;CVTA00091 V;MEDITERRANEAN BIKE TOURS;CALLE MAJOR, 68;46595;46;VALÈNCIA;245;TORRES TORRES;EL CAMP DE MORVEDRE;hello@mediterraneanbiketours.com;629522300;;http://mediterraneanbiketours.com;;Desconocido (ALACANT), Desconocido (CASTELLÓ), Desconocido (VALÈNCIA)
26/01/2025 1:00;CVTA00092 V;RADICAL WINDSURF CENTER;AVENIDA JOANOT MARTORELL,, 16;46400;46;VALÈNCIA;105;CULLERA;LA RIBERA BAIXA;info@radicalwindsurfcenter.com;600785956;;http://www.radicalwinsurfcenter.com;;Cullera (VALÈNCIA)
26/01/2025 1:00;CVTA00093 V;GARBI WATER SPORTS;CALLE PORXE, 32, 32;46712;46;VALÈNCIA;195;PILES;LA SAFOR;fernanponstur@gmail.com;605046838;;http://www.garbisurf.com;;Piles (VALÈNCIA)
26/01/2025 1:00;CVTA00095 V;ESCUELA SURF VALENCIA POSIDONIA;CALLE HORTA, 33;46400;46;VALÈNCIA;105;CULLERA;LA RIBERA BAIXA;info@escuelasurfvalencia.com;687420277;;;;Cullera (VALÈNCIA)
26/01/2025 1:00;CVTA00096 V;GUILLERMO BATALLER BAREA;CALLE DEPOSIT VELL, 5-3ª;46180;46;VALÈNCIA;51;BENAGUASIL;EL CAMP DE TURIA;guillermobatallerbarea@gmail.com;639570219;;;;Desconocido (VALÈNCIA)
26/01/2025 1:00;CVTA00097 V;WINDSPORTS DAIMUS;CALLE TIMÓ, 2;46710;46;VALÈNCIA;113;DAIMÚS;LA SAFOR;infodaimus@windsport.es;644260449;;http://www.windsports.es;;Desconocido (VALÈNCIA)
26/01/2025 1:00;CVTA00098 V;LA RUTA VALENCIA;POLÍGONO 36 PARCELA 390, S/N;46191;46;VALÈNCIA;256;VILAMARXANT;EL CAMP DE TURIA;helio.piquer@hotmail.com;688428240;;http://www.larutavalencia.es;;Desconocido (VALÈNCIA)
26/01/2025 1:00;CVTA00099 V;LOW COST CHARTER;CALLE PUERT DEPORTIVO POBLA MARINA, LOCAL 8, S/N;46139;46;VALÈNCIA;199;LA POBLA DE FARNALS;L'HORTA NORD;teto_fosgate@hotmail.com;697184109;;http://www.lowcostcharter.es;;Desconocido (VALÈNCIA)
26/01/2025 1:00;CVTA00100 V;WHAT TO DO IN VALENCIA;CALLE SAGUNTO, 112-27ª;46009;46;VALÈNCIA;250;VALÈNCIA;VALENCIA;info@whattodoinvalencia.com;684268754;;http://www.whattodoinvalencia.com;;Desconocido (ALACANT), Desconocido (CASTELLÓ), Desconocido (VALÈNCIA)
26/01/2025 1:00;CVTA00102 V;SEASURF PATROL WINDSURFING ESCUELA;CALLE ELS LLEONS, EDIFICIO EL PRADO, S/N;46400;46;VALÈNCIA;105;CULLERA;LA RIBERA BAIXA;goodmorningwindsurf@gmail.com;629968793;;http://www.windsurfvalenciacullera.com;;Cullera (VALÈNCIA)
26/01/2025 1:00;CVTA00103 V;PAINTBALL TORRENT;AVENIDA 25, 26;46017;46;VALÈNCIA;250;VALÈNCIA;VALENCIA;;657577117;;;;Torrent (VALÈNCIA)
26/01/2025 1:00;CVTA00104 V;EMILIO FORNER LAPIEDRA;CALLE METGE ELOI GARCIA, 43;46560;46;VALÈNCIA;163;MASSALFASSAR;L'HORTA NORD;ayla650@hotmail.com;665030911;;;;Desconocido (ALACANT), Desconocido (CASTELLÓ), Desconocido (VALÈNCIA)
26/01/2025 1:00;CVTA00106 V;GLUPING;CALLE PORT, 2;46730;46;VALÈNCIA;131;GANDIA;LA SAFOR;info@xtremetours.es;616 15 22 35;;https://www.xtremetours.es;;Desconocido (VALÈNCIA)
26/01/2025 1:00;CVTA00107 V;LA SARIA TURISME;CALLE AMISTAT, 5-2ª;46021;46;VALÈNCIA;250;VALÈNCIA;VALENCIA;info@lasaria.com;635120029;;http://www.lasaria.com;;Desconocido (ALACANT), Desconocido (CASTELLÓ), Desconocido (VALÈNCIA)
26/01/2025 1:00;CVTA00108 V;VALENCIA CLIMB;GRAN VÍA RAMON Y CAJAL, 29-8ª;46007;46;VALÈNCIA;250;VALÈNCIA;VALENCIA;info@valenciaclimb.com;660154996;;http://www.valenciaclimb.com;;Desconocido (VALÈNCIA)
26/01/2025 1:00;CVTA00109 V;SPAIN MOTO EXPERIENCES;CALLE JOVELLANOS, 3-10ª;46003;46;VALÈNCIA;250;VALÈNCIA;VALENCIA;bruno@spainmotoexperiences.com;610777210;;http://www.spainmotoexperiences.com;;Desconocido (VALÈNCIA)
26/01/2025 1:00;CVTA00110 V;REAL CLUB NAUTICO DE VALENCIA;CAMINO DEL CANAL, 91;46024;46;VALÈNCIA;250;VALÈNCIA;VALENCIA;rcnv@rcnv.es;963679011;;http://www.rcnv.es;;Desconocido (VALÈNCIA)
26/01/2025 1:00;CVTA00111 V;RETO 16 CIMAS SL;CALLE LORCA, 7-8ª;46018;46;VALÈNCIA;250;VALÈNCIA;VALENCIA;direccion@16cimas.es;677806248;;http://WWW.16cimas.es;;Desconocido (VALÈNCIA)
26/01/2025 1:00;CVTA00112 V;NAUTICO GANDIA;PASEO MARITIMO NEPTUNO, 2;46730;46;VALÈNCIA;131;GANDIA;LA SAFOR;administracion@rcngandia.com;962841050;;http://www.rcngandia.com;;Gandia (VALÈNCIA)
26/01/2025 1:00;CVTA00114 V;VALENCIA EXCURSIONS;CALLE 577, 4;46182;46;VALÈNCIA;190;PATERNA;L'HORTA OEST;info@valenciaexcursions.com;616176356;;http://www.valenciaexcursions.com;;Desconocido (VALÈNCIA)
26/01/2025 1:00;CVTA00115 V;SUPLIFE VALENCIA;CALLE AVDA REINO DE VALENCIA, 85;46006;46;VALÈNCIA;250;VALÈNCIA;VALENCIA;suplifevalencia@gmail.com;664068339;;http://www.suplifevalencia.com;;València (VALÈNCIA)
26/01/2025 1:00;CVTA00116 V;RENT YACHT WORLD;CALLE CIRILO AMOROS, 53;46004;46;VALÈNCIA;250;VALÈNCIA;VALENCIA;info@rentyachtworld.es;610211998;;http://www.rentyachtworld.es;;Desconocido (VALÈNCIA), València (VALÈNCIA)
26/01/2025 1:00;CVTA00118 V;CAMINS D'AVENTURA;CALLE DE DALT, 7;46270;46;VALÈNCIA;257;VILLANUEVA DE CASTELLÓN;LA RIBERA ALTA;info@caminsdaventura.com;639023642;;http://www.caminsdaventura.com;;Desconocido (VALÈNCIA)
26/01/2025 1:00;CVTA00120 V;INTERPRETA NATURA;CALLE CONCEPCIÓN ARENAL, 2-BJ-IZQ;46600;46;VALÈNCIA;17;ALZIRA;LA RIBERA ALTA;info@interpretayeduca.com;962 01 83 93;;http://www.interpretayeduca.com;;Desconocido (VALÈNCIA)
26/01/2025 1:00;CVTA00121 V;ILLUKA SAILING;AVENIDA ARAGON, 8;46021;46;VALÈNCIA;250;VALÈNCIA;VALENCIA;admin@illuka.es;622606870;;;;Desconocido (ALACANT), Desconocido (CASTELLÓ), Desconocido (VALÈNCIA)
26/01/2025 1:00;CVTA00122 V;GRUPO VAYA TELA;CAMINO VELL DE VALENCIA (PLAYA DE GANDIA), 50;46730;46;VALÈNCIA;131;GANDIA;LA SAFOR;info@grupovayatela.com;962 841 627;;http://www.grupovayatela.com;;Desconocido (VALÈNCIA)
26/01/2025 1:00;CVTA00123 V;BLUESEANAUTIC VALENCIA;PLAZA AYUNTAMIENTO, 26-31ª;46002;46;VALÈNCIA;250;VALÈNCIA;VALENCIA;info@blueseanautic.com;963528102;;http://www.blueseanautic.com;;Desconocido (VALÈNCIA)
26/01/2025 1:00;CVTA00124 V;COMPLEJO DEPORTIVO MASBLOCK SL;CAMINO DE LA CREU, S/N;46185;46;VALÈNCIA;202;LA POBLA DE VALLBONA;EL CAMP DE TURIA;;627637962;;;;La Pobla de Vallbona (VALÈNCIA)
26/01/2025 1:00;CVTA00125 V;AMIGOS DEL PAISAJE;CALLE ARES DEL MAESTRAT, 9-53ª;46980;46;VALÈNCIA;190;PATERNA;L'HORTA OEST;jav.sebas@gmail.com;610472021;;http://www.amigosdelpaisaje.com;;Desconocido (VALÈNCIA)
26/01/2025 1:00;CVTA00126 V;TRACKSANDPEDALS;CALLE ISAAC ALBENIZ, 50;46780;46;VALÈNCIA;181;OLIVA;LA SAFOR;info@tracksandpedals.es;+34 646 067 264;;https://www.tracksandpedals.es;;Desconocido (ALACANT), Desconocido (CASTELLÓ), Desconocido (VALÈNCIA)
26/01/2025 1:00;CVTA00127 V;NAUTICA DE LUXE;CALLE CAMINO CANAL 91. RCNV LOCAL 13, S/N;46024;46;VALÈNCIA;250;VALÈNCIA;VALENCIA;paola@nauticadeluxe.com;620768291;;http://www,nauticadeluxe.com;;València (VALÈNCIA)
26/01/2025 1:00;CVTA00128 V;KOIRA ADIESTRAMIENTO CANINO;CALLE MILAGROSA, 34;46009;46;VALÈNCIA;250;VALÈNCIA;VALENCIA;info@koira.es;639880264;;;;Desconocido (ALACANT), Desconocido (CASTELLÓ), Desconocido (VALÈNCIA)
26/01/2025 1:00;CVTA00129 V;VIVE OLIVA;AVENIDA DE PICASSO, 1;46780;46;VALÈNCIA;181;OLIVA;LA SAFOR;info@viveoliva.com;660 839 161;;https://viveoliva.com;;Desconocido (ALACANT), Desconocido (CASTELLÓ), Desconocido (VALÈNCIA)
26/01/2025 1:00;CVTA00130 V;RUTAS PUEBLOS;GRAN VÍA DEL NORTE, 17;46117;46;VALÈNCIA;70;BÉTERA;EL CAMP DE TURIA;info@rutaspueblos.es;666080830;;http://www.rutaspueblos.es;;Desconocido (ALACANT), Desconocido (CASTELLÓ), Desconocido (VALÈNCIA)
26/01/2025 1:00;CVTA00131 V;ROWILD PACKRAFT;CALLE BORRIANA, 19-13ª;46005;46;VALÈNCIA;250;VALÈNCIA;VALENCIA;info@rowildpackraft.com;679526709;;http://www.rowildpackraft.com;;Desconocido (ALACANT), Desconocido (CASTELLÓ), Desconocido (VALÈNCIA)
26/01/2025 1:00;CVTA00132 V;VALENCIA MOUNTAIN ENTHUSIASTS;CALLE VALENCIA, 48-4111;46119;46;VALÈNCIA;178;NÁQUERA;EL CAMP DE TURIA;dmitry.blatov@gmail.com;665216426;;;;Desconocido (ALACANT), Desconocido (CASTELLÓ), Desconocido (VALÈNCIA)
26/01/2025 1:00;CVTA00133 V;SUP SKULL COMPANY;CALLE ENTRADA DE LA GOLA-PERELLONET, 7;46012;46;VALÈNCIA;235;SUECA;LA RIBERA BAIXA;www.surfvalencia.es;633046000;;info@supskull.com;;Desconocido (ALACANT), Desconocido (CASTELLÓ), Desconocido (VALÈNCIA)
26/01/2025 1:00;CVTA00135 V;DESATUR;CALLE CARNICERIAS, 14;46173;46;VALÈNCIA;247;TUÉJAR;LOS SERRANOS;www.pantanobenageber.com;644414892;;;;Desconocido (ALACANT), Desconocido (CASTELLÓ), Desconocido (VALÈNCIA)
26/01/2025 1:00;CVTA00136 V;EL MAR DE VALENCIA;CAMINO DEL CANAL  (VALENCIA MAR), 91;46024;46;VALÈNCIA;250;VALÈNCIA;VALENCIA;buceo@elmardevalencia.com;607596794;;http://www.elmardevalencia.es;;València (VALÈNCIA)
26/01/2025 1:00;CVTA00137 V;ENTREATMENT PROJECTS CORPORATION;CALLE MOSSEN FEMADES, 3-6ª;46250;46;VALÈNCIA;250;VALÈNCIA;VALENCIA;miguel.herrera.moscardo@gmail.com;647984100;;;;Desconocido (ALACANT), Desconocido (CASTELLÓ), Desconocido (VALÈNCIA)
26/01/2025 1:00;CVTA00138 V;CENTRO DE VACACIONES EMBALSE DE BENAGEBER;CALLE SAN FRANCISCO DE BORJA, 1-A;46007;46;VALÈNCIA;250;VALÈNCIA;VALENCIA;reservas@alberguebenageber.com;963421457;;http://www.alberguebenageber.com;;Desconocido (ALACANT), Desconocido (CASTELLÓ), Desconocido (VALÈNCIA)
26/01/2025 1:00;CVTA00139 V;CESTA Y SETAS;AVENIDA BARCELONA 92, 33;46900;46;VALÈNCIA;244;TORRENT;L'HORTA OEST;mgimenocestaysetas.com;963524414;;http://www.cestaysetas.com;;Desconocido (ALACANT), Desconocido (CASTELLÓ), Desconocido (VALÈNCIA)
26/01/2025 1:00;CVTA00140 V;DOYOUBIKE;CALLE ANTONIO SUAREZ, 22-14ª;46021;46;VALÈNCIA;250;VALÈNCIA;VALENCIA;alberto@doyoubike.com;675730217;;http://www.doyoubike.com;;Desconocido (VALÈNCIA)
26/01/2025 1:00;CVTA00141 V;TURBOLENTOS EXPEDICIONES Y AVENTURAS;AVENIDA DE LA FUENTE, 1;46392;46;VALÈNCIA;229;SIETE AGUAS;LA HOYA DE BUÑOL;rangeroscar@gmail.com;679465562;;http://www.oscarzahonerogarciaguiademontaña.com;;Desconocido (ALACANT), Desconocido (CASTELLÓ), Desconocido (VALÈNCIA)
26/01/2025 1:00;CVTA00142 V;VALENCIA PESCA PASEO;CALLE MAYOR, 29-3ª;46910;46;VALÈNCIA;54;BENETÚSSER;L'HORTA SUD;juanjopescador@gmail.com;628315686;;http://www.valenciapescapaseo.com;;Desconocido (VALÈNCIA)
26/01/2025 1:00;CVTA00143 V;TOT AVENTURA;CALLE LA VALLDIGNA, 30-3;46410;46;VALÈNCIA;235;SUECA;LA RIBERA BAIXA;infototaventura@gmail.com;670 04 03 94;;https://totaventura.net;;Desconocido (ALACANT), Desconocido (CASTELLÓ), Desconocido (VALÈNCIA)
26/01/2025 1:00;CVTA00144 V;TURIA HIDES;AVENIDA VALENCIA, S/N;46171;46;VALÈNCIA;89;CASINOS;EL CAMP DE TURIA;info@turiahides.com;615494253;;http://www.turiahides.com;;Desconocido (ALACANT), Desconocido (CASTELLÓ), Desconocido (VALÈNCIA)
26/01/2025 1:00;CVTA00145 V;LA MAR DE BIEN;AVENIDA DEL PANTA, 1;46410;46;VALÈNCIA;235;SUECA;LA RIBERA BAIXA;lamardebienvalencia@gmail.com;653331110;;www.lamardebien.com;;Desconocido (ALACANT), Desconocido (CASTELLÓ), Desconocido (VALÈNCIA)
26/01/2025 1:00;CVTA00146 V;GORGO AVENTURAS;CALLE ERAS, 7;46169;46;VALÈNCIA;902;GÁTOVA;EL CAMP DE TURIA;javier@gorgoaventuras.com;678422016;;;;Desconocido (ALACANT), Desconocido (CASTELLÓ), Desconocido (VALÈNCIA)
26/01/2025 1:00;CVTA00148 V;FRANCISCO MIGUEL RUANO LLINARES;CARRETERA ALMOINES, 15;46702;46;VALÈNCIA;131;GANDIA;LA SAFOR;paco@ruanogroup.com;699052164;;;;Desconocido (ALACANT), Desconocido (CASTELLÓ), Desconocido (VALÈNCIA)
26/01/2025 1:00;CVTA00149 V;EXCURSIONES DE VALENCIA;CALLE TEATRO DE LA MARINA, 6-9;46011;46;VALÈNCIA;250;VALÈNCIA;VALENCIA;;625779618;;http://www.excursionesdevalencia.es;;Desconocido (ALACANT), Desconocido (CASTELLÓ), Desconocido (VALÈNCIA)
26/01/2025 1:00;CVTA00150 V;MEDITERRANEAN SURF SCHOOL;AVENIDA MARE NOSTRUM, 7;46120;46;VALÈNCIA;13;ALBORAIA/ALBORAYA;L'HORTA NORD;info@mediterraneansurfschool.com;(+34) 655 014 250;;https://mediterraneansurf.com;;Alboraia/Alboraya (VALÈNCIA)
26/01/2025 1:00;CVTA00151 V;TURISMO ADAPTADO V3;CALLE COTANDA, 4;46169;46;VALÈNCIA;182;OLOCAU;VALENCIA;info@turismoadaptado-v3.com;686466413;;https://turismoadaptadao-v3.com;;Desconocido (ALACANT), Desconocido (CASTELLÓ), Desconocido (VALÈNCIA)
26/01/2025 1:00;CVTA00152 V;THE BOAT EXPERIENCE;CALLE MARINA ALTA, 6-;46015;46;VALÈNCIA;250;VALÈNCIA;VALENCIA;daniel@esfera-group.com;606454082;;http://www.theboatexperience.es;;Altea (ALACANT), Benissa (ALACANT), Calp (ALACANT), Teulada (ALACANT), Xàbia/Jávea (ALACANT)
26/01/2025 1:00;CVTA00153 V;MULTIAVENTURA EL RINCON;PARAJE LOS CENTENARES, S/N;46141;46;VALÈNCIA;92;CASTIELFABIB;EL RINCON DE ADEMUZ;multiaventuraelrincon@gmail.com;622 715 757;;https://multiaventuraelrincon.es;;Desconocido (ALACANT), Desconocido (CASTELLÓ), Desconocido (VALÈNCIA)
26/01/2025 1:00;CVTA00154 V;TERAPIA AVENTURA;CALLE FERRER I BIGNE, 11;46016;46;VALÈNCIA;250;VALÈNCIA;VALENCIA;info@terapiaaventura.es;623 035 055;;https://terapiaaventura.es;;Desconocido (ALACANT), Desconocido (CASTELLÓ), Desconocido (VALÈNCIA)
26/01/2025 1:00;CVTA00155 V;UNO I UNO;CALLE DOCTOR NICASIO BENLLOCH, 86;46015;46;VALÈNCIA;250;VALÈNCIA;VALENCIA;unoiunoaisl@gmail.com;961860952;;;;Desconocido (ALACANT), Desconocido (CASTELLÓ), Desconocido (VALÈNCIA)
26/01/2025 1:00;CVTA00157 V;QUICKSAIL CHARTER;PUERTO LOCALES COMERCIALES MARINA NORTE LOCAL, 8;46024;46;VALÈNCIA;250;VALÈNCIA;VALENCIA;info@quicksailcharter.com;+34 96 306 62 58;;https://barcoscharter.com;;Desconocido (ALACANT), Desconocido (CASTELLÓ), Desconocido (VALÈNCIA)
26/01/2025 1:00;CVTA00158 V;SAUDADE SAILING CLUB;PUERTO MARINA DE VALENCIA-MARINA NORTE-LOCAL 8, S/N;46024;46;VALÈNCIA;250;VALÈNCIA;VALENCIA;hola@saudadesailingclub.com;676947454;;http://www.saudadesailingclub.com;;Desconocido (ALACANT), Desconocido (CASTELLÓ), Desconocido (VALÈNCIA)
26/01/2025 1:00;CVTA00159 V;NEFTALI TARIN POVEDA;CALLE BUENAVISTA, 6-1ª;46380;46;VALÈNCIA;109;CHESTE;LA HOYA DE BUÑOL;neftalitarinpoveda@gmail.com;638667081;;;;Desconocido (ALACANT), Desconocido (CASTELLÓ), Desconocido (VALÈNCIA)
26/01/2025 1:00;CVTA00160 V;WAVEPOL VALENCIA;PUERTO MARINA DE VALENCIA, S/N;46024;46;VALÈNCIA;250;VALÈNCIA;VALENCIA;wavepol@wavepol.com;644081547;;;;Desconocido (ALACANT), Desconocido (CASTELLÓ), Desconocido (VALÈNCIA)
26/01/2025 1:00;CVTA00161 V;THE EASY WAY;CALLE MANTAS, 3;46001;46;VALÈNCIA;250;VALÈNCIA;VALENCIA;easywayvalencia@gmail.com;961143955;;http://theeasywayvalencia.com;;Desconocido (ALACANT), Desconocido (CASTELLÓ), Desconocido (VALÈNCIA)
26/01/2025 1:00;CVTA00162 V;TANGOS EN LA ROCA;CARRETERA N-III MADRID-VALENCIA, 7;46300;46;VALÈNCIA;249;UTIEL;LA PLANA DE UTIEL-REQUENA;info@tangosenlaroca.com;633103452;;http://www.tangosenlaroca.com;;Desconocido (ALACANT), Desconocido (CASTELLÓ), Desconocido (VALÈNCIA)
26/01/2025 1:00;CVTA00163 V;CONTRACORRIENTE AVENTURAS;CALLE GRACIA, 8;46310;46;VALÈNCIA;254;VENTA DEL MORO;LA COSTERA;reservas@contracorrienteaventuras.com;630809376;;http://www.contracorrienteaventuras.com;;Desconocido (ALACANT), Desconocido (CASTELLÓ), Desconocido (VALÈNCIA)
26/01/2025 1:00;CVTA00164 V;BEEXPERIENCE;CALLE ANDARELLA BLOQUE 2, 2 2º 2ª;46950;46;VALÈNCIA;110;XIRIVELLA;L'HORTA OEST;mariajose.martinez@beoptimus.com;653 647 765;;https://beexperience.es;;Dénia (ALACANT), Desconocido (ALACANT), Xàbia/Jávea (ALACANT), Desconocido (VALÈNCIA), València (VALÈNCIA)
26/01/2025 1:00;CVTA00166 V;CENTRO HIPICO OLIVA;PARTIDA SENDA DEL OLIVAR, S/N;46780;46;VALÈNCIA;181;OLIVA;LA SAFOR;centrohipicoolivanova@hotmail.es;607340713;;;;Oliva (VALÈNCIA)
26/01/2025 1:00;CVTA00167 V;AQUAGAMES;CALLE ESCOLLERA - PLATJA NORD DE GANDIA, S/N;46730;46;VALÈNCIA;131;GANDIA;LA SAFOR;gandia@aquagames.net;665510003;;http://www.aquagames.net;;Gandia (VALÈNCIA)
26/01/2025 1:00;CVTA00168 V;NUESTRA AVENTURA;PLAZA POLIGONO, 14 53;46193;46;VALÈNCIA;176;MONTROI/MONTROY;LA RIBERA ALTA;nuestra.aventura.tours@gmail.com;622482598;;http://www.nuestra-aventura.com;;Desconocido (ALACANT), Desconocido (CASTELLÓ), Desconocido (VALÈNCIA)
26/01/2025 1:00;CVTA00169 V;CONSUELO ZACARES TORREJON;CALLE MORERAS, 13;46176;46;VALÈNCIA;106;CHELVA;LOS SERRANOS;info@consuelozacares.com;622906082;;http://www.consuelozacares.com;;Chelva (VALÈNCIA)
26/01/2025 1:00;CVTA00170 V;BUCEO VALENCIA;CALLE CLUB NAUTICO- POBLA MARINA;46137;46;VALÈNCIA;199;LA POBLA DE FARNALS;L'HORTA NORD;ricardo@buceovalencia.com;960628081;;www.buceovalencia.com;;Desconocido (ALACANT), Desconocido (CASTELLÓ), Desconocido (VALÈNCIA)
26/01/2025 1:00;CVTA00171 V;AKTIVITI;CALLE PINTOR ZARIÑENA, 5 BJO DCHA;46003;46;VALÈNCIA;250;VALÈNCIA;VALENCIA;victor@aktiviti.es;960625925;;http://www.info@aktiviti.es;;Desconocido (ALACANT), Desconocido (CASTELLÓ), Desconocido (VALÈNCIA)
26/01/2025 1:00;CVTA00172 V;GREGARIOS CC;AVENIDA CAMP DEL TURIA, 58;46183;46;VALÈNCIA;116;L'ELIANA;EL CAMP DE TURIA;gregarios@gregarioscc.com;638202332;;http://gregarioscc.com;;Desconocido (VALÈNCIA)
26/01/2025 1:00;CVTA00173 V;PAUNATURA;PARTIDA EL CERRAO, S/N;46168;46;VALÈNCIA;234;SOT DE CHERA;LOS SERRANOS;administracion@paunatura.es;962 348 025;;https://paunatura.es;;Sot de Chera (VALÈNCIA)
26/01/2025 1:00;CVTA00174 V;MONTAÑAS DEL MUNDO;CALLE ALBERIQUE, 37- BAJO D;46008;46;VALÈNCIA;250;VALÈNCIA;VALENCIA;info@montanasdelmundo.com;963730067;;http://www.montanasdelmundo.com;;Desconocido (ALACANT), Desconocido (CASTELLÓ), Desconocido (VALÈNCIA)
26/01/2025 1:00;CVTA00176 V;BOBAL & CABRIEL;CALLE DE LA FUENTE, 22 2;46310;46;VALÈNCIA;254;VENTA DEL MORO;LA PLANA DE UTIEL-REQUENA;tuguiabobalcabriel@gmail.com;630418055;;http://www.bobalcabriel.com;;Camporrobles (VALÈNCIA), Caudete de las Fuentes (VALÈNCIA), Chera (VALÈNCIA), Fuenterrobles (VALÈNCIA), Requena (VALÈNCIA), Sinarcas (VALÈNCIA), Utiel (VALÈNCIA), Venta del Moro (VALÈNCIA), Villargordo del Cabriel (VALÈNCIA)
26/01/2025 1:00;CVTA00177 V;VALENCIA YACHTING CENTER VALENCIA;PASEO DE LA ADUANA S/N MARINA DARSENA NORTE LOCAL, A3;46024;46;VALÈNCIA;250;VALÈNCIA;VALENCIA;info@corporateyachting.es;669568083;;http://valenciayachtingcenter.es;;Desconocido (ALACANT), Desconocido (CASTELLÓ), Desconocido (VALÈNCIA)
26/01/2025 1:00;CVTA00178 V;VALENCIAN HIKING BUDDIES;CALLE GARRIGUES, 1-2º-4ª-E;46001;46;VALÈNCIA;250;VALÈNCIA;VALENCIA;johnhunter18566@gmail.com;644490082;;;;Desconocido (ALACANT), Desconocido (CASTELLÓ), Desconocido (VALÈNCIA)
26/01/2025 1:00;CVTA00179 V;ESCOLA MUNICIPAL VELA VALENCIA;PUERTO LA MARINA DE VALENCIA DARSENA NORTE, S/N;46024;46;VALÈNCIA;250;VALÈNCIA;VALENCIA;info@somvela.com;963530120;;;;València (VALÈNCIA)
26/01/2025 1:00;CVTA00180 V;KOLOTRIP;EDIFICIO LANZADERA MUELLE DE  LA ADUANA, S/N;46024;46;VALÈNCIA;250;VALÈNCIA;VALENCIA;hola@kolotrip.com;699462621;;;;Cullera (VALÈNCIA), Favara (VALÈNCIA), Gandia (VALÈNCIA), Sueca (VALÈNCIA), Tavernes de la Valldigna (VALÈNCIA), València (VALÈNCIA), Xeraco (VALÈNCIA)
26/01/2025 1:00;CVTA00181 V;VALENCIA SAILING DISTRICT;CALLE ARQUEBISBE COMPANY, 59-BJ;46011;46;VALÈNCIA;250;VALÈNCIA;VALENCIA;info@valenciasailingdistrict.com;619249189;;http://www.valenciasailingdistrict.com;;Desconocido (ALACANT), Desconocido (CASTELLÓ), Desconocido (VALÈNCIA)
26/01/2025 1:00;CVTA00182 V;ALBUFERA PARC;CALLE PINTOR MARTI GIRBES (IZQ RESTAURANTE EL REK), 1 IZQ;46012;46;VALÈNCIA;250;VALÈNCIA;VALENCIA;illa@albuferaparc.com;666 672 974;;https://albuferaparc.com;;València (VALÈNCIA)
26/01/2025 1:00;CVTA00183 V;TOALLSITES;AVENIDA DE LES MOTES, 24-16BAJO;46770;46;VALÈNCIA;143;XERACO;LA SAFOR;toallsites20@gmail.com;641 588 869;;https://www.toallsites.es;;Alacant/Alicante (ALACANT), Castelló de la Plana/Castellón de la Plana (CASTELLÓ), València (VALÈNCIA), Xeraco (VALÈNCIA)
26/01/2025 1:00;CVTA00184 V;MONTANIA ADVENTURES;AVENIDA DEL CID, 136 - 6;46014;46;VALÈNCIA;250;VALÈNCIA;VALENCIA;hola@montaniaadventures.com;681676777;;http://www.montaniaadventures.com;;Desconocido (ALACANT), Desconocido (CASTELLÓ), Desconocido (VALÈNCIA)
26/01/2025 1:00;CVTA00185 V;SETSAIL WORLD;CALLE NAVARRO REVERTER, 17 2 1º 1ª;46004;46;VALÈNCIA;250;VALÈNCIA;VALENCIA;alfredo.perez@setsail.world;666488228;;http://setsail.world;;Desconocido (ALACANT), Desconocido (CASTELLÓ), Desconocido (VALÈNCIA)
26/01/2025 1:00;CVTA00186 V;KEVIN LANE;CALLE FINESTRAT, 33  43;46006;46;VALÈNCIA;250;VALÈNCIA;VALENCIA;lane_kevin@yahoo.co.uk;684103984;;http://differentvalencia.com;;Desconocido (ALACANT), Montanejos (CASTELLÓ), Chulilla (VALÈNCIA), Serra (VALÈNCIA)
26/01/2025 1:00;CVTA00187 V;NUMENIUS NATURE IN CONTEXT;AVENIDA POETA FEDERICO GARCIA LORCA, 85 A;46026;46;VALÈNCIA;250;VALÈNCIA;VALENCIA;info@numenius.tours;666078893;;http://numenius.tours;;Desconocido (ALACANT), Desconocido (CASTELLÓ), Desconocido (VALÈNCIA)
26/01/2025 1:00;CVTA00188 V;BEYOND VALENCIA TRIPS;CALLE SANTIAGO APOSTOL, 53;46370;46;VALÈNCIA;111;CHIVA;LA HOYA DE BUÑOL;pauchinestra91@gmail.com;677822888;;http://beyondvalenciatrips.com;;Buñol (VALÈNCIA), Chiva (VALÈNCIA), Cofrentes (VALÈNCIA), Cortes de Pallás (VALÈNCIA), Requena (VALÈNCIA), Utiel (VALÈNCIA)
26/01/2025 1:00;CVTA00189 V;CLUB CICLISTA DEMARRAGE VALENCIA;CALLE EMBAJADOR VIC, 3 1C;46002;46;VALÈNCIA;250;VALÈNCIA;VALENCIA;10picos@demarragevalencia.es;698747132;;http://demarragevalencia.com;;Onda (CASTELLÓ)
26/01/2025 1:00;CVTA00190 V;MONTGRAU;PARTIDA CAMI BARRANC DE BORJA, 6;46614;46;VALÈNCIA;123;FAVARA;LA RIBERA BAIXA;montgraucb@hotmail.com;658724834;;;;Favara (VALÈNCIA)
26/01/2025 1:00;CVTA00191 V;RIBARRANCS;CALLE SAGUNT, 3;46190;46;VALÈNCIA;214;RIBA-ROJA DE TÚRIA;EL CAMP DE TURIA;ribarrancs@gmail.com;654843645;;;;Desconocido (ALACANT), Desconocido (CASTELLÓ), Desconocido (VALÈNCIA)
26/01/2025 1:00;CVTA00192 V;ESCALADAVENTURA;CALLE SANT ISIDRE LLAURADOR, 50-1ª;46680;46;VALÈNCIA;29;ALGEMESÍ;LA RIBERA ALTA;escaladaventura@gmail.com;620815682;;;;Desconocido (ALACANT), Desconocido (CASTELLÓ), Desconocido (VALÈNCIA)
26/01/2025 1:00;CVTA00193 V;ROCA NOSTRA GUIES D'ESCALADA;CALLE PLUS ULTRA, 19;46701;46;VALÈNCIA;131;GANDIA;LA SAFOR;info@rocanostra.es;615499353;;www.rocanostra.es;;Desconocido (ALACANT), Desconocido (CASTELLÓ), Desconocido (VALÈNCIA)
26/01/2025 1:00;CVTA00194 V;KSUP ADVENTURE;AVENIDA GUARDIA CIVIL, 18;46400;46;VALÈNCIA;105;CULLERA;LA RIBERA BAIXA;valenciakayakinfo@gmail.com;686989465;;;;Cullera (VALÈNCIA)
26/01/2025 1:00;CVTA00195 V;MANTA DIVING VALENCIA;CALLE CONCEPCION ARENAL, 26;46520;46;VALÈNCIA;220;SAGUNT/SAGUNTO;EL CAMP DE MORVEDRE;kamalkarlos709@gmail.com;671514640;;;;Desconocido (ALACANT), Desconocido (CASTELLÓ), Desconocido (VALÈNCIA)
26/01/2025 1:00;CVTA00196 V;CAMPAMENTO LA SERRANA;PARTIDA SERRANA, S/N;46360;46;VALÈNCIA;77;BUÑOL;LA HOYA DE BUÑOL;hola@campamentolaserrana.com;686937787;;https://campamentolaserrana.com;;Desconocido (ALACANT), Desconocido (CASTELLÓ), Desconocido (VALÈNCIA)
26/01/2025 1:00;CVTA00197 V;HARMONIAFAMILY SL;CALLE HIERBA  LOCAL BAJO, 4;46003;46;VALÈNCIA;250;VALÈNCIA;--;pelicanbikerent@gmail.com;635200638;;http://www.pelicanbikerentals.com;;Desconocido (ALACANT), Desconocido (CASTELLÓ), Desconocido (VALÈNCIA)
26/01/2025 1:00;CVTA00198 V;VALENCIA FOREST SCHOOL SL;CALLE MAESTRO SOSA, 4-1;46007;46;VALÈNCIA;250;VALÈNCIA;VALENCIA;hello@valenciaforestschool.es;613015179;;http://www.valenciaforestschool.es;;Desconocido (ALACANT), Desconocido (CASTELLÓ), Desconocido (VALÈNCIA)
26/01/2025 1:00;CVTA00199 V;EASYADVENTURS;CALLE VALENCIA, 101;46900;46;VALÈNCIA;244;TORRENT;L'HORTA OEST;easyadventurs@gmail.com;622539803;;http://easyadventurs.com;;Desconocido (ALACANT), Desconocido (CASTELLÓ), Desconocido (VALÈNCIA)
